<?xml version="1.0" encoding="UTF-8"?>
<gpx version="1.1" creator="Mopik"
     xmlns="http://www.topografix.com/GPX/1/1"
     xmlns:trp="http://www.garmin.com/xmlschemas/TripExtensions/v1"
     xmlns:xsi="http://www.w3.org/2001/XMLSchema-instance"
     xsi:schemaLocation="http://www.topografix.com/GPX/1/1 http://www.topografix.com/GPX/1/1/gpx.xsd http://www.garmin.com/xmlschemas/TripExtensions/v1 https://www8.garmin.com/xmlschemas/TripExtensionsv1.xsd">
  <metadata>
    <name>Kapseļu iela → Upmaļi via TET</name>
    <desc>Kapseļu iela → Viduči → Upmaļi · brīvs ilgums · Grūti · Sports · Meži · izvairīties no lielajiem ceļiem · atļaut nepārbaudītas takas
101 km · 3 h 12 min · 63 % grants un zemes ceļu · 1 % atkārtoti
Ceļi: 65.6 km, 27.6 km meža ceļš, 7.6 km taciņas
Ātrāks · Mopik (mopik.eu)
Maršruts veidots no OpenStreetMap datiem — vienmēr ievēro ceļa zīmes.</desc>
    <time>2026-09-29T09:51:45.609Z</time>
  </metadata>
  <wpt lat="56.943201" lon="24.071329">
      <name>Starts · Kapseļu iela</name>
      <desc>Rīga</desc>
      <sym>Flag, Green</sym>
      <type>start</type>
  </wpt>
  <wpt lat="56.896211" lon="24.896296">
      <name>1 · Viduči</name>
      <desc>Suntažu pagasts</desc>
      <sym>Flag, Blue</sym>
      <type>stop</type>
  </wpt>
  <wpt lat="56.923091" lon="24.994630">
      <name>Finišs · Upmaļi</name>
      <desc>Suntažu pagasts</desc>
      <sym>Flag, Red</sym>
      <type>finish</type>
  </wpt>
  <rte>
    <name>Kapseļu iela → Upmaļi via TET</name>
    <rtept lat="56.943201" lon="24.071329">
      <name>Starts · Kapseļu iela</name>
      <extensions><trp:ViaPoint/></extensions>
    </rtept>
    <rtept lat="56.932721" lon="24.484968">
      <name>Caurbraucams punkts</name>
      <extensions><trp:ShapingPoint/></extensions>
    </rtept>
    <rtept lat="56.864642" lon="24.560817">
      <name>Caurbraucams punkts</name>
      <extensions><trp:ShapingPoint/></extensions>
    </rtept>
    <rtept lat="56.857547" lon="24.645079">
      <name>Caurbraucams punkts</name>
      <extensions><trp:ShapingPoint/></extensions>
    </rtept>
    <rtept lat="56.862412" lon="24.712794">
      <name>Caurbraucams punkts</name>
      <extensions><trp:ShapingPoint/></extensions>
    </rtept>
    <rtept lat="56.896211" lon="24.896296">
      <name>Pietura 1 · Viduči</name>
      <extensions><trp:ViaPoint/></extensions>
    </rtept>
    <rtept lat="56.909298" lon="24.964262">
      <name>Caurbraucams punkts</name>
      <extensions><trp:ShapingPoint/></extensions>
    </rtept>
    <rtept lat="56.923091" lon="24.994630">
      <name>Finišs · Upmaļi</name>
      <extensions><trp:ViaPoint/></extensions>
    </rtept>
  </rte>
  <trk>
    <name>Kapseļu iela → Upmaļi via TET</name>
    <desc>Kapseļu iela → Viduči → Upmaļi · brīvs ilgums · Grūti · Sports · Meži · izvairīties no lielajiem ceļiem · atļaut nepārbaudītas takas
101 km · 3 h 12 min · 63 % grants un zemes ceļu · 1 % atkārtoti
Ceļi: 65.6 km, 27.6 km meža ceļš, 7.6 km taciņas
Ātrāks · Mopik (mopik.eu)
Maršruts veidots no OpenStreetMap datiem — vienmēr ievēro ceļa zīmes.</desc>

    <trkseg>
      <trkpt lat="56.943142" lon="24.071416" />
      <trkpt lat="56.943502" lon="24.072172" />
      <trkpt lat="56.943625" lon="24.072436" />
      <trkpt lat="56.943718" lon="24.072633" />
      <trkpt lat="56.944091" lon="24.073343" />
      <trkpt lat="56.944311" lon="24.073763" />
      <trkpt lat="56.944418" lon="24.073967" />
      <trkpt lat="56.944440" lon="24.074010" />
      <trkpt lat="56.944394" lon="24.074093" />
      <trkpt lat="56.944308" lon="24.074246" />
      <trkpt lat="56.944276" lon="24.074327" />
      <trkpt lat="56.944244" lon="24.074433" />
      <trkpt lat="56.944237" lon="24.074465" />
      <trkpt lat="56.944079" lon="24.075209" />
      <trkpt lat="56.943989" lon="24.075633" />
      <trkpt lat="56.944017" lon="24.075697" />
      <trkpt lat="56.944085" lon="24.075853" />
      <trkpt lat="56.944095" lon="24.075876" />
      <trkpt lat="56.944144" lon="24.075983" />
      <trkpt lat="56.944152" lon="24.076001" />
      <trkpt lat="56.944160" lon="24.076023" />
      <trkpt lat="56.944196" lon="24.076112" />
      <trkpt lat="56.944352" lon="24.076480" />
      <trkpt lat="56.944373" lon="24.076559" />
      <trkpt lat="56.944385" lon="24.076638" />
      <trkpt lat="56.944385" lon="24.077001" />
      <trkpt lat="56.944400" lon="24.077072" />
      <trkpt lat="56.944429" lon="24.077111" />
      <trkpt lat="56.944518" lon="24.077129" />
      <trkpt lat="56.944572" lon="24.077651" />
      <trkpt lat="56.944564" lon="24.077928" />
      <trkpt lat="56.944559" lon="24.078100" />
      <trkpt lat="56.944544" lon="24.078414" />
      <trkpt lat="56.944507" lon="24.078585" />
      <trkpt lat="56.944437" lon="24.078801" />
      <trkpt lat="56.944299" lon="24.079136" />
      <trkpt lat="56.944232" lon="24.079290" />
      <trkpt lat="56.944188" lon="24.079398" />
      <trkpt lat="56.944177" lon="24.079423" />
      <trkpt lat="56.944161" lon="24.079576" />
      <trkpt lat="56.944076" lon="24.080402" />
      <trkpt lat="56.944063" lon="24.080552" />
      <trkpt lat="56.944050" lon="24.080744" />
      <trkpt lat="56.944052" lon="24.080822" />
      <trkpt lat="56.944092" lon="24.081127" />
      <trkpt lat="56.944156" lon="24.081428" />
      <trkpt lat="56.944165" lon="24.081463" />
      <trkpt lat="56.944298" lon="24.081982" />
      <trkpt lat="56.944484" lon="24.082680" />
      <trkpt lat="56.944516" lon="24.082804" />
      <trkpt lat="56.944534" lon="24.082934" />
      <trkpt lat="56.944562" lon="24.083114" />
      <trkpt lat="56.944758" lon="24.083835" />
      <trkpt lat="56.944795" lon="24.083954" />
      <trkpt lat="56.944879" lon="24.084202" />
      <trkpt lat="56.944989" lon="24.084339" />
      <trkpt lat="56.945084" lon="24.084434" />
      <trkpt lat="56.945284" lon="24.084656" />
      <trkpt lat="56.945852" lon="24.085281" />
      <trkpt lat="56.946030" lon="24.085484" />
      <trkpt lat="56.946432" lon="24.085928" />
      <trkpt lat="56.946446" lon="24.085943" />
      <trkpt lat="56.947277" lon="24.086887" />
      <trkpt lat="56.947556" lon="24.087205" />
      <trkpt lat="56.947667" lon="24.087332" />
      <trkpt lat="56.947834" lon="24.087517" />
      <trkpt lat="56.947916" lon="24.087609" />
      <trkpt lat="56.947958" lon="24.087655" />
      <trkpt lat="56.948072" lon="24.087789" />
      <trkpt lat="56.948378" lon="24.088148" />
      <trkpt lat="56.948671" lon="24.088519" />
      <trkpt lat="56.948724" lon="24.088544" />
      <trkpt lat="56.948767" lon="24.088505" />
      <trkpt lat="56.948934" lon="24.088280" />
      <trkpt lat="56.949365" lon="24.087723" />
      <trkpt lat="56.949439" lon="24.087650" />
      <trkpt lat="56.949620" lon="24.088655" />
      <trkpt lat="56.949724" lon="24.089001" />
      <trkpt lat="56.950169" lon="24.090580" />
      <trkpt lat="56.950196" lon="24.090720" />
      <trkpt lat="56.950352" lon="24.091552" />
      <trkpt lat="56.951375" lon="24.096784" />
      <trkpt lat="56.951703" lon="24.098499" />
      <trkpt lat="56.952209" lon="24.101048" />
      <trkpt lat="56.952362" lon="24.101821" />
      <trkpt lat="56.952332" lon="24.101976" />
      <trkpt lat="56.952313" lon="24.102041" />
      <trkpt lat="56.952289" lon="24.102097" />
      <trkpt lat="56.952260" lon="24.102118" />
      <trkpt lat="56.952191" lon="24.102156" />
      <trkpt lat="56.952128" lon="24.102166" />
      <trkpt lat="56.951869" lon="24.102336" />
      <trkpt lat="56.951798" lon="24.102383" />
      <trkpt lat="56.951780" lon="24.102253" />
      <trkpt lat="56.951621" lon="24.101176" />
      <trkpt lat="56.951585" lon="24.100958" />
      <trkpt lat="56.952321" lon="24.100244" />
      <trkpt lat="56.952361" lon="24.100374" />
      <trkpt lat="56.952383" lon="24.100414" />
      <trkpt lat="56.952425" lon="24.100449" />
      <trkpt lat="56.952449" lon="24.100525" />
      <trkpt lat="56.952495" lon="24.100793" />
      <trkpt lat="56.952570" lon="24.100747" />
      <trkpt lat="56.952676" lon="24.100691" />
      <trkpt lat="56.952718" lon="24.100696" />
      <trkpt lat="56.952794" lon="24.100775" />
      <trkpt lat="56.952851" lon="24.100743" />
      <trkpt lat="56.952865" lon="24.100735" />
      <trkpt lat="56.952941" lon="24.100784" />
      <trkpt lat="56.952981" lon="24.101008" />
      <trkpt lat="56.953043" lon="24.101350" />
      <trkpt lat="56.953074" lon="24.101523" />
      <trkpt lat="56.953231" lon="24.101417" />
      <trkpt lat="56.953454" lon="24.101293" />
      <trkpt lat="56.953840" lon="24.101077" />
      <trkpt lat="56.953940" lon="24.101016" />
      <trkpt lat="56.953987" lon="24.100989" />
      <trkpt lat="56.954103" lon="24.100926" />
      <trkpt lat="56.954347" lon="24.100911" />
      <trkpt lat="56.954400" lon="24.100904" />
      <trkpt lat="56.954492" lon="24.100897" />
      <trkpt lat="56.954939" lon="24.100856" />
      <trkpt lat="56.955069" lon="24.100842" />
      <trkpt lat="56.955212" lon="24.100829" />
      <trkpt lat="56.955736" lon="24.100804" />
      <trkpt lat="56.955778" lon="24.100805" />
      <trkpt lat="56.956074" lon="24.100815" />
      <trkpt lat="56.956561" lon="24.100819" />
      <trkpt lat="56.956922" lon="24.100825" />
      <trkpt lat="56.957166" lon="24.100831" />
      <trkpt lat="56.957225" lon="24.100857" />
      <trkpt lat="56.957246" lon="24.100907" />
      <trkpt lat="56.957472" lon="24.100708" />
      <trkpt lat="56.957647" lon="24.100541" />
      <trkpt lat="56.957690" lon="24.100499" />
      <trkpt lat="56.957742" lon="24.100450" />
      <trkpt lat="56.958061" lon="24.100156" />
      <trkpt lat="56.958269" lon="24.099970" />
      <trkpt lat="56.958333" lon="24.099951" />
      <trkpt lat="56.958388" lon="24.099931" />
      <trkpt lat="56.958430" lon="24.099922" />
      <trkpt lat="56.958496" lon="24.099922" />
      <trkpt lat="56.958840" lon="24.099947" />
      <trkpt lat="56.958962" lon="24.099958" />
      <trkpt lat="56.959039" lon="24.099971" />
      <trkpt lat="56.959128" lon="24.099988" />
      <trkpt lat="56.959108" lon="24.100168" />
      <trkpt lat="56.958930" lon="24.101791" />
      <trkpt lat="56.958822" lon="24.102826" />
      <trkpt lat="56.958675" lon="24.104140" />
      <trkpt lat="56.958640" lon="24.104454" />
      <trkpt lat="56.958549" lon="24.105313" />
      <trkpt lat="56.958516" lon="24.105666" />
      <trkpt lat="56.958475" lon="24.106184" />
      <trkpt lat="56.958441" lon="24.106377" />
      <trkpt lat="56.958368" lon="24.107037" />
      <trkpt lat="56.958313" lon="24.107548" />
      <trkpt lat="56.958284" lon="24.107822" />
      <trkpt lat="56.958280" lon="24.107868" />
      <trkpt lat="56.958229" lon="24.108320" />
      <trkpt lat="56.958206" lon="24.108528" />
      <trkpt lat="56.958167" lon="24.108900" />
      <trkpt lat="56.958121" lon="24.109325" />
      <trkpt lat="56.958110" lon="24.109414" />
      <trkpt lat="56.958084" lon="24.109642" />
      <trkpt lat="56.958079" lon="24.109681" />
      <trkpt lat="56.958026" lon="24.110152" />
      <trkpt lat="56.957998" lon="24.110406" />
      <trkpt lat="56.957968" lon="24.110633" />
      <trkpt lat="56.957951" lon="24.110719" />
      <trkpt lat="56.957921" lon="24.110795" />
      <trkpt lat="56.957718" lon="24.111213" />
      <trkpt lat="56.957632" lon="24.111383" />
      <trkpt lat="56.957506" lon="24.111634" />
      <trkpt lat="56.957330" lon="24.111987" />
      <trkpt lat="56.957193" lon="24.112256" />
      <trkpt lat="56.957031" lon="24.112578" />
      <trkpt lat="56.956533" lon="24.113600" />
      <trkpt lat="56.956459" lon="24.113752" />
      <trkpt lat="56.956406" lon="24.113855" />
      <trkpt lat="56.955794" lon="24.115075" />
      <trkpt lat="56.955772" lon="24.115120" />
      <trkpt lat="56.955726" lon="24.115213" />
      <trkpt lat="56.955061" lon="24.116541" />
      <trkpt lat="56.954643" lon="24.117360" />
      <trkpt lat="56.954577" lon="24.117491" />
      <trkpt lat="56.954530" lon="24.117586" />
      <trkpt lat="56.954396" lon="24.117847" />
      <trkpt lat="56.954318" lon="24.117987" />
      <trkpt lat="56.954199" lon="24.118184" />
      <trkpt lat="56.953941" lon="24.118480" />
      <trkpt lat="56.953119" lon="24.119424" />
      <trkpt lat="56.953074" lon="24.119461" />
      <trkpt lat="56.952967" lon="24.119552" />
      <trkpt lat="56.953027" lon="24.119695" />
      <trkpt lat="56.953086" lon="24.119811" />
      <trkpt lat="56.953325" lon="24.120330" />
      <trkpt lat="56.953375" lon="24.120437" />
      <trkpt lat="56.953621" lon="24.120972" />
      <trkpt lat="56.953669" lon="24.121076" />
      <trkpt lat="56.953717" lon="24.121180" />
      <trkpt lat="56.953816" lon="24.121395" />
      <trkpt lat="56.953973" lon="24.121737" />
      <trkpt lat="56.954008" lon="24.121814" />
      <trkpt lat="56.954093" lon="24.121998" />
      <trkpt lat="56.954407" lon="24.122682" />
      <trkpt lat="56.954470" lon="24.122819" />
      <trkpt lat="56.954528" lon="24.122943" />
      <trkpt lat="56.954639" lon="24.123182" />
      <trkpt lat="56.954805" lon="24.123536" />
      <trkpt lat="56.954940" lon="24.123825" />
      <trkpt lat="56.954971" lon="24.123892" />
      <trkpt lat="56.954998" lon="24.123952" />
      <trkpt lat="56.955023" lon="24.124007" />
      <trkpt lat="56.955055" lon="24.124078" />
      <trkpt lat="56.955372" lon="24.124762" />
      <trkpt lat="56.955426" lon="24.124879" />
      <trkpt lat="56.955479" lon="24.124993" />
      <trkpt lat="56.955704" lon="24.125484" />
      <trkpt lat="56.955771" lon="24.125630" />
      <trkpt lat="56.955827" lon="24.125748" />
      <trkpt lat="56.956068" lon="24.126264" />
      <trkpt lat="56.956150" lon="24.126438" />
      <trkpt lat="56.956315" lon="24.126802" />
      <trkpt lat="56.956368" lon="24.126918" />
      <trkpt lat="56.956504" lon="24.127216" />
      <trkpt lat="56.956632" lon="24.127498" />
      <trkpt lat="56.956691" lon="24.127623" />
      <trkpt lat="56.956749" lon="24.127750" />
      <trkpt lat="56.956845" lon="24.127985" />
      <trkpt lat="56.956987" lon="24.128332" />
      <trkpt lat="56.957349" lon="24.129214" />
      <trkpt lat="56.957379" lon="24.129289" />
      <trkpt lat="56.957408" lon="24.129358" />
      <trkpt lat="56.957344" lon="24.129481" />
      <trkpt lat="56.957138" lon="24.129890" />
      <trkpt lat="56.956378" lon="24.131392" />
      <trkpt lat="56.956327" lon="24.131495" />
      <trkpt lat="56.956316" lon="24.131513" />
      <trkpt lat="56.956305" lon="24.131534" />
      <trkpt lat="56.956246" lon="24.131652" />
      <trkpt lat="56.956215" lon="24.131712" />
      <trkpt lat="56.956097" lon="24.131941" />
      <trkpt lat="56.955734" lon="24.132640" />
      <trkpt lat="56.955628" lon="24.132847" />
      <trkpt lat="56.955563" lon="24.132976" />
      <trkpt lat="56.955091" lon="24.133903" />
      <trkpt lat="56.955033" lon="24.134017" />
      <trkpt lat="56.954954" lon="24.134168" />
      <trkpt lat="56.954932" lon="24.134211" />
      <trkpt lat="56.954869" lon="24.134332" />
      <trkpt lat="56.954786" lon="24.134493" />
      <trkpt lat="56.954774" lon="24.134517" />
      <trkpt lat="56.954672" lon="24.134714" />
      <trkpt lat="56.954483" lon="24.135084" />
      <trkpt lat="56.954471" lon="24.135108" />
      <trkpt lat="56.954463" lon="24.135123" />
      <trkpt lat="56.954358" lon="24.135329" />
      <trkpt lat="56.954331" lon="24.135381" />
      <trkpt lat="56.954189" lon="24.135660" />
      <trkpt lat="56.954145" lon="24.135746" />
      <trkpt lat="56.954078" lon="24.135877" />
      <trkpt lat="56.954050" lon="24.135933" />
      <trkpt lat="56.954036" lon="24.135960" />
      <trkpt lat="56.953867" lon="24.136292" />
      <trkpt lat="56.953786" lon="24.136450" />
      <trkpt lat="56.953764" lon="24.136491" />
      <trkpt lat="56.953589" lon="24.136832" />
      <trkpt lat="56.953491" lon="24.137022" />
      <trkpt lat="56.953308" lon="24.137378" />
      <trkpt lat="56.953294" lon="24.137406" />
      <trkpt lat="56.953146" lon="24.137695" />
      <trkpt lat="56.953070" lon="24.137845" />
      <trkpt lat="56.953031" lon="24.137922" />
      <trkpt lat="56.952933" lon="24.138116" />
      <trkpt lat="56.952919" lon="24.138142" />
      <trkpt lat="56.952832" lon="24.138311" />
      <trkpt lat="56.952794" lon="24.138384" />
      <trkpt lat="56.952664" lon="24.138637" />
      <trkpt lat="56.952626" lon="24.138710" />
      <trkpt lat="56.952524" lon="24.138909" />
      <trkpt lat="56.952440" lon="24.139075" />
      <trkpt lat="56.952331" lon="24.139291" />
      <trkpt lat="56.952183" lon="24.139583" />
      <trkpt lat="56.952134" lon="24.139677" />
      <trkpt lat="56.952079" lon="24.139785" />
      <trkpt lat="56.951991" lon="24.139955" />
      <trkpt lat="56.951132" lon="24.141620" />
      <trkpt lat="56.950072" lon="24.143670" />
      <trkpt lat="56.949825" lon="24.144151" />
      <trkpt lat="56.949387" lon="24.144995" />
      <trkpt lat="56.949231" lon="24.145296" />
      <trkpt lat="56.949217" lon="24.145344" />
      <trkpt lat="56.949167" lon="24.145450" />
      <trkpt lat="56.949125" lon="24.145535" />
      <trkpt lat="56.949051" lon="24.145652" />
      <trkpt lat="56.949001" lon="24.145751" />
      <trkpt lat="56.948101" lon="24.147488" />
      <trkpt lat="56.947919" lon="24.147845" />
      <trkpt lat="56.947888" lon="24.147906" />
      <trkpt lat="56.947924" lon="24.147969" />
      <trkpt lat="56.948378" lon="24.148766" />
      <trkpt lat="56.948441" lon="24.148877" />
      <trkpt lat="56.948693" lon="24.149316" />
      <trkpt lat="56.948875" lon="24.149639" />
      <trkpt lat="56.949035" lon="24.149918" />
      <trkpt lat="56.949107" lon="24.150045" />
      <trkpt lat="56.949182" lon="24.150163" />
      <trkpt lat="56.949136" lon="24.150259" />
      <trkpt lat="56.948888" lon="24.150785" />
      <trkpt lat="56.948616" lon="24.151374" />
      <trkpt lat="56.948115" lon="24.152454" />
      <trkpt lat="56.948085" lon="24.152519" />
      <trkpt lat="56.947929" lon="24.152857" />
      <trkpt lat="56.947391" lon="24.154018" />
      <trkpt lat="56.947318" lon="24.154175" />
      <trkpt lat="56.947258" lon="24.154311" />
      <trkpt lat="56.947202" lon="24.154435" />
      <trkpt lat="56.947168" lon="24.154500" />
      <trkpt lat="56.947143" lon="24.154558" />
      <trkpt lat="56.947130" lon="24.154584" />
      <trkpt lat="56.947034" lon="24.154782" />
      <trkpt lat="56.947105" lon="24.155000" />
      <trkpt lat="56.947171" lon="24.155249" />
      <trkpt lat="56.947219" lon="24.155610" />
      <trkpt lat="56.947238" lon="24.156155" />
      <trkpt lat="56.947251" lon="24.156720" />
      <trkpt lat="56.947297" lon="24.158564" />
      <trkpt lat="56.947297" lon="24.158763" />
      <trkpt lat="56.947288" lon="24.158873" />
      <trkpt lat="56.947266" lon="24.159019" />
      <trkpt lat="56.947173" lon="24.159407" />
      <trkpt lat="56.947046" lon="24.159906" />
      <trkpt lat="56.946807" lon="24.160837" />
      <trkpt lat="56.946661" lon="24.161442" />
      <trkpt lat="56.946506" lon="24.162195" />
      <trkpt lat="56.946490" lon="24.162273" />
      <trkpt lat="56.946128" lon="24.164064" />
      <trkpt lat="56.946117" lon="24.164121" />
      <trkpt lat="56.946105" lon="24.164177" />
      <trkpt lat="56.946082" lon="24.164236" />
      <trkpt lat="56.946051" lon="24.164287" />
      <trkpt lat="56.945637" lon="24.164412" />
      <trkpt lat="56.945313" lon="24.164521" />
      <trkpt lat="56.945205" lon="24.164539" />
      <trkpt lat="56.945052" lon="24.164563" />
      <trkpt lat="56.944564" lon="24.164701" />
      <trkpt lat="56.943872" lon="24.164897" />
      <trkpt lat="56.943787" lon="24.164922" />
      <trkpt lat="56.943461" lon="24.165014" />
      <trkpt lat="56.943249" lon="24.165075" />
      <trkpt lat="56.942936" lon="24.165164" />
      <trkpt lat="56.942848" lon="24.165190" />
      <trkpt lat="56.941877" lon="24.165469" />
      <trkpt lat="56.941849" lon="24.165477" />
      <trkpt lat="56.941630" lon="24.165540" />
      <trkpt lat="56.941571" lon="24.165557" />
      <trkpt lat="56.941026" lon="24.165715" />
      <trkpt lat="56.940501" lon="24.165855" />
      <trkpt lat="56.940405" lon="24.165883" />
      <trkpt lat="56.940074" lon="24.165988" />
      <trkpt lat="56.940031" lon="24.165999" />
      <trkpt lat="56.939352" lon="24.166187" />
      <trkpt lat="56.938829" lon="24.166359" />
      <trkpt lat="56.938721" lon="24.166419" />
      <trkpt lat="56.938646" lon="24.166498" />
      <trkpt lat="56.938616" lon="24.166553" />
      <trkpt lat="56.938558" lon="24.166690" />
      <trkpt lat="56.938379" lon="24.167399" />
      <trkpt lat="56.938333" lon="24.167588" />
      <trkpt lat="56.938218" lon="24.168059" />
      <trkpt lat="56.938200" lon="24.168212" />
      <trkpt lat="56.938197" lon="24.168337" />
      <trkpt lat="56.938207" lon="24.168462" />
      <trkpt lat="56.938274" lon="24.168750" />
      <trkpt lat="56.938883" lon="24.170662" />
      <trkpt lat="56.939032" lon="24.171151" />
      <trkpt lat="56.939265" lon="24.171895" />
      <trkpt lat="56.939368" lon="24.172198" />
      <trkpt lat="56.939430" lon="24.172384" />
      <trkpt lat="56.939508" lon="24.172626" />
      <trkpt lat="56.939857" lon="24.173714" />
      <trkpt lat="56.939990" lon="24.174130" />
      <trkpt lat="56.940021" lon="24.174227" />
      <trkpt lat="56.940262" lon="24.174980" />
      <trkpt lat="56.940283" lon="24.175046" />
      <trkpt lat="56.940312" lon="24.175136" />
      <trkpt lat="56.940556" lon="24.175898" />
      <trkpt lat="56.940591" lon="24.176007" />
      <trkpt lat="56.940652" lon="24.176197" />
      <trkpt lat="56.940721" lon="24.176420" />
      <trkpt lat="56.940769" lon="24.176574" />
      <trkpt lat="56.940855" lon="24.176840" />
      <trkpt lat="56.940994" lon="24.177266" />
      <trkpt lat="56.941495" lon="24.178872" />
      <trkpt lat="56.941638" lon="24.179438" />
      <trkpt lat="56.941682" lon="24.179628" />
      <trkpt lat="56.941703" lon="24.179757" />
      <trkpt lat="56.941739" lon="24.179976" />
      <trkpt lat="56.941795" lon="24.180318" />
      <trkpt lat="56.941900" lon="24.181102" />
      <trkpt lat="56.941906" lon="24.181283" />
      <trkpt lat="56.941902" lon="24.181590" />
      <trkpt lat="56.941897" lon="24.181774" />
      <trkpt lat="56.941889" lon="24.181960" />
      <trkpt lat="56.941889" lon="24.182099" />
      <trkpt lat="56.941929" lon="24.182578" />
      <trkpt lat="56.941934" lon="24.182647" />
      <trkpt lat="56.941942" lon="24.182732" />
      <trkpt lat="56.941957" lon="24.182892" />
      <trkpt lat="56.941994" lon="24.183356" />
      <trkpt lat="56.942021" lon="24.183668" />
      <trkpt lat="56.942038" lon="24.183860" />
      <trkpt lat="56.942040" lon="24.183894" />
      <trkpt lat="56.942065" lon="24.184178" />
      <trkpt lat="56.942079" lon="24.184341" />
      <trkpt lat="56.942136" lon="24.185000" />
      <trkpt lat="56.942157" lon="24.185245" />
      <trkpt lat="56.942179" lon="24.185499" />
      <trkpt lat="56.942250" lon="24.186268" />
      <trkpt lat="56.942351" lon="24.187361" />
      <trkpt lat="56.942416" lon="24.188272" />
      <trkpt lat="56.942433" lon="24.188471" />
      <trkpt lat="56.940912" lon="24.188923" />
      <trkpt lat="56.940616" lon="24.189005" />
      <trkpt lat="56.940355" lon="24.189071" />
      <trkpt lat="56.940339" lon="24.189032" />
      <trkpt lat="56.940235" lon="24.188774" />
      <trkpt lat="56.940055" lon="24.189066" />
      <trkpt lat="56.939814" lon="24.189392" />
      <trkpt lat="56.939719" lon="24.189504" />
      <trkpt lat="56.939633" lon="24.189576" />
      <trkpt lat="56.939027" lon="24.190410" />
      <trkpt lat="56.938982" lon="24.190482" />
      <trkpt lat="56.938941" lon="24.190580" />
      <trkpt lat="56.938899" lon="24.190651" />
      <trkpt lat="56.938516" lon="24.191137" />
      <trkpt lat="56.938491" lon="24.191163" />
      <trkpt lat="56.938388" lon="24.191223" />
      <trkpt lat="56.937740" lon="24.191806" />
      <trkpt lat="56.937399" lon="24.192119" />
      <trkpt lat="56.937261" lon="24.192245" />
      <trkpt lat="56.937147" lon="24.192332" />
      <trkpt lat="56.937115" lon="24.192378" />
      <trkpt lat="56.937081" lon="24.192457" />
      <trkpt lat="56.937012" lon="24.192574" />
      <trkpt lat="56.936920" lon="24.192634" />
      <trkpt lat="56.936845" lon="24.192669" />
      <trkpt lat="56.936676" lon="24.192704" />
      <trkpt lat="56.936588" lon="24.192734" />
      <trkpt lat="56.936320" lon="24.192890" />
      <trkpt lat="56.936678" lon="24.194772" />
      <trkpt lat="56.936687" lon="24.194846" />
      <trkpt lat="56.936696" lon="24.195102" />
      <trkpt lat="56.936601" lon="24.195110" />
      <trkpt lat="56.936513" lon="24.195159" />
      <trkpt lat="56.936438" lon="24.195162" />
      <trkpt lat="56.936328" lon="24.195166" />
      <trkpt lat="56.936261" lon="24.195127" />
      <trkpt lat="56.936229" lon="24.195129" />
      <trkpt lat="56.935738" lon="24.195156" />
      <trkpt lat="56.935436" lon="24.195170" />
      <trkpt lat="56.935058" lon="24.195190" />
      <trkpt lat="56.934755" lon="24.195203" />
      <trkpt lat="56.934759" lon="24.195506" />
      <trkpt lat="56.934762" lon="24.195774" />
      <trkpt lat="56.934787" lon="24.197307" />
      <trkpt lat="56.934790" lon="24.197570" />
      <trkpt lat="56.934771" lon="24.197741" />
      <trkpt lat="56.934714" lon="24.197913" />
      <trkpt lat="56.934634" lon="24.198071" />
      <trkpt lat="56.934434" lon="24.198366" />
      <trkpt lat="56.933941" lon="24.199063" />
      <trkpt lat="56.933822" lon="24.199245" />
      <trkpt lat="56.933776" lon="24.199493" />
      <trkpt lat="56.933734" lon="24.199828" />
      <trkpt lat="56.933683" lon="24.200229" />
      <trkpt lat="56.933677" lon="24.200272" />
      <trkpt lat="56.933593" lon="24.200943" />
      <trkpt lat="56.933566" lon="24.201121" />
      <trkpt lat="56.933562" lon="24.201146" />
      <trkpt lat="56.933535" lon="24.201327" />
      <trkpt lat="56.933402" lon="24.201274" />
      <trkpt lat="56.932488" lon="24.200898" />
      <trkpt lat="56.932384" lon="24.200877" />
      <trkpt lat="56.932074" lon="24.200747" />
      <trkpt lat="56.932037" lon="24.200731" />
      <trkpt lat="56.931848" lon="24.200703" />
      <trkpt lat="56.931671" lon="24.200689" />
      <trkpt lat="56.931223" lon="24.200629" />
      <trkpt lat="56.931121" lon="24.200610" />
      <trkpt lat="56.931050" lon="24.200579" />
      <trkpt lat="56.930977" lon="24.200513" />
      <trkpt lat="56.930884" lon="24.200384" />
      <trkpt lat="56.930795" lon="24.200204" />
      <trkpt lat="56.930698" lon="24.200098" />
      <trkpt lat="56.930639" lon="24.199946" />
      <trkpt lat="56.930504" lon="24.200078" />
      <trkpt lat="56.930060" lon="24.200554" />
      <trkpt lat="56.928931" lon="24.201927" />
      <trkpt lat="56.928300" lon="24.200285" />
      <trkpt lat="56.927996" lon="24.200711" />
      <trkpt lat="56.927466" lon="24.201380" />
      <trkpt lat="56.927257" lon="24.201653" />
      <trkpt lat="56.927167" lon="24.201751" />
      <trkpt lat="56.927987" lon="24.203892" />
      <trkpt lat="56.928084" lon="24.204143" />
      <trkpt lat="56.929068" lon="24.206704" />
      <trkpt lat="56.929234" lon="24.207118" />
      <trkpt lat="56.929546" lon="24.207944" />
      <trkpt lat="56.930244" lon="24.209781" />
      <trkpt lat="56.930512" lon="24.210478" />
      <trkpt lat="56.930674" lon="24.210881" />
      <trkpt lat="56.930712" lon="24.210976" />
      <trkpt lat="56.930739" lon="24.211050" />
      <trkpt lat="56.930604" lon="24.211260" />
      <trkpt lat="56.929854" lon="24.212266" />
      <trkpt lat="56.929774" lon="24.212373" />
      <trkpt lat="56.929709" lon="24.212432" />
      <trkpt lat="56.929671" lon="24.212467" />
      <trkpt lat="56.929641" lon="24.212481" />
      <trkpt lat="56.929582" lon="24.212509" />
      <trkpt lat="56.929426" lon="24.212520" />
      <trkpt lat="56.929391" lon="24.212748" />
      <trkpt lat="56.929356" lon="24.212745" />
      <trkpt lat="56.929269" lon="24.212807" />
      <trkpt lat="56.929149" lon="24.212919" />
      <trkpt lat="56.928916" lon="24.213205" />
      <trkpt lat="56.928789" lon="24.213260" />
      <trkpt lat="56.928598" lon="24.213242" />
      <trkpt lat="56.928528" lon="24.213254" />
      <trkpt lat="56.928441" lon="24.213352" />
      <trkpt lat="56.928394" lon="24.213548" />
      <trkpt lat="56.928183" lon="24.213965" />
      <trkpt lat="56.927745" lon="24.214443" />
      <trkpt lat="56.927578" lon="24.214639" />
      <trkpt lat="56.927454" lon="24.214700" />
      <trkpt lat="56.927357" lon="24.214801" />
      <trkpt lat="56.927408" lon="24.214822" />
      <trkpt lat="56.927574" lon="24.214996" />
      <trkpt lat="56.927849" lon="24.215412" />
      <trkpt lat="56.927953" lon="24.215641" />
      <trkpt lat="56.927869" lon="24.215894" />
      <trkpt lat="56.927793" lon="24.216069" />
      <trkpt lat="56.927762" lon="24.216094" />
      <trkpt lat="56.927633" lon="24.216542" />
      <trkpt lat="56.927485" lon="24.216770" />
      <trkpt lat="56.927320" lon="24.217194" />
      <trkpt lat="56.927296" lon="24.217390" />
      <trkpt lat="56.927306" lon="24.217661" />
      <trkpt lat="56.927330" lon="24.218004" />
      <trkpt lat="56.927356" lon="24.218169" />
      <trkpt lat="56.927349" lon="24.218577" />
      <trkpt lat="56.927390" lon="24.218920" />
      <trkpt lat="56.927383" lon="24.219293" />
      <trkpt lat="56.927353" lon="24.219774" />
      <trkpt lat="56.927033" lon="24.219374" />
      <trkpt lat="56.927024" lon="24.220727" />
      <trkpt lat="56.927039" lon="24.221015" />
      <trkpt lat="56.927186" lon="24.229392" />
      <trkpt lat="56.927218" lon="24.231233" />
      <trkpt lat="56.927258" lon="24.234336" />
      <trkpt lat="56.926525" lon="24.234592" />
      <trkpt lat="56.925661" lon="24.234912" />
      <trkpt lat="56.924780" lon="24.235239" />
      <trkpt lat="56.923093" lon="24.235940" />
      <trkpt lat="56.922874" lon="24.236020" />
      <trkpt lat="56.922723" lon="24.236071" />
      <trkpt lat="56.922622" lon="24.236078" />
      <trkpt lat="56.922637" lon="24.236608" />
      <trkpt lat="56.922647" lon="24.237997" />
      <trkpt lat="56.922695" lon="24.240954" />
      <trkpt lat="56.922723" lon="24.242229" />
      <trkpt lat="56.922740" lon="24.243403" />
      <trkpt lat="56.922776" lon="24.245900" />
      <trkpt lat="56.922843" lon="24.246218" />
      <trkpt lat="56.922870" lon="24.246990" />
      <trkpt lat="56.922886" lon="24.247712" />
      <trkpt lat="56.922950" lon="24.252489" />
      <trkpt lat="56.922957" lon="24.252976" />
      <trkpt lat="56.922948" lon="24.253185" />
      <trkpt lat="56.922892" lon="24.253261" />
      <trkpt lat="56.922694" lon="24.253278" />
      <trkpt lat="56.922326" lon="24.253312" />
      <trkpt lat="56.921834" lon="24.253328" />
      <trkpt lat="56.921372" lon="24.253210" />
      <trkpt lat="56.921015" lon="24.253160" />
      <trkpt lat="56.920842" lon="24.252921" />
      <trkpt lat="56.920624" lon="24.252857" />
      <trkpt lat="56.920568" lon="24.252852" />
      <trkpt lat="56.920550" lon="24.252852" />
      <trkpt lat="56.920512" lon="24.252836" />
      <trkpt lat="56.920328" lon="24.252809" />
      <trkpt lat="56.920334" lon="24.253760" />
      <trkpt lat="56.920372" lon="24.254157" />
      <trkpt lat="56.920400" lon="24.254867" />
      <trkpt lat="56.920367" lon="24.256783" />
      <trkpt lat="56.920406" lon="24.257383" />
      <trkpt lat="56.920404" lon="24.257715" />
      <trkpt lat="56.920358" lon="24.258101" />
      <trkpt lat="56.920337" lon="24.258512" />
      <trkpt lat="56.920341" lon="24.258749" />
      <trkpt lat="56.920226" lon="24.259293" />
      <trkpt lat="56.920138" lon="24.259904" />
      <trkpt lat="56.920047" lon="24.260316" />
      <trkpt lat="56.919929" lon="24.260807" />
      <trkpt lat="56.919898" lon="24.261106" />
      <trkpt lat="56.919895" lon="24.261681" />
      <trkpt lat="56.919915" lon="24.262051" />
      <trkpt lat="56.919937" lon="24.262296" />
      <trkpt lat="56.919978" lon="24.262512" />
      <trkpt lat="56.919993" lon="24.262749" />
      <trkpt lat="56.919953" lon="24.263639" />
      <trkpt lat="56.919940" lon="24.264281" />
      <trkpt lat="56.919977" lon="24.264483" />
      <trkpt lat="56.920437" lon="24.264476" />
      <trkpt lat="56.920481" lon="24.264395" />
      <trkpt lat="56.920505" lon="24.264393" />
      <trkpt lat="56.920551" lon="24.264390" />
      <trkpt lat="56.920601" lon="24.264387" />
      <trkpt lat="56.920634" lon="24.264384" />
      <trkpt lat="56.920650" lon="24.266948" />
      <trkpt lat="56.920662" lon="24.267794" />
      <trkpt lat="56.920666" lon="24.269413" />
      <trkpt lat="56.920699" lon="24.269752" />
      <trkpt lat="56.920746" lon="24.270171" />
      <trkpt lat="56.920736" lon="24.271686" />
      <trkpt lat="56.920717" lon="24.271941" />
      <trkpt lat="56.920678" lon="24.272359" />
      <trkpt lat="56.920702" lon="24.275689" />
      <trkpt lat="56.920791" lon="24.285608" />
      <trkpt lat="56.920805" lon="24.288580" />
      <trkpt lat="56.920897" lon="24.289564" />
      <trkpt lat="56.920936" lon="24.292719" />
      <trkpt lat="56.920980" lon="24.292753" />
      <trkpt lat="56.921067" lon="24.292837" />
      <trkpt lat="56.921165" lon="24.293037" />
      <trkpt lat="56.921195" lon="24.293134" />
      <trkpt lat="56.921240" lon="24.293355" />
      <trkpt lat="56.921262" lon="24.293386" />
      <trkpt lat="56.921443" lon="24.293412" />
      <trkpt lat="56.921597" lon="24.293396" />
      <trkpt lat="56.921910" lon="24.293266" />
      <trkpt lat="56.922114" lon="24.293379" />
      <trkpt lat="56.922072" lon="24.293574" />
      <trkpt lat="56.922042" lon="24.293782" />
      <trkpt lat="56.922034" lon="24.294078" />
      <trkpt lat="56.922092" lon="24.296484" />
      <trkpt lat="56.922171" lon="24.299164" />
      <trkpt lat="56.921523" lon="24.299350" />
      <trkpt lat="56.921515" lon="24.299563" />
      <trkpt lat="56.921526" lon="24.299781" />
      <trkpt lat="56.921582" lon="24.300340" />
      <trkpt lat="56.921785" lon="24.301885" />
      <trkpt lat="56.921497" lon="24.301880" />
      <trkpt lat="56.921389" lon="24.302000" />
      <trkpt lat="56.921313" lon="24.302186" />
      <trkpt lat="56.921311" lon="24.304338" />
      <trkpt lat="56.921298" lon="24.305066" />
      <trkpt lat="56.921268" lon="24.305396" />
      <trkpt lat="56.921163" lon="24.305709" />
      <trkpt lat="56.921015" lon="24.306367" />
      <trkpt lat="56.921002" lon="24.306558" />
      <trkpt lat="56.921018" lon="24.306601" />
      <trkpt lat="56.921051" lon="24.306614" />
      <trkpt lat="56.920864" lon="24.306748" />
      <trkpt lat="56.920852" lon="24.306919" />
      <trkpt lat="56.920465" lon="24.311749" />
      <trkpt lat="56.919899" lon="24.318812" />
      <trkpt lat="56.919885" lon="24.318816" />
      <trkpt lat="56.919814" lon="24.318831" />
      <trkpt lat="56.919590" lon="24.318875" />
      <trkpt lat="56.918863" lon="24.319016" />
      <trkpt lat="56.918700" lon="24.319051" />
      <trkpt lat="56.918394" lon="24.319176" />
      <trkpt lat="56.917823" lon="24.319467" />
      <trkpt lat="56.917003" lon="24.319965" />
      <trkpt lat="56.916877" lon="24.320049" />
      <trkpt lat="56.916539" lon="24.320194" />
      <trkpt lat="56.916357" lon="24.320249" />
      <trkpt lat="56.916133" lon="24.320295" />
      <trkpt lat="56.915900" lon="24.320298" />
      <trkpt lat="56.915269" lon="24.320281" />
      <trkpt lat="56.915164" lon="24.320278" />
      <trkpt lat="56.915070" lon="24.320262" />
      <trkpt lat="56.914334" lon="24.320234" />
      <trkpt lat="56.913464" lon="24.320228" />
      <trkpt lat="56.913322" lon="24.320218" />
      <trkpt lat="56.913205" lon="24.320882" />
      <trkpt lat="56.913182" lon="24.321633" />
      <trkpt lat="56.913067" lon="24.322261" />
      <trkpt lat="56.913009" lon="24.322883" />
      <trkpt lat="56.912903" lon="24.323473" />
      <trkpt lat="56.912713" lon="24.324455" />
      <trkpt lat="56.912524" lon="24.325975" />
      <trkpt lat="56.912496" lon="24.326166" />
      <trkpt lat="56.912474" lon="24.326823" />
      <trkpt lat="56.912470" lon="24.327055" />
      <trkpt lat="56.912453" lon="24.327205" />
      <trkpt lat="56.912317" lon="24.327709" />
      <trkpt lat="56.912177" lon="24.328280" />
      <trkpt lat="56.912171" lon="24.328660" />
      <trkpt lat="56.912420" lon="24.331257" />
      <trkpt lat="56.912543" lon="24.331890" />
      <trkpt lat="56.913123" lon="24.333579" />
      <trkpt lat="56.913286" lon="24.334009" />
      <trkpt lat="56.913377" lon="24.334337" />
      <trkpt lat="56.913294" lon="24.335433" />
      <trkpt lat="56.913254" lon="24.335797" />
      <trkpt lat="56.913172" lon="24.336546" />
      <trkpt lat="56.913205" lon="24.337384" />
      <trkpt lat="56.913317" lon="24.338109" />
      <trkpt lat="56.913461" lon="24.338728" />
      <trkpt lat="56.913700" lon="24.339879" />
      <trkpt lat="56.913849" lon="24.340418" />
      <trkpt lat="56.913892" lon="24.340669" />
      <trkpt lat="56.913996" lon="24.340915" />
      <trkpt lat="56.914139" lon="24.341215" />
      <trkpt lat="56.914399" lon="24.341679" />
      <trkpt lat="56.914199" lon="24.341687" />
      <trkpt lat="56.914069" lon="24.341872" />
      <trkpt lat="56.913884" lon="24.341905" />
      <trkpt lat="56.913648" lon="24.342038" />
      <trkpt lat="56.913109" lon="24.342602" />
      <trkpt lat="56.912949" lon="24.342830" />
      <trkpt lat="56.912965" lon="24.343063" />
      <trkpt lat="56.912941" lon="24.343254" />
      <trkpt lat="56.912885" lon="24.343419" />
      <trkpt lat="56.912990" lon="24.343590" />
      <trkpt lat="56.913303" lon="24.344210" />
      <trkpt lat="56.913629" lon="24.344778" />
      <trkpt lat="56.913906" lon="24.345331" />
      <trkpt lat="56.914087" lon="24.345787" />
      <trkpt lat="56.914207" lon="24.345803" />
      <trkpt lat="56.914296" lon="24.346001" />
      <trkpt lat="56.914289" lon="24.346288" />
      <trkpt lat="56.914345" lon="24.346567" />
      <trkpt lat="56.914586" lon="24.346764" />
      <trkpt lat="56.914612" lon="24.346805" />
      <trkpt lat="56.914675" lon="24.346945" />
      <trkpt lat="56.914702" lon="24.347069" />
      <trkpt lat="56.914705" lon="24.347518" />
      <trkpt lat="56.914710" lon="24.348426" />
      <trkpt lat="56.914710" lon="24.348860" />
      <trkpt lat="56.914695" lon="24.349616" />
      <trkpt lat="56.915806" lon="24.349628" />
      <trkpt lat="56.916026" lon="24.349612" />
      <trkpt lat="56.916091" lon="24.349630" />
      <trkpt lat="56.916150" lon="24.349673" />
      <trkpt lat="56.916184" lon="24.349670" />
      <trkpt lat="56.916222" lon="24.349651" />
      <trkpt lat="56.916257" lon="24.349597" />
      <trkpt lat="56.916287" lon="24.349489" />
      <trkpt lat="56.916334" lon="24.349406" />
      <trkpt lat="56.916360" lon="24.349404" />
      <trkpt lat="56.916466" lon="24.349344" />
      <trkpt lat="56.916500" lon="24.349347" />
      <trkpt lat="56.916528" lon="24.349365" />
      <trkpt lat="56.916547" lon="24.349410" />
      <trkpt lat="56.916575" lon="24.350140" />
      <trkpt lat="56.916648" lon="24.351971" />
      <trkpt lat="56.916695" lon="24.353195" />
      <trkpt lat="56.916760" lon="24.354856" />
      <trkpt lat="56.916791" lon="24.355659" />
      <trkpt lat="56.916794" lon="24.356176" />
      <trkpt lat="56.916811" lon="24.356295" />
      <trkpt lat="56.916825" lon="24.356422" />
      <trkpt lat="56.916836" lon="24.356794" />
      <trkpt lat="56.916857" lon="24.356832" />
      <trkpt lat="56.916875" lon="24.356862" />
      <trkpt lat="56.916907" lon="24.357625" />
      <trkpt lat="56.916953" lon="24.358746" />
      <trkpt lat="56.917048" lon="24.361220" />
      <trkpt lat="56.917068" lon="24.361534" />
      <trkpt lat="56.917092" lon="24.362129" />
      <trkpt lat="56.917125" lon="24.363128" />
      <trkpt lat="56.917215" lon="24.365393" />
      <trkpt lat="56.917195" lon="24.365393" />
      <trkpt lat="56.917172" lon="24.365392" />
      <trkpt lat="56.917174" lon="24.365467" />
      <trkpt lat="56.917141" lon="24.365506" />
      <trkpt lat="56.917124" lon="24.365534" />
      <trkpt lat="56.916991" lon="24.365783" />
      <trkpt lat="56.916993" lon="24.366005" />
      <trkpt lat="56.917055" lon="24.366967" />
      <trkpt lat="56.917068" lon="24.367333" />
      <trkpt lat="56.916972" lon="24.367819" />
      <trkpt lat="56.917009" lon="24.368239" />
      <trkpt lat="56.917051" lon="24.368506" />
      <trkpt lat="56.917127" lon="24.368839" />
      <trkpt lat="56.917287" lon="24.369538" />
      <trkpt lat="56.917424" lon="24.370001" />
      <trkpt lat="56.917446" lon="24.369830" />
      <trkpt lat="56.917463" lon="24.369819" />
      <trkpt lat="56.917484" lon="24.369805" />
      <trkpt lat="56.917509" lon="24.369789" />
      <trkpt lat="56.917621" lon="24.370495" />
      <trkpt lat="56.917644" lon="24.370519" />
      <trkpt lat="56.917655" lon="24.370532" />
      <trkpt lat="56.917670" lon="24.370551" />
      <trkpt lat="56.917693" lon="24.370576" />
      <trkpt lat="56.917708" lon="24.370721" />
      <trkpt lat="56.917782" lon="24.371256" />
      <trkpt lat="56.918023" lon="24.372722" />
      <trkpt lat="56.918137" lon="24.373381" />
      <trkpt lat="56.918377" lon="24.374956" />
      <trkpt lat="56.918495" lon="24.375752" />
      <trkpt lat="56.918584" lon="24.376249" />
      <trkpt lat="56.918697" lon="24.377110" />
      <trkpt lat="56.918776" lon="24.377750" />
      <trkpt lat="56.918854" lon="24.378824" />
      <trkpt lat="56.918909" lon="24.380089" />
      <trkpt lat="56.918942" lon="24.381802" />
      <trkpt lat="56.918973" lon="24.383860" />
      <trkpt lat="56.918976" lon="24.384032" />
      <trkpt lat="56.918991" lon="24.385061" />
      <trkpt lat="56.919038" lon="24.388723" />
      <trkpt lat="56.919043" lon="24.388859" />
      <trkpt lat="56.919050" lon="24.389782" />
      <trkpt lat="56.919053" lon="24.389936" />
      <trkpt lat="56.919098" lon="24.392467" />
      <trkpt lat="56.919117" lon="24.393323" />
      <trkpt lat="56.919137" lon="24.393724" />
      <trkpt lat="56.919190" lon="24.394565" />
      <trkpt lat="56.919339" lon="24.396011" />
      <trkpt lat="56.919351" lon="24.396092" />
      <trkpt lat="56.919392" lon="24.396178" />
      <trkpt lat="56.919435" lon="24.396228" />
      <trkpt lat="56.919466" lon="24.396230" />
      <trkpt lat="56.919490" lon="24.396231" />
      <trkpt lat="56.919828" lon="24.395903" />
      <trkpt lat="56.919898" lon="24.395879" />
      <trkpt lat="56.919848" lon="24.395608" />
      <trkpt lat="56.919829" lon="24.395104" />
      <trkpt lat="56.919830" lon="24.394943" />
      <trkpt lat="56.919886" lon="24.394704" />
      <trkpt lat="56.920054" lon="24.394388" />
      <trkpt lat="56.920205" lon="24.394164" />
      <trkpt lat="56.920426" lon="24.393770" />
      <trkpt lat="56.920626" lon="24.393321" />
      <trkpt lat="56.920796" lon="24.393082" />
      <trkpt lat="56.920985" lon="24.392918" />
      <trkpt lat="56.921238" lon="24.392766" />
      <trkpt lat="56.921165" lon="24.393006" />
      <trkpt lat="56.921113" lon="24.393081" />
      <trkpt lat="56.921088" lon="24.393428" />
      <trkpt lat="56.921028" lon="24.393713" />
      <trkpt lat="56.921020" lon="24.393843" />
      <trkpt lat="56.921046" lon="24.393991" />
      <trkpt lat="56.921066" lon="24.394188" />
      <trkpt lat="56.921098" lon="24.394310" />
      <trkpt lat="56.921156" lon="24.394458" />
      <trkpt lat="56.921200" lon="24.394712" />
      <trkpt lat="56.921291" lon="24.395075" />
      <trkpt lat="56.921569" lon="24.395892" />
      <trkpt lat="56.921717" lon="24.396349" />
      <trkpt lat="56.921751" lon="24.396557" />
      <trkpt lat="56.922746" lon="24.395461" />
      <trkpt lat="56.922850" lon="24.395346" />
      <trkpt lat="56.923513" lon="24.394912" />
      <trkpt lat="56.925325" lon="24.393433" />
      <trkpt lat="56.926622" lon="24.392374" />
      <trkpt lat="56.926735" lon="24.392614" />
      <trkpt lat="56.926940" lon="24.393314" />
      <trkpt lat="56.927377" lon="24.394461" />
      <trkpt lat="56.927440" lon="24.394801" />
      <trkpt lat="56.927318" lon="24.397991" />
      <trkpt lat="56.927271" lon="24.399547" />
      <trkpt lat="56.927468" lon="24.399496" />
      <trkpt lat="56.932278" lon="24.399371" />
      <trkpt lat="56.932668" lon="24.399367" />
      <trkpt lat="56.932761" lon="24.399442" />
      <trkpt lat="56.932828" lon="24.399588" />
      <trkpt lat="56.932882" lon="24.399843" />
      <trkpt lat="56.932749" lon="24.402356" />
      <trkpt lat="56.932654" lon="24.403383" />
      <trkpt lat="56.932557" lon="24.405541" />
      <trkpt lat="56.932412" lon="24.406058" />
      <trkpt lat="56.931716" lon="24.415452" />
      <trkpt lat="56.931277" lon="24.422665" />
      <trkpt lat="56.931674" lon="24.426704" />
      <trkpt lat="56.932070" lon="24.431045" />
      <trkpt lat="56.932106" lon="24.431218" />
      <trkpt lat="56.932236" lon="24.432028" />
      <trkpt lat="56.932818" lon="24.433913" />
      <trkpt lat="56.933081" lon="24.435066" />
      <trkpt lat="56.933176" lon="24.436339" />
      <trkpt lat="56.933189" lon="24.437312" />
      <trkpt lat="56.932933" lon="24.440412" />
      <trkpt lat="56.932894" lon="24.441452" />
      <trkpt lat="56.932909" lon="24.441558" />
      <trkpt lat="56.932944" lon="24.441796" />
      <trkpt lat="56.932958" lon="24.442753" />
      <trkpt lat="56.933041" lon="24.443548" />
      <trkpt lat="56.933034" lon="24.444010" />
      <trkpt lat="56.934376" lon="24.446079" />
      <trkpt lat="56.935246" lon="24.448613" />
      <trkpt lat="56.935423" lon="24.450125" />
      <trkpt lat="56.935153" lon="24.453055" />
      <trkpt lat="56.935037" lon="24.456134" />
      <trkpt lat="56.934639" lon="24.457174" />
      <trkpt lat="56.934810" lon="24.458287" />
      <trkpt lat="56.935024" lon="24.461093" />
      <trkpt lat="56.935167" lon="24.461665" />
      <trkpt lat="56.936399" lon="24.463565" />
      <trkpt lat="56.936499" lon="24.463724" />
      <trkpt lat="56.938188" lon="24.466412" />
      <trkpt lat="56.940022" lon="24.469410" />
      <trkpt lat="56.937769" lon="24.474189" />
      <trkpt lat="56.936962" lon="24.475913" />
      <trkpt lat="56.936459" lon="24.476985" />
      <trkpt lat="56.933885" lon="24.482469" />
      <trkpt lat="56.933172" lon="24.484013" />
      <trkpt lat="56.932805" lon="24.484791" />
      <trkpt lat="56.932721" lon="24.484968" />
      <trkpt lat="56.930638" lon="24.489362" />
      <trkpt lat="56.928370" lon="24.494187" />
      <trkpt lat="56.928311" lon="24.494249" />
      <trkpt lat="56.928268" lon="24.494261" />
      <trkpt lat="56.928662" lon="24.498583" />
      <trkpt lat="56.929033" lon="24.502687" />
      <trkpt lat="56.929889" lon="24.512244" />
      <trkpt lat="56.929723" lon="24.512245" />
      <trkpt lat="56.929615" lon="24.512180" />
      <trkpt lat="56.929362" lon="24.512177" />
      <trkpt lat="56.928869" lon="24.511470" />
      <trkpt lat="56.928221" lon="24.510855" />
      <trkpt lat="56.927184" lon="24.511011" />
      <trkpt lat="56.926240" lon="24.510640" />
      <trkpt lat="56.925552" lon="24.509266" />
      <trkpt lat="56.925502" lon="24.508837" />
      <trkpt lat="56.925520" lon="24.508469" />
      <trkpt lat="56.925588" lon="24.508188" />
      <trkpt lat="56.925620" lon="24.507988" />
      <trkpt lat="56.925561" lon="24.507389" />
      <trkpt lat="56.925395" lon="24.506733" />
      <trkpt lat="56.925132" lon="24.505885" />
      <trkpt lat="56.925090" lon="24.505709" />
      <trkpt lat="56.925083" lon="24.505550" />
      <trkpt lat="56.925110" lon="24.505390" />
      <trkpt lat="56.925152" lon="24.505216" />
      <trkpt lat="56.925416" lon="24.504603" />
      <trkpt lat="56.925470" lon="24.504367" />
      <trkpt lat="56.924405" lon="24.502616" />
      <trkpt lat="56.923035" lon="24.500518" />
      <trkpt lat="56.921333" lon="24.497756" />
      <trkpt lat="56.920962" lon="24.498377" />
      <trkpt lat="56.920279" lon="24.499942" />
      <trkpt lat="56.920088" lon="24.500249" />
      <trkpt lat="56.919821" lon="24.500572" />
      <trkpt lat="56.919530" lon="24.500960" />
      <trkpt lat="56.919404" lon="24.501042" />
      <trkpt lat="56.919224" lon="24.501038" />
      <trkpt lat="56.919121" lon="24.500957" />
      <trkpt lat="56.919010" lon="24.500853" />
      <trkpt lat="56.918818" lon="24.500764" />
      <trkpt lat="56.918660" lon="24.500762" />
      <trkpt lat="56.917196" lon="24.501126" />
      <trkpt lat="56.916920" lon="24.501185" />
      <trkpt lat="56.916599" lon="24.501293" />
      <trkpt lat="56.916268" lon="24.501588" />
      <trkpt lat="56.916200" lon="24.501730" />
      <trkpt lat="56.916053" lon="24.501982" />
      <trkpt lat="56.915620" lon="24.501316" />
      <trkpt lat="56.914976" lon="24.500611" />
      <trkpt lat="56.914779" lon="24.500461" />
      <trkpt lat="56.914520" lon="24.500464" />
      <trkpt lat="56.914349" lon="24.500566" />
      <trkpt lat="56.914060" lon="24.501077" />
      <trkpt lat="56.913024" lon="24.501971" />
      <trkpt lat="56.912506" lon="24.502014" />
      <trkpt lat="56.912273" lon="24.502062" />
      <trkpt lat="56.912242" lon="24.502235" />
      <trkpt lat="56.912120" lon="24.503043" />
      <trkpt lat="56.912074" lon="24.503712" />
      <trkpt lat="56.912132" lon="24.504215" />
      <trkpt lat="56.911563" lon="24.504192" />
      <trkpt lat="56.910806" lon="24.504206" />
      <trkpt lat="56.910426" lon="24.504106" />
      <trkpt lat="56.910286" lon="24.504018" />
      <trkpt lat="56.910201" lon="24.504030" />
      <trkpt lat="56.909899" lon="24.504179" />
      <trkpt lat="56.909277" lon="24.504664" />
      <trkpt lat="56.909008" lon="24.504854" />
      <trkpt lat="56.908472" lon="24.505193" />
      <trkpt lat="56.907654" lon="24.505624" />
      <trkpt lat="56.907183" lon="24.505901" />
      <trkpt lat="56.906676" lon="24.506038" />
      <trkpt lat="56.906340" lon="24.506077" />
      <trkpt lat="56.905812" lon="24.506224" />
      <trkpt lat="56.905476" lon="24.506250" />
      <trkpt lat="56.904518" lon="24.506680" />
      <trkpt lat="56.904087" lon="24.506860" />
      <trkpt lat="56.904584" lon="24.509293" />
      <trkpt lat="56.904679" lon="24.510201" />
      <trkpt lat="56.904740" lon="24.511701" />
      <trkpt lat="56.904729" lon="24.512284" />
      <trkpt lat="56.904487" lon="24.513723" />
      <trkpt lat="56.904175" lon="24.514564" />
      <trkpt lat="56.904046" lon="24.514968" />
      <trkpt lat="56.903884" lon="24.515757" />
      <trkpt lat="56.903775" lon="24.516080" />
      <trkpt lat="56.903629" lon="24.516399" />
      <trkpt lat="56.903097" lon="24.517184" />
      <trkpt lat="56.902894" lon="24.517496" />
      <trkpt lat="56.902731" lon="24.517630" />
      <trkpt lat="56.902576" lon="24.517689" />
      <trkpt lat="56.902400" lon="24.517719" />
      <trkpt lat="56.901687" lon="24.517527" />
      <trkpt lat="56.901188" lon="24.517587" />
      <trkpt lat="56.901087" lon="24.517355" />
      <trkpt lat="56.900955" lon="24.517124" />
      <trkpt lat="56.900591" lon="24.516601" />
      <trkpt lat="56.900283" lon="24.516134" />
      <trkpt lat="56.899984" lon="24.515618" />
      <trkpt lat="56.899490" lon="24.514635" />
      <trkpt lat="56.899037" lon="24.513800" />
      <trkpt lat="56.898866" lon="24.515016" />
      <trkpt lat="56.898531" lon="24.517151" />
      <trkpt lat="56.898485" lon="24.517463" />
      <trkpt lat="56.898394" lon="24.517979" />
      <trkpt lat="56.898266" lon="24.518422" />
      <trkpt lat="56.897999" lon="24.519286" />
      <trkpt lat="56.897910" lon="24.519670" />
      <trkpt lat="56.897455" lon="24.521776" />
      <trkpt lat="56.897399" lon="24.521984" />
      <trkpt lat="56.897334" lon="24.522177" />
      <trkpt lat="56.897263" lon="24.522308" />
      <trkpt lat="56.897170" lon="24.522369" />
      <trkpt lat="56.896800" lon="24.522379" />
      <trkpt lat="56.896702" lon="24.522436" />
      <trkpt lat="56.896547" lon="24.522626" />
      <trkpt lat="56.896483" lon="24.522782" />
      <trkpt lat="56.896449" lon="24.522941" />
      <trkpt lat="56.896416" lon="24.523153" />
      <trkpt lat="56.896406" lon="24.523391" />
      <trkpt lat="56.896424" lon="24.523769" />
      <trkpt lat="56.896473" lon="24.524152" />
      <trkpt lat="56.896615" lon="24.524972" />
      <trkpt lat="56.896625" lon="24.525178" />
      <trkpt lat="56.896592" lon="24.525364" />
      <trkpt lat="56.896480" lon="24.525640" />
      <trkpt lat="56.895920" lon="24.526731" />
      <trkpt lat="56.895797" lon="24.527016" />
      <trkpt lat="56.895764" lon="24.527154" />
      <trkpt lat="56.895746" lon="24.527322" />
      <trkpt lat="56.895759" lon="24.527561" />
      <trkpt lat="56.895786" lon="24.527902" />
      <trkpt lat="56.895821" lon="24.528152" />
      <trkpt lat="56.895853" lon="24.528440" />
      <trkpt lat="56.895865" lon="24.528643" />
      <trkpt lat="56.895856" lon="24.528862" />
      <trkpt lat="56.895819" lon="24.529098" />
      <trkpt lat="56.895764" lon="24.529313" />
      <trkpt lat="56.895701" lon="24.529947" />
      <trkpt lat="56.895832" lon="24.531245" />
      <trkpt lat="56.896137" lon="24.534283" />
      <trkpt lat="56.896145" lon="24.534714" />
      <trkpt lat="56.896107" lon="24.534924" />
      <trkpt lat="56.896074" lon="24.535107" />
      <trkpt lat="56.895991" lon="24.535355" />
      <trkpt lat="56.895887" lon="24.535532" />
      <trkpt lat="56.895791" lon="24.535816" />
      <trkpt lat="56.895745" lon="24.536324" />
      <trkpt lat="56.895673" lon="24.536650" />
      <trkpt lat="56.895223" lon="24.537682" />
      <trkpt lat="56.894241" lon="24.539239" />
      <trkpt lat="56.893800" lon="24.539802" />
      <trkpt lat="56.893679" lon="24.540073" />
      <trkpt lat="56.892310" lon="24.544476" />
      <trkpt lat="56.892217" lon="24.544671" />
      <trkpt lat="56.892093" lon="24.544818" />
      <trkpt lat="56.891908" lon="24.544899" />
      <trkpt lat="56.890938" lon="24.545387" />
      <trkpt lat="56.890627" lon="24.545407" />
      <trkpt lat="56.890363" lon="24.545311" />
      <trkpt lat="56.890181" lon="24.545300" />
      <trkpt lat="56.889942" lon="24.545337" />
      <trkpt lat="56.889686" lon="24.545495" />
      <trkpt lat="56.889433" lon="24.545746" />
      <trkpt lat="56.889096" lon="24.546071" />
      <trkpt lat="56.888670" lon="24.546202" />
      <trkpt lat="56.886210" lon="24.546900" />
      <trkpt lat="56.885632" lon="24.547125" />
      <trkpt lat="56.885191" lon="24.547734" />
      <trkpt lat="56.884852" lon="24.548247" />
      <trkpt lat="56.884286" lon="24.548787" />
      <trkpt lat="56.883702" lon="24.549221" />
      <trkpt lat="56.883418" lon="24.549810" />
      <trkpt lat="56.883272" lon="24.550324" />
      <trkpt lat="56.883087" lon="24.550819" />
      <trkpt lat="56.882230" lon="24.552220" />
      <trkpt lat="56.880967" lon="24.555156" />
      <trkpt lat="56.880845" lon="24.555242" />
      <trkpt lat="56.880540" lon="24.555341" />
      <trkpt lat="56.880322" lon="24.555509" />
      <trkpt lat="56.880201" lon="24.555797" />
      <trkpt lat="56.880195" lon="24.556310" />
      <trkpt lat="56.880256" lon="24.556683" />
      <trkpt lat="56.879515" lon="24.556205" />
      <trkpt lat="56.878329" lon="24.555452" />
      <trkpt lat="56.877441" lon="24.554886" />
      <trkpt lat="56.877306" lon="24.554778" />
      <trkpt lat="56.876838" lon="24.556643" />
      <trkpt lat="56.876616" lon="24.557606" />
      <trkpt lat="56.876113" lon="24.559585" />
      <trkpt lat="56.875927" lon="24.560365" />
      <trkpt lat="56.875677" lon="24.561407" />
      <trkpt lat="56.875223" lon="24.563233" />
      <trkpt lat="56.874982" lon="24.564280" />
      <trkpt lat="56.874797" lon="24.565106" />
      <trkpt lat="56.874630" lon="24.565812" />
      <trkpt lat="56.874402" lon="24.566800" />
      <trkpt lat="56.874228" lon="24.567497" />
      <trkpt lat="56.874105" lon="24.568018" />
      <trkpt lat="56.873913" lon="24.568792" />
      <trkpt lat="56.873488" lon="24.570523" />
      <trkpt lat="56.873406" lon="24.570522" />
      <trkpt lat="56.872957" lon="24.570364" />
      <trkpt lat="56.872508" lon="24.570207" />
      <trkpt lat="56.871139" lon="24.569753" />
      <trkpt lat="56.870808" lon="24.569647" />
      <trkpt lat="56.869210" lon="24.569158" />
      <trkpt lat="56.868753" lon="24.568987" />
      <trkpt lat="56.868702" lon="24.568962" />
      <trkpt lat="56.868680" lon="24.569086" />
      <trkpt lat="56.868643" lon="24.569157" />
      <trkpt lat="56.868159" lon="24.569544" />
      <trkpt lat="56.868193" lon="24.569724" />
      <trkpt lat="56.868265" lon="24.570086" />
      <trkpt lat="56.868287" lon="24.570199" />
      <trkpt lat="56.868323" lon="24.570362" />
      <trkpt lat="56.868324" lon="24.570436" />
      <trkpt lat="56.868287" lon="24.570498" />
      <trkpt lat="56.867977" lon="24.570704" />
      <trkpt lat="56.867934" lon="24.570565" />
      <trkpt lat="56.867885" lon="24.570531" />
      <trkpt lat="56.867824" lon="24.570624" />
      <trkpt lat="56.867719" lon="24.570858" />
      <trkpt lat="56.867612" lon="24.570972" />
      <trkpt lat="56.867436" lon="24.571185" />
      <trkpt lat="56.867288" lon="24.571328" />
      <trkpt lat="56.867242" lon="24.571361" />
      <trkpt lat="56.867123" lon="24.571309" />
      <trkpt lat="56.866807" lon="24.571288" />
      <trkpt lat="56.866673" lon="24.571233" />
      <trkpt lat="56.866594" lon="24.571137" />
      <trkpt lat="56.866459" lon="24.570934" />
      <trkpt lat="56.866373" lon="24.570829" />
      <trkpt lat="56.866325" lon="24.570798" />
      <trkpt lat="56.866225" lon="24.570733" />
      <trkpt lat="56.866271" lon="24.570566" />
      <trkpt lat="56.866296" lon="24.570421" />
      <trkpt lat="56.866304" lon="24.570230" />
      <trkpt lat="56.866262" lon="24.569851" />
      <trkpt lat="56.865870" lon="24.568705" />
      <trkpt lat="56.865811" lon="24.568485" />
      <trkpt lat="56.865774" lon="24.568218" />
      <trkpt lat="56.865777" lon="24.568041" />
      <trkpt lat="56.865829" lon="24.567741" />
      <trkpt lat="56.865951" lon="24.567140" />
      <trkpt lat="56.866008" lon="24.566799" />
      <trkpt lat="56.866041" lon="24.566637" />
      <trkpt lat="56.866136" lon="24.566222" />
      <trkpt lat="56.866162" lon="24.566121" />
      <trkpt lat="56.866291" lon="24.565704" />
      <trkpt lat="56.866439" lon="24.565180" />
      <trkpt lat="56.866524" lon="24.564943" />
      <trkpt lat="56.866658" lon="24.564413" />
      <trkpt lat="56.866737" lon="24.564247" />
      <trkpt lat="56.866783" lon="24.564196" />
      <trkpt lat="56.866923" lon="24.564120" />
      <trkpt lat="56.867029" lon="24.564121" />
      <trkpt lat="56.867076" lon="24.564092" />
      <trkpt lat="56.867153" lon="24.563973" />
      <trkpt lat="56.867431" lon="24.563650" />
      <trkpt lat="56.867496" lon="24.563454" />
      <trkpt lat="56.867679" lon="24.563104" />
      <trkpt lat="56.867845" lon="24.562697" />
      <trkpt lat="56.868036" lon="24.562254" />
      <trkpt lat="56.868180" lon="24.561886" />
      <trkpt lat="56.868302" lon="24.561493" />
      <trkpt lat="56.868335" lon="24.561347" />
      <trkpt lat="56.868359" lon="24.561197" />
      <trkpt lat="56.868447" lon="24.560104" />
      <trkpt lat="56.868442" lon="24.559996" />
      <trkpt lat="56.868428" lon="24.559900" />
      <trkpt lat="56.868386" lon="24.559789" />
      <trkpt lat="56.868259" lon="24.559535" />
      <trkpt lat="56.867970" lon="24.559004" />
      <trkpt lat="56.867782" lon="24.559364" />
      <trkpt lat="56.867427" lon="24.560042" />
      <trkpt lat="56.867330" lon="24.560227" />
      <trkpt lat="56.867230" lon="24.560316" />
      <trkpt lat="56.867166" lon="24.560332" />
      <trkpt lat="56.867045" lon="24.560272" />
      <trkpt lat="56.866806" lon="24.560151" />
      <trkpt lat="56.866761" lon="24.560130" />
      <trkpt lat="56.866574" lon="24.560046" />
      <trkpt lat="56.866552" lon="24.560036" />
      <trkpt lat="56.866239" lon="24.559893" />
      <trkpt lat="56.866205" lon="24.559878" />
      <trkpt lat="56.865866" lon="24.559724" />
      <trkpt lat="56.865286" lon="24.559460" />
      <trkpt lat="56.865180" lon="24.559948" />
      <trkpt lat="56.865105" lon="24.560296" />
      <trkpt lat="56.864878" lon="24.561342" />
      <trkpt lat="56.864843" lon="24.561445" />
      <trkpt lat="56.864803" lon="24.561526" />
      <trkpt lat="56.864764" lon="24.561437" />
      <trkpt lat="56.864702" lon="24.561187" />
      <trkpt lat="56.864692" lon="24.561097" />
      <trkpt lat="56.864690" lon="24.560934" />
      <trkpt lat="56.864713" lon="24.560685" />
      <trkpt lat="56.864665" lon="24.560792" />
      <trkpt lat="56.864642" lon="24.560817" />
      <trkpt lat="56.864642" lon="24.560817" />
      <trkpt lat="56.864601" lon="24.560864" />
      <trkpt lat="56.864527" lon="24.560893" />
      <trkpt lat="56.864452" lon="24.560876" />
      <trkpt lat="56.864398" lon="24.560831" />
      <trkpt lat="56.864319" lon="24.560836" />
      <trkpt lat="56.864243" lon="24.560872" />
      <trkpt lat="56.864152" lon="24.560971" />
      <trkpt lat="56.864048" lon="24.561059" />
      <trkpt lat="56.863934" lon="24.561212" />
      <trkpt lat="56.863847" lon="24.561318" />
      <trkpt lat="56.863657" lon="24.561523" />
      <trkpt lat="56.863530" lon="24.561635" />
      <trkpt lat="56.863459" lon="24.561685" />
      <trkpt lat="56.863369" lon="24.561758" />
      <trkpt lat="56.862852" lon="24.562091" />
      <trkpt lat="56.862328" lon="24.562415" />
      <trkpt lat="56.862262" lon="24.562457" />
      <trkpt lat="56.861563" lon="24.562894" />
      <trkpt lat="56.860920" lon="24.563281" />
      <trkpt lat="56.860798" lon="24.563258" />
      <trkpt lat="56.860656" lon="24.563350" />
      <trkpt lat="56.860083" lon="24.563493" />
      <trkpt lat="56.860017" lon="24.563469" />
      <trkpt lat="56.859987" lon="24.563423" />
      <trkpt lat="56.859915" lon="24.563232" />
      <trkpt lat="56.859848" lon="24.562872" />
      <trkpt lat="56.859713" lon="24.562127" />
      <trkpt lat="56.859617" lon="24.561635" />
      <trkpt lat="56.859380" lon="24.561788" />
      <trkpt lat="56.859173" lon="24.561912" />
      <trkpt lat="56.858673" lon="24.562200" />
      <trkpt lat="56.858558" lon="24.562343" />
      <trkpt lat="56.858467" lon="24.562560" />
      <trkpt lat="56.858409" lon="24.562731" />
      <trkpt lat="56.858274" lon="24.562935" />
      <trkpt lat="56.858479" lon="24.563780" />
      <trkpt lat="56.858501" lon="24.563840" />
      <trkpt lat="56.858513" lon="24.563952" />
      <trkpt lat="56.858582" lon="24.564202" />
      <trkpt lat="56.858594" lon="24.564305" />
      <trkpt lat="56.858582" lon="24.564464" />
      <trkpt lat="56.858554" lon="24.564530" />
      <trkpt lat="56.858132" lon="24.564929" />
      <trkpt lat="56.858066" lon="24.565020" />
      <trkpt lat="56.857702" lon="24.565259" />
      <trkpt lat="56.856990" lon="24.565709" />
      <trkpt lat="56.854991" lon="24.566950" />
      <trkpt lat="56.854177" lon="24.567456" />
      <trkpt lat="56.854205" lon="24.567667" />
      <trkpt lat="56.853891" lon="24.569264" />
      <trkpt lat="56.853649" lon="24.569706" />
      <trkpt lat="56.853395" lon="24.569999" />
      <trkpt lat="56.852817" lon="24.570496" />
      <trkpt lat="56.852641" lon="24.570625" />
      <trkpt lat="56.852360" lon="24.570625" />
      <trkpt lat="56.852241" lon="24.570790" />
      <trkpt lat="56.851993" lon="24.571125" />
      <trkpt lat="56.851749" lon="24.571486" />
      <trkpt lat="56.851644" lon="24.571848" />
      <trkpt lat="56.851761" lon="24.572255" />
      <trkpt lat="56.851775" lon="24.572851" />
      <trkpt lat="56.851413" lon="24.573797" />
      <trkpt lat="56.851257" lon="24.575052" />
      <trkpt lat="56.850928" lon="24.575989" />
      <trkpt lat="56.850819" lon="24.576696" />
      <trkpt lat="56.850787" lon="24.577470" />
      <trkpt lat="56.850778" lon="24.578391" />
      <trkpt lat="56.850764" lon="24.579487" />
      <trkpt lat="56.850834" lon="24.579959" />
      <trkpt lat="56.850799" lon="24.581074" />
      <trkpt lat="56.850858" lon="24.581825" />
      <trkpt lat="56.850764" lon="24.583220" />
      <trkpt lat="56.850623" lon="24.584164" />
      <trkpt lat="56.850705" lon="24.584336" />
      <trkpt lat="56.850738" lon="24.584510" />
      <trkpt lat="56.850751" lon="24.584684" />
      <trkpt lat="56.850136" lon="24.585825" />
      <trkpt lat="56.849954" lon="24.586160" />
      <trkpt lat="56.849651" lon="24.586542" />
      <trkpt lat="56.849543" lon="24.586736" />
      <trkpt lat="56.849324" lon="24.589785" />
      <trkpt lat="56.849796" lon="24.590347" />
      <trkpt lat="56.850504" lon="24.591084" />
      <trkpt lat="56.850570" lon="24.591162" />
      <trkpt lat="56.850651" lon="24.591257" />
      <trkpt lat="56.850847" lon="24.591440" />
      <trkpt lat="56.850831" lon="24.591527" />
      <trkpt lat="56.850769" lon="24.592470" />
      <trkpt lat="56.850800" lon="24.592988" />
      <trkpt lat="56.851613" lon="24.595788" />
      <trkpt lat="56.851760" lon="24.595364" />
      <trkpt lat="56.851938" lon="24.594925" />
      <trkpt lat="56.853002" lon="24.593238" />
      <trkpt lat="56.853141" lon="24.593347" />
      <trkpt lat="56.853188" lon="24.593384" />
      <trkpt lat="56.853425" lon="24.593521" />
      <trkpt lat="56.854101" lon="24.593913" />
      <trkpt lat="56.854417" lon="24.594304" />
      <trkpt lat="56.854711" lon="24.594813" />
      <trkpt lat="56.855272" lon="24.595776" />
      <trkpt lat="56.855986" lon="24.596856" />
      <trkpt lat="56.856222" lon="24.597113" />
      <trkpt lat="56.856258" lon="24.597235" />
      <trkpt lat="56.856393" lon="24.597377" />
      <trkpt lat="56.857572" lon="24.598823" />
      <trkpt lat="56.857804" lon="24.599123" />
      <trkpt lat="56.857860" lon="24.599221" />
      <trkpt lat="56.857930" lon="24.599373" />
      <trkpt lat="56.857968" lon="24.599561" />
      <trkpt lat="56.857989" lon="24.599767" />
      <trkpt lat="56.858066" lon="24.600215" />
      <trkpt lat="56.858157" lon="24.600435" />
      <trkpt lat="56.858269" lon="24.600592" />
      <trkpt lat="56.858823" lon="24.601093" />
      <trkpt lat="56.858987" lon="24.601353" />
      <trkpt lat="56.859048" lon="24.601492" />
      <trkpt lat="56.859204" lon="24.601885" />
      <trkpt lat="56.859403" lon="24.602543" />
      <trkpt lat="56.859495" lon="24.602890" />
      <trkpt lat="56.859727" lon="24.603775" />
      <trkpt lat="56.859989" lon="24.604638" />
      <trkpt lat="56.860109" lon="24.604951" />
      <trkpt lat="56.860317" lon="24.605359" />
      <trkpt lat="56.860788" lon="24.606009" />
      <trkpt lat="56.860978" lon="24.606190" />
      <trkpt lat="56.861254" lon="24.606329" />
      <trkpt lat="56.861905" lon="24.606451" />
      <trkpt lat="56.862099" lon="24.606516" />
      <trkpt lat="56.862177" lon="24.606578" />
      <trkpt lat="56.862518" lon="24.606850" />
      <trkpt lat="56.862638" lon="24.607094" />
      <trkpt lat="56.862974" lon="24.608009" />
      <trkpt lat="56.862974" lon="24.608008" />
      <trkpt lat="56.863056" lon="24.608232" />
      <trkpt lat="56.863165" lon="24.608554" />
      <trkpt lat="56.863448" lon="24.609430" />
      <trkpt lat="56.863602" lon="24.609707" />
      <trkpt lat="56.864424" lon="24.610712" />
      <trkpt lat="56.864840" lon="24.611093" />
      <trkpt lat="56.864940" lon="24.611212" />
      <trkpt lat="56.865004" lon="24.611366" />
      <trkpt lat="56.864867" lon="24.611450" />
      <trkpt lat="56.864691" lon="24.611598" />
      <trkpt lat="56.863534" lon="24.612922" />
      <trkpt lat="56.863364" lon="24.613078" />
      <trkpt lat="56.863204" lon="24.613179" />
      <trkpt lat="56.862973" lon="24.613269" />
      <trkpt lat="56.861059" lon="24.613864" />
      <trkpt lat="56.860808" lon="24.613960" />
      <trkpt lat="56.860639" lon="24.614038" />
      <trkpt lat="56.860314" lon="24.614253" />
      <trkpt lat="56.860111" lon="24.614438" />
      <trkpt lat="56.859763" lon="24.614807" />
      <trkpt lat="56.859372" lon="24.615280" />
      <trkpt lat="56.858976" lon="24.615814" />
      <trkpt lat="56.858800" lon="24.616100" />
      <trkpt lat="56.858663" lon="24.616364" />
      <trkpt lat="56.858560" lon="24.616606" />
      <trkpt lat="56.858477" lon="24.616848" />
      <trkpt lat="56.858386" lon="24.617149" />
      <trkpt lat="56.858315" lon="24.617349" />
      <trkpt lat="56.858246" lon="24.617432" />
      <trkpt lat="56.858171" lon="24.617492" />
      <trkpt lat="56.858019" lon="24.617580" />
      <trkpt lat="56.858514" lon="24.620201" />
      <trkpt lat="56.859336" lon="24.624563" />
      <trkpt lat="56.859421" lon="24.625042" />
      <trkpt lat="56.859524" lon="24.625739" />
      <trkpt lat="56.859575" lon="24.626346" />
      <trkpt lat="56.859589" lon="24.626690" />
      <trkpt lat="56.859588" lon="24.627140" />
      <trkpt lat="56.859580" lon="24.627372" />
      <trkpt lat="56.859560" lon="24.627729" />
      <trkpt lat="56.859506" lon="24.628297" />
      <trkpt lat="56.859416" lon="24.629032" />
      <trkpt lat="56.859053" lon="24.631845" />
      <trkpt lat="56.858777" lon="24.633977" />
      <trkpt lat="56.858648" lon="24.635033" />
      <trkpt lat="56.858589" lon="24.635660" />
      <trkpt lat="56.858552" lon="24.636245" />
      <trkpt lat="56.858535" lon="24.636821" />
      <trkpt lat="56.858536" lon="24.637388" />
      <trkpt lat="56.858561" lon="24.638063" />
      <trkpt lat="56.858585" lon="24.638445" />
      <trkpt lat="56.858638" lon="24.639090" />
      <trkpt lat="56.858696" lon="24.639713" />
      <trkpt lat="56.858694" lon="24.639924" />
      <trkpt lat="56.858735" lon="24.640635" />
      <trkpt lat="56.858743" lon="24.640942" />
      <trkpt lat="56.858728" lon="24.641347" />
      <trkpt lat="56.858694" lon="24.641730" />
      <trkpt lat="56.858631" lon="24.642161" />
      <trkpt lat="56.858605" lon="24.642311" />
      <trkpt lat="56.858515" lon="24.642729" />
      <trkpt lat="56.858371" lon="24.643261" />
      <trkpt lat="56.858281" lon="24.643544" />
      <trkpt lat="56.858179" lon="24.643815" />
      <trkpt lat="56.858098" lon="24.644012" />
      <trkpt lat="56.857981" lon="24.644267" />
      <trkpt lat="56.857877" lon="24.644516" />
      <trkpt lat="56.857547" lon="24.645080" />
      <trkpt lat="56.857265" lon="24.645564" />
      <trkpt lat="56.856699" lon="24.646523" />
      <trkpt lat="56.856442" lon="24.646972" />
      <trkpt lat="56.854889" lon="24.649617" />
      <trkpt lat="56.854130" lon="24.650931" />
      <trkpt lat="56.853384" lon="24.652246" />
      <trkpt lat="56.852835" lon="24.653230" />
      <trkpt lat="56.851898" lon="24.654962" />
      <trkpt lat="56.851013" lon="24.656665" />
      <trkpt lat="56.850734" lon="24.657213" />
      <trkpt lat="56.850392" lon="24.657913" />
      <trkpt lat="56.850033" lon="24.658656" />
      <trkpt lat="56.849687" lon="24.659398" />
      <trkpt lat="56.849875" lon="24.659785" />
      <trkpt lat="56.851678" lon="24.663303" />
      <trkpt lat="56.851677" lon="24.663302" />
      <trkpt lat="56.855934" lon="24.671608" />
      <trkpt lat="56.852499" lon="24.677371" />
      <trkpt lat="56.850102" lon="24.681391" />
      <trkpt lat="56.848954" lon="24.683368" />
      <trkpt lat="56.842002" lon="24.695318" />
      <trkpt lat="56.842050" lon="24.695517" />
      <trkpt lat="56.842215" lon="24.695867" />
      <trkpt lat="56.842450" lon="24.696314" />
      <trkpt lat="56.842606" lon="24.696631" />
      <trkpt lat="56.842766" lon="24.696965" />
      <trkpt lat="56.842944" lon="24.697363" />
      <trkpt lat="56.843060" lon="24.697770" />
      <trkpt lat="56.843327" lon="24.698867" />
      <trkpt lat="56.843473" lon="24.699526" />
      <trkpt lat="56.843620" lon="24.700087" />
      <trkpt lat="56.843771" lon="24.700599" />
      <trkpt lat="56.844007" lon="24.701477" />
      <trkpt lat="56.844123" lon="24.701860" />
      <trkpt lat="56.844167" lon="24.702282" />
      <trkpt lat="56.844127" lon="24.702599" />
      <trkpt lat="56.844065" lon="24.702965" />
      <trkpt lat="56.844007" lon="24.703356" />
      <trkpt lat="56.843967" lon="24.703713" />
      <trkpt lat="56.843818" lon="24.704604" />
      <trkpt lat="56.843791" lon="24.704909" />
      <trkpt lat="56.843785" lon="24.705250" />
      <trkpt lat="56.843809" lon="24.705531" />
      <trkpt lat="56.843865" lon="24.705770" />
      <trkpt lat="56.843960" lon="24.706031" />
      <trkpt lat="56.844076" lon="24.706266" />
      <trkpt lat="56.844205" lon="24.706474" />
      <trkpt lat="56.844372" lon="24.706620" />
      <trkpt lat="56.844687" lon="24.706767" />
      <trkpt lat="56.844858" lon="24.706811" />
      <trkpt lat="56.845057" lon="24.706898" />
      <trkpt lat="56.845224" lon="24.706990" />
      <trkpt lat="56.845376" lon="24.707098" />
      <trkpt lat="56.845515" lon="24.707252" />
      <trkpt lat="56.845610" lon="24.707427" />
      <trkpt lat="56.845702" lon="24.707637" />
      <trkpt lat="56.845797" lon="24.708019" />
      <trkpt lat="56.845832" lon="24.708435" />
      <trkpt lat="56.846413" lon="24.708351" />
      <trkpt lat="56.846587" lon="24.708166" />
      <trkpt lat="56.847096" lon="24.706681" />
      <trkpt lat="56.847551" lon="24.705378" />
      <trkpt lat="56.848010" lon="24.704094" />
      <trkpt lat="56.848188" lon="24.703631" />
      <trkpt lat="56.848552" lon="24.703236" />
      <trkpt lat="56.849032" lon="24.702657" />
      <trkpt lat="56.849816" lon="24.701924" />
      <trkpt lat="56.850588" lon="24.701350" />
      <trkpt lat="56.850769" lon="24.700938" />
      <trkpt lat="56.851086" lon="24.699991" />
      <trkpt lat="56.851563" lon="24.698701" />
      <trkpt lat="56.852019" lon="24.697505" />
      <trkpt lat="56.852409" lon="24.696444" />
      <trkpt lat="56.852578" lon="24.695770" />
      <trkpt lat="56.852687" lon="24.695219" />
      <trkpt lat="56.852732" lon="24.694637" />
      <trkpt lat="56.852754" lon="24.694222" />
      <trkpt lat="56.852877" lon="24.692083" />
      <trkpt lat="56.852853" lon="24.691387" />
      <trkpt lat="56.852894" lon="24.691211" />
      <trkpt lat="56.852926" lon="24.691156" />
      <trkpt lat="56.853520" lon="24.692287" />
      <trkpt lat="56.854075" lon="24.693380" />
      <trkpt lat="56.854514" lon="24.694236" />
      <trkpt lat="56.855318" lon="24.695793" />
      <trkpt lat="56.855380" lon="24.695913" />
      <trkpt lat="56.855932" lon="24.696986" />
      <trkpt lat="56.856264" lon="24.697614" />
      <trkpt lat="56.856669" lon="24.698405" />
      <trkpt lat="56.856821" lon="24.698710" />
      <trkpt lat="56.856985" lon="24.699052" />
      <trkpt lat="56.857003" lon="24.699141" />
      <trkpt lat="56.857013" lon="24.699268" />
      <trkpt lat="56.857026" lon="24.699629" />
      <trkpt lat="56.857024" lon="24.699945" />
      <trkpt lat="56.856999" lon="24.700870" />
      <trkpt lat="56.856982" lon="24.701093" />
      <trkpt lat="56.856952" lon="24.701325" />
      <trkpt lat="56.856857" lon="24.701664" />
      <trkpt lat="56.856796" lon="24.701847" />
      <trkpt lat="56.856829" lon="24.701900" />
      <trkpt lat="56.856859" lon="24.701983" />
      <trkpt lat="56.857397" lon="24.704154" />
      <trkpt lat="56.857484" lon="24.704515" />
      <trkpt lat="56.857583" lon="24.704922" />
      <trkpt lat="56.857635" lon="24.705137" />
      <trkpt lat="56.857789" lon="24.705635" />
      <trkpt lat="56.858105" lon="24.706340" />
      <trkpt lat="56.858783" lon="24.707566" />
      <trkpt lat="56.858948" lon="24.707865" />
      <trkpt lat="56.859074" lon="24.708186" />
      <trkpt lat="56.859147" lon="24.708368" />
      <trkpt lat="56.859414" lon="24.709349" />
      <trkpt lat="56.859766" lon="24.710643" />
      <trkpt lat="56.859802" lon="24.710834" />
      <trkpt lat="56.860074" lon="24.711742" />
      <trkpt lat="56.860269" lon="24.712575" />
      <trkpt lat="56.860290" lon="24.712666" />
      <trkpt lat="56.860325" lon="24.712808" />
      <trkpt lat="56.860839" lon="24.714879" />
      <trkpt lat="56.861029" lon="24.715135" />
      <trkpt lat="56.861541" lon="24.714661" />
      <trkpt lat="56.861839" lon="24.714090" />
      <trkpt lat="56.861960" lon="24.713851" />
      <trkpt lat="56.862344" lon="24.713122" />
      <trkpt lat="56.862412" lon="24.712794" />
      <trkpt lat="56.861947" lon="24.711957" />
      <trkpt lat="56.861882" lon="24.711858" />
      <trkpt lat="56.861794" lon="24.711751" />
      <trkpt lat="56.861807" lon="24.711700" />
      <trkpt lat="56.861647" lon="24.711182" />
      <trkpt lat="56.861549" lon="24.710882" />
      <trkpt lat="56.861556" lon="24.710836" />
      <trkpt lat="56.861627" lon="24.710766" />
      <trkpt lat="56.861592" lon="24.710684" />
      <trkpt lat="56.861539" lon="24.710625" />
      <trkpt lat="56.861414" lon="24.710525" />
      <trkpt lat="56.861112" lon="24.710506" />
      <trkpt lat="56.860954" lon="24.710367" />
      <trkpt lat="56.860813" lon="24.710168" />
      <trkpt lat="56.860633" lon="24.709954" />
      <trkpt lat="56.860175" lon="24.710254" />
      <trkpt lat="56.859766" lon="24.710643" />
      <trkpt lat="56.859802" lon="24.710834" />
      <trkpt lat="56.859771" lon="24.710878" />
      <trkpt lat="56.859685" lon="24.711077" />
      <trkpt lat="56.859589" lon="24.711342" />
      <trkpt lat="56.859535" lon="24.711532" />
      <trkpt lat="56.859470" lon="24.711697" />
      <trkpt lat="56.859315" lon="24.711948" />
      <trkpt lat="56.859034" lon="24.712087" />
      <trkpt lat="56.858822" lon="24.712165" />
      <trkpt lat="56.858647" lon="24.712401" />
      <trkpt lat="56.857739" lon="24.715880" />
      <trkpt lat="56.857385" lon="24.717237" />
      <trkpt lat="56.857123" lon="24.718232" />
      <trkpt lat="56.857069" lon="24.718917" />
      <trkpt lat="56.857124" lon="24.719349" />
      <trkpt lat="56.857113" lon="24.720048" />
      <trkpt lat="56.857018" lon="24.720672" />
      <trkpt lat="56.855409" lon="24.724998" />
      <trkpt lat="56.854639" lon="24.726703" />
      <trkpt lat="56.853643" lon="24.728704" />
      <trkpt lat="56.853914" lon="24.729731" />
      <trkpt lat="56.854006" lon="24.730123" />
      <trkpt lat="56.854093" lon="24.730623" />
      <trkpt lat="56.854202" lon="24.731354" />
      <trkpt lat="56.854477" lon="24.733370" />
      <trkpt lat="56.854538" lon="24.733725" />
      <trkpt lat="56.854578" lon="24.733906" />
      <trkpt lat="56.854649" lon="24.734138" />
      <trkpt lat="56.854718" lon="24.734339" />
      <trkpt lat="56.854907" lon="24.734830" />
      <trkpt lat="56.856663" lon="24.739022" />
      <trkpt lat="56.856926" lon="24.739590" />
      <trkpt lat="56.857677" lon="24.740976" />
      <trkpt lat="56.857769" lon="24.741166" />
      <trkpt lat="56.858047" lon="24.741795" />
      <trkpt lat="56.858386" lon="24.742629" />
      <trkpt lat="56.858585" lon="24.743209" />
      <trkpt lat="56.858659" lon="24.743456" />
      <trkpt lat="56.858847" lon="24.744222" />
      <trkpt lat="56.859130" lon="24.745525" />
      <trkpt lat="56.859923" lon="24.749049" />
      <trkpt lat="56.860167" lon="24.750086" />
      <trkpt lat="56.856728" lon="24.751627" />
      <trkpt lat="56.856588" lon="24.751933" />
      <trkpt lat="56.856532" lon="24.752105" />
      <trkpt lat="56.856498" lon="24.752310" />
      <trkpt lat="56.856497" lon="24.752453" />
      <trkpt lat="56.856497" lon="24.752530" />
      <trkpt lat="56.856525" lon="24.752775" />
      <trkpt lat="56.856608" lon="24.753348" />
      <trkpt lat="56.856807" lon="24.755052" />
      <trkpt lat="56.856827" lon="24.755217" />
      <trkpt lat="56.856871" lon="24.755593" />
      <trkpt lat="56.856994" lon="24.756510" />
      <trkpt lat="56.857148" lon="24.757135" />
      <trkpt lat="56.857430" lon="24.758231" />
      <trkpt lat="56.857514" lon="24.758737" />
      <trkpt lat="56.857518" lon="24.759154" />
      <trkpt lat="56.855163" lon="24.774266" />
      <trkpt lat="56.854960" lon="24.775506" />
      <trkpt lat="56.854587" lon="24.777909" />
      <trkpt lat="56.854630" lon="24.780670" />
      <trkpt lat="56.854701" lon="24.784917" />
      <trkpt lat="56.854986" lon="24.802170" />
      <trkpt lat="56.855084" lon="24.802297" />
      <trkpt lat="56.855237" lon="24.802403" />
      <trkpt lat="56.855354" lon="24.802447" />
      <trkpt lat="56.856011" lon="24.802341" />
      <trkpt lat="56.865191" lon="24.801185" />
      <trkpt lat="56.867107" lon="24.801014" />
      <trkpt lat="56.870075" lon="24.800730" />
      <trkpt lat="56.870415" lon="24.809364" />
      <trkpt lat="56.870551" lon="24.812844" />
      <trkpt lat="56.870636" lon="24.815022" />
      <trkpt lat="56.870724" lon="24.818188" />
      <trkpt lat="56.870793" lon="24.818181" />
      <trkpt lat="56.873525" lon="24.817845" />
      <trkpt lat="56.891750" lon="24.815607" />
      <trkpt lat="56.892573" lon="24.816941" />
      <trkpt lat="56.892598" lon="24.816900" />
      <trkpt lat="56.892537" lon="24.817025" />
      <trkpt lat="56.891344" lon="24.819835" />
      <trkpt lat="56.890924" lon="24.820787" />
      <trkpt lat="56.889482" lon="24.822468" />
      <trkpt lat="56.888434" lon="24.825443" />
      <trkpt lat="56.887952" lon="24.829082" />
      <trkpt lat="56.887288" lon="24.831088" />
      <trkpt lat="56.886567" lon="24.832587" />
      <trkpt lat="56.886184" lon="24.833382" />
      <trkpt lat="56.884965" lon="24.838382" />
      <trkpt lat="56.883371" lon="24.842634" />
      <trkpt lat="56.881926" lon="24.847153" />
      <trkpt lat="56.881760" lon="24.847511" />
      <trkpt lat="56.881664" lon="24.847595" />
      <trkpt lat="56.881446" lon="24.847638" />
      <trkpt lat="56.881261" lon="24.847650" />
      <trkpt lat="56.881104" lon="24.847774" />
      <trkpt lat="56.881007" lon="24.848016" />
      <trkpt lat="56.880968" lon="24.848679" />
      <trkpt lat="56.880941" lon="24.849035" />
      <trkpt lat="56.880880" lon="24.849468" />
      <trkpt lat="56.880543" lon="24.850508" />
      <trkpt lat="56.880478" lon="24.850746" />
      <trkpt lat="56.880440" lon="24.851029" />
      <trkpt lat="56.880510" lon="24.853897" />
      <trkpt lat="56.880525" lon="24.854145" />
      <trkpt lat="56.880564" lon="24.854411" />
      <trkpt lat="56.880455" lon="24.854555" />
      <trkpt lat="56.880313" lon="24.855417" />
      <trkpt lat="56.880280" lon="24.856535" />
      <trkpt lat="56.880210" lon="24.857218" />
      <trkpt lat="56.879960" lon="24.858511" />
      <trkpt lat="56.879920" lon="24.859049" />
      <trkpt lat="56.879912" lon="24.859133" />
      <trkpt lat="56.879774" lon="24.859410" />
      <trkpt lat="56.879666" lon="24.859735" />
      <trkpt lat="56.879586" lon="24.860694" />
      <trkpt lat="56.879553" lon="24.861712" />
      <trkpt lat="56.879599" lon="24.862774" />
      <trkpt lat="56.880015" lon="24.866415" />
      <trkpt lat="56.880296" lon="24.869031" />
      <trkpt lat="56.880465" lon="24.870612" />
      <trkpt lat="56.881036" lon="24.871598" />
      <trkpt lat="56.881875" lon="24.873048" />
      <trkpt lat="56.883633" lon="24.875193" />
      <trkpt lat="56.884354" lon="24.877222" />
      <trkpt lat="56.884581" lon="24.877863" />
      <trkpt lat="56.884988" lon="24.879009" />
      <trkpt lat="56.885438" lon="24.879270" />
      <trkpt lat="56.886129" lon="24.880921" />
      <trkpt lat="56.886413" lon="24.881598" />
      <trkpt lat="56.886793" lon="24.882599" />
      <trkpt lat="56.886944" lon="24.882856" />
      <trkpt lat="56.887556" lon="24.883348" />
      <trkpt lat="56.888367" lon="24.884670" />
      <trkpt lat="56.889584" lon="24.885880" />
      <trkpt lat="56.890678" lon="24.886117" />
      <trkpt lat="56.890778" lon="24.887705" />
      <trkpt lat="56.890756" lon="24.887366" />
      <trkpt lat="56.890798" lon="24.888031" />
      <trkpt lat="56.891566" lon="24.890538" />
      <trkpt lat="56.892551" lon="24.892704" />
      <trkpt lat="56.892763" lon="24.892952" />
      <trkpt lat="56.892984" lon="24.892856" />
      <trkpt lat="56.893193" lon="24.892692" />
      <trkpt lat="56.893466" lon="24.892570" />
      <trkpt lat="56.893788" lon="24.892603" />
      <trkpt lat="56.894036" lon="24.892590" />
      <trkpt lat="56.895371" lon="24.891865" />
      <trkpt lat="56.895597" lon="24.893354" />
      <trkpt lat="56.895657" lon="24.893721" />
      <trkpt lat="56.895724" lon="24.894067" />
      <trkpt lat="56.895833" lon="24.894546" />
      <trkpt lat="56.896028" lon="24.895262" />
      <trkpt lat="56.896087" lon="24.895517" />
      <trkpt lat="56.896153" lon="24.895857" />
      <trkpt lat="56.896211" lon="24.896294" />
      <trkpt lat="56.896153" lon="24.895857" />
      <trkpt lat="56.896087" lon="24.895517" />
      <trkpt lat="56.896028" lon="24.895262" />
      <trkpt lat="56.895833" lon="24.894546" />
      <trkpt lat="56.895724" lon="24.894067" />
      <trkpt lat="56.895657" lon="24.893721" />
      <trkpt lat="56.895597" lon="24.893354" />
      <trkpt lat="56.895371" lon="24.891865" />
      <trkpt lat="56.894036" lon="24.892590" />
      <trkpt lat="56.893788" lon="24.892603" />
      <trkpt lat="56.893466" lon="24.892570" />
      <trkpt lat="56.893193" lon="24.892692" />
      <trkpt lat="56.892984" lon="24.892856" />
      <trkpt lat="56.892763" lon="24.892952" />
      <trkpt lat="56.892897" lon="24.893533" />
      <trkpt lat="56.893032" lon="24.894838" />
      <trkpt lat="56.892705" lon="24.896866" />
      <trkpt lat="56.892840" lon="24.897818" />
      <trkpt lat="56.892960" lon="24.898455" />
      <trkpt lat="56.892964" lon="24.898744" />
      <trkpt lat="56.892887" lon="24.898945" />
      <trkpt lat="56.890749" lon="24.901275" />
      <trkpt lat="56.889422" lon="24.903578" />
      <trkpt lat="56.888979" lon="24.904054" />
      <trkpt lat="56.888978" lon="24.904266" />
      <trkpt lat="56.889113" lon="24.904901" />
      <trkpt lat="56.889426" lon="24.905615" />
      <trkpt lat="56.889527" lon="24.906161" />
      <trkpt lat="56.889518" lon="24.907217" />
      <trkpt lat="56.889498" lon="24.909679" />
      <trkpt lat="56.889461" lon="24.909767" />
      <trkpt lat="56.888809" lon="24.911337" />
      <trkpt lat="56.888698" lon="24.911963" />
      <trkpt lat="56.888959" lon="24.912991" />
      <trkpt lat="56.890107" lon="24.914504" />
      <trkpt lat="56.890723" lon="24.915156" />
      <trkpt lat="56.891730" lon="24.915879" />
      <trkpt lat="56.892327" lon="24.916443" />
      <trkpt lat="56.892911" lon="24.917378" />
      <trkpt lat="56.893572" lon="24.918375" />
      <trkpt lat="56.893715" lon="24.919148" />
      <trkpt lat="56.893722" lon="24.920071" />
      <trkpt lat="56.893538" lon="24.921368" />
      <trkpt lat="56.893562" lon="24.921939" />
      <trkpt lat="56.893884" lon="24.922587" />
      <trkpt lat="56.893967" lon="24.922876" />
      <trkpt lat="56.894087" lon="24.923243" />
      <trkpt lat="56.894157" lon="24.923927" />
      <trkpt lat="56.894211" lon="24.924715" />
      <trkpt lat="56.894404" lon="24.925935" />
      <trkpt lat="56.894616" lon="24.926685" />
      <trkpt lat="56.894784" lon="24.927079" />
      <trkpt lat="56.895213" lon="24.927976" />
      <trkpt lat="56.895573" lon="24.928698" />
      <trkpt lat="56.895711" lon="24.928583" />
      <trkpt lat="56.895863" lon="24.928479" />
      <trkpt lat="56.896000" lon="24.928402" />
      <trkpt lat="56.896141" lon="24.928343" />
      <trkpt lat="56.897077" lon="24.928086" />
      <trkpt lat="56.897430" lon="24.928010" />
      <trkpt lat="56.897690" lon="24.928005" />
      <trkpt lat="56.897797" lon="24.928017" />
      <trkpt lat="56.898032" lon="24.928111" />
      <trkpt lat="56.898433" lon="24.928345" />
      <trkpt lat="56.899330" lon="24.928875" />
      <trkpt lat="56.899874" lon="24.929201" />
      <trkpt lat="56.900053" lon="24.929296" />
      <trkpt lat="56.900290" lon="24.929380" />
      <trkpt lat="56.900413" lon="24.929414" />
      <trkpt lat="56.900548" lon="24.929434" />
      <trkpt lat="56.900280" lon="24.930141" />
      <trkpt lat="56.900005" lon="24.930903" />
      <trkpt lat="56.899814" lon="24.931433" />
      <trkpt lat="56.899620" lon="24.931969" />
      <trkpt lat="56.899244" lon="24.933058" />
      <trkpt lat="56.899175" lon="24.933408" />
      <trkpt lat="56.899080" lon="24.933945" />
      <trkpt lat="56.899060" lon="24.934063" />
      <trkpt lat="56.898983" lon="24.934517" />
      <trkpt lat="56.898966" lon="24.934688" />
      <trkpt lat="56.899019" lon="24.935549" />
      <trkpt lat="56.899105" lon="24.936152" />
      <trkpt lat="56.900013" lon="24.944757" />
      <trkpt lat="56.900184" lon="24.946044" />
      <trkpt lat="56.904321" lon="24.945329" />
      <trkpt lat="56.904615" lon="24.945179" />
      <trkpt lat="56.906103" lon="24.943830" />
      <trkpt lat="56.906968" lon="24.943103" />
      <trkpt lat="56.907731" lon="24.942329" />
      <trkpt lat="56.907943" lon="24.942614" />
      <trkpt lat="56.908162" lon="24.942851" />
      <trkpt lat="56.908405" lon="24.942964" />
      <trkpt lat="56.908835" lon="24.943082" />
      <trkpt lat="56.908974" lon="24.943147" />
      <trkpt lat="56.909112" lon="24.943255" />
      <trkpt lat="56.909220" lon="24.943385" />
      <trkpt lat="56.909420" lon="24.943734" />
      <trkpt lat="56.909546" lon="24.943989" />
      <trkpt lat="56.909847" lon="24.944573" />
      <trkpt lat="56.909966" lon="24.944798" />
      <trkpt lat="56.910051" lon="24.945005" />
      <trkpt lat="56.910115" lon="24.945228" />
      <trkpt lat="56.910164" lon="24.945483" />
      <trkpt lat="56.910172" lon="24.945740" />
      <trkpt lat="56.910168" lon="24.945998" />
      <trkpt lat="56.910152" lon="24.946282" />
      <trkpt lat="56.910050" lon="24.947599" />
      <trkpt lat="56.910020" lon="24.948183" />
      <trkpt lat="56.909915" lon="24.950906" />
      <trkpt lat="56.909929" lon="24.951236" />
      <trkpt lat="56.909981" lon="24.951579" />
      <trkpt lat="56.910067" lon="24.951805" />
      <trkpt lat="56.910142" lon="24.951975" />
      <trkpt lat="56.910368" lon="24.952239" />
      <trkpt lat="56.910312" lon="24.953819" />
      <trkpt lat="56.910242" lon="24.956103" />
      <trkpt lat="56.910191" lon="24.956904" />
      <trkpt lat="56.910119" lon="24.957715" />
      <trkpt lat="56.909991" lon="24.958813" />
      <trkpt lat="56.909298" lon="24.964262" />
      <trkpt lat="56.908556" lon="24.970113" />
      <trkpt lat="56.906165" lon="24.988977" />
      <trkpt lat="56.905528" lon="24.994032" />
      <trkpt lat="56.905321" lon="24.995603" />
      <trkpt lat="56.904898" lon="24.998946" />
      <trkpt lat="56.904369" lon="25.003147" />
      <trkpt lat="56.903168" lon="25.012624" />
      <trkpt lat="56.903238" lon="25.012744" />
      <trkpt lat="56.903472" lon="25.013088" />
      <trkpt lat="56.903612" lon="25.013298" />
      <trkpt lat="56.903867" lon="25.013426" />
      <trkpt lat="56.904866" lon="25.013636" />
      <trkpt lat="56.904975" lon="25.013589" />
      <trkpt lat="56.905248" lon="25.013391" />
      <trkpt lat="56.905490" lon="25.012995" />
      <trkpt lat="56.906732" lon="25.010185" />
      <trkpt lat="56.906974" lon="25.009497" />
      <trkpt lat="56.907196" lon="25.008774" />
      <trkpt lat="56.907464" lon="25.007841" />
      <trkpt lat="56.907814" lon="25.007188" />
      <trkpt lat="56.908336" lon="25.006465" />
      <trkpt lat="56.908591" lon="25.005836" />
      <trkpt lat="56.910258" lon="25.001358" />
      <trkpt lat="56.911105" lon="24.999097" />
      <trkpt lat="56.911360" lon="24.998444" />
      <trkpt lat="56.911538" lon="24.997674" />
      <trkpt lat="56.911862" lon="24.996147" />
      <trkpt lat="56.912162" lon="24.994783" />
      <trkpt lat="56.912365" lon="24.994048" />
      <trkpt lat="56.912754" lon="24.993232" />
      <trkpt lat="56.913295" lon="24.992019" />
      <trkpt lat="56.913820" lon="24.990556" />
      <trkpt lat="56.914173" lon="24.992306" />
      <trkpt lat="56.914567" lon="24.994055" />
      <trkpt lat="56.914766" lon="24.994889" />
      <trkpt lat="56.914867" lon="24.995441" />
      <trkpt lat="56.915022" lon="24.996478" />
      <trkpt lat="56.915115" lon="24.996900" />
      <trkpt lat="56.915358" lon="24.997873" />
      <trkpt lat="56.915532" lon="24.998520" />
      <trkpt lat="56.915694" lon="24.998962" />
      <trkpt lat="56.915867" lon="24.999312" />
      <trkpt lat="56.916178" lon="24.999843" />
      <trkpt lat="56.916268" lon="25.000055" />
      <trkpt lat="56.916334" lon="25.000220" />
      <trkpt lat="56.916418" lon="25.000539" />
      <trkpt lat="56.916488" lon="25.000945" />
      <trkpt lat="56.916539" lon="25.001152" />
      <trkpt lat="56.916596" lon="25.001299" />
      <trkpt lat="56.916688" lon="25.001433" />
      <trkpt lat="56.916854" lon="25.001592" />
      <trkpt lat="56.918193" lon="25.002565" />
      <trkpt lat="56.920828" lon="25.004494" />
      <trkpt lat="56.923018" lon="25.006084" />
      <trkpt lat="56.924945" lon="25.007564" />
      <trkpt lat="56.925153" lon="25.006419" />
      <trkpt lat="56.925263" lon="25.005604" />
      <trkpt lat="56.925308" lon="25.004912" />
      <trkpt lat="56.925308" lon="25.004227" />
      <trkpt lat="56.925258" lon="25.003400" />
      <trkpt lat="56.925150" lon="25.002652" />
      <trkpt lat="56.924887" lon="25.001306" />
      <trkpt lat="56.924333" lon="24.998639" />
      <trkpt lat="56.924093" lon="24.997676" />
      <trkpt lat="56.923856" lon="24.996979" />
      <trkpt lat="56.923651" lon="24.996491" />
      <trkpt lat="56.923399" lon="24.995978" />
      <trkpt lat="56.922905" lon="24.994914" />
    </trkseg>
  </trk>
</gpx>
