{"type":"FeatureCollection","features":[{"type":"Feature","properties":{"name":"riga-adazi-2020-05-16","country":"LV","lengthKm":31.2},"geometry":{"type":"LineString","coordinates":[[24.13702,57.02599],[24.13759,57.02694],[24.13778,57.02795],[24.13744,57.02898],[24.13537,57.03063],[24.13311,57.03152],[24.13328,57.03192],[24.13415,57.03234],[24.13542,57.03237],[24.13664,57.03189],[24.13733,57.03126],[24.13704,57.03098],[24.13608,57.0311],[24.13066,57.03305],[24.1297,57.03349],[24.12811,57.03476],[24.12692,57.03512],[24.124,57.03475],[24.1213,57.03466],[24.12018,57.03474],[24.1182,57.03527],[24.1155,57.03637],[24.11292,57.03925],[24.11107,57.03986],[24.11066,57.04025],[24.11037,57.04079],[24.11049,57.04131],[24.11262,57.04298],[24.11479,57.04427],[24.11554,57.04506],[24.11497,57.0477],[24.11566,57.04855],[24.11565,57.05036],[24.11665,57.0516],[24.11635,57.05219],[24.11366,57.05392],[24.11291,57.05475],[24.11104,57.05558],[24.10835,57.0576],[24.10826,57.05853],[24.11369,57.06226],[24.1164,57.06374],[24.12283,57.06558],[24.12354,57.06572],[24.12566,57.06567],[24.12305,57.06884],[24.12301,57.0692],[24.12033,57.07202],[24.11843,57.07427],[24.11851,57.07445],[24.12084,57.07532],[24.12091,57.07596],[24.12154,57.07652],[24.12309,57.07712],[24.12416,57.07783],[24.12567,57.07802],[24.1268,57.0779],[24.12801,57.07747],[24.12944,57.07742],[24.1301,57.07756],[24.13308,57.07884],[24.13408,57.07984],[24.13514,57.08047],[24.13864,57.08157],[24.14122,57.08267],[24.1419,57.08207],[24.14388,57.08264],[24.14478,57.08396],[24.14699,57.08516],[24.15177,57.08584],[24.15229,57.08536],[24.15424,57.08518],[24.15679,57.08282],[24.15838,57.08221],[24.15983,57.08192],[24.15853,57.07325],[24.15975,57.07339],[24.16057,57.07247],[24.16795,57.07057],[24.17004,57.07028],[24.17347,57.07028],[24.17519,57.07004],[24.1768,57.06958],[24.17828,57.06964],[24.18102,57.06924],[24.18182,57.06862],[24.18316,57.06826],[24.18365,57.06788],[24.18397,57.06647],[24.18429,57.06616],[24.1847,57.06598],[24.18821,57.06583],[24.18891,57.06561],[24.19096,57.06435],[24.19216,57.06286],[24.19538,57.06115],[24.19749,57.06055],[24.19931,57.06048],[24.20022,57.05987],[24.20059,57.06007],[24.20234,57.06016],[24.20416,57.06064],[24.20675,57.06175],[24.21056,57.06248],[24.21326,57.06251],[24.21392,57.06276],[24.21518,57.06285],[24.21639,57.0627],[24.21703,57.06294],[24.21859,57.06419],[24.21936,57.06448],[24.22353,57.06527],[24.22377,57.06561],[24.22304,57.06627],[24.22398,57.06779],[24.22467,57.06843],[24.22587,57.06852],[24.22468,57.06845],[24.22405,57.06802],[24.2235,57.068],[24.22314,57.06863],[24.22254,57.06882],[24.22141,57.06998],[24.22104,57.07022],[24.22038,57.07021],[24.2201,57.07049],[24.22027,57.07087],[24.22235,57.07166],[24.22442,57.07171],[24.22515,57.07189],[24.2279,57.07188],[24.22903,57.0713],[24.23073,57.07162],[24.23232,57.07161],[24.2329,57.07176],[24.2335,57.07221],[24.2335,57.07248],[24.23085,57.07562],[24.23098,57.07575],[24.23462,57.07669],[24.23568,57.07678],[24.24365,57.07719],[24.24844,57.07681],[24.25132,57.08073],[24.25178,57.08088],[24.25599,57.08028],[24.27433,57.07622],[24.27598,57.07583],[24.27717,57.07527],[24.27862,57.07444],[24.27851,57.07418],[24.27079,57.06966],[24.2702,57.06851],[24.27048,57.06793],[24.27423,57.06582],[24.27523,57.06479],[24.27788,57.06352],[24.28282,57.06187],[24.28428,57.0616],[24.28668,57.06163],[24.28776,57.06139],[24.29048,57.05929],[24.29153,57.05873],[24.29705,57.05681],[24.29879,57.05656],[24.3005,57.05607],[24.30203,57.05599],[24.30467,57.057],[24.3063,57.05877],[24.31028,57.05953],[24.31548,57.05958],[24.3175,57.05996],[24.31772,57.0613],[24.31738,57.06178],[24.31834,57.06251],[24.31774,57.06315],[24.31796,57.06418],[24.31658,57.06429],[24.31624,57.06446],[24.31526,57.06749],[24.31546,57.06782],[24.31655,57.06817],[24.31631,57.06886],[24.3165,57.06908],[24.31701,57.06915],[24.31721,57.06957],[24.31784,57.0696],[24.31779,57.06881],[24.31831,57.06857],[24.32215,57.0685],[24.33229,57.06924],[24.33653,57.07063],[24.3367,57.07085],[24.33142,57.07387],[24.32732,57.07778],[24.32746,57.0781],[24.32903,57.07898]]}},{"type":"Feature","properties":{"name":"riga-papisilla-2025-08-28-1","country":"LV","lengthKm":3.4},"geometry":{"type":"LineString","coordinates":[[24.18621,56.99237],[24.1876,56.99177],[24.1879,56.99208],[24.1944,56.99176],[24.19683,56.99116],[24.19966,56.99016],[24.20038,56.98958],[24.2015,56.98801],[24.20262,56.98732],[24.20453,56.98679],[24.20626,56.98674],[24.22049,56.98896],[24.22328,56.98962],[24.22487,56.99061],[24.2262,56.9926],[24.22908,56.99411],[24.23071,56.99565]]}},{"type":"Feature","properties":{"name":"riga-papisilla-2025-08-28-2","country":"LV","lengthKm":14.1},"geometry":{"type":"LineString","coordinates":[[24.23589,56.99825],[24.23631,56.99844],[24.24057,56.99868],[24.24794,57.00055],[24.25007,57.00146],[24.2519,57.00454],[24.25635,57.0037],[24.25989,57.00364],[24.26052,57.00465],[24.26044,57.00539],[24.26127,57.00685],[24.26142,57.00867],[24.26051,57.0096],[24.26042,57.01093],[24.25953,57.01185],[24.25966,57.01366],[24.25913,57.01516],[24.25968,57.01608],[24.25971,57.01669],[24.25846,57.01812],[24.25824,57.01873],[24.25584,57.0187],[24.25343,57.01911],[24.25114,57.01905],[24.24747,57.02123],[24.24459,57.02243],[24.2462,57.02496],[24.24721,57.02579],[24.24745,57.02637],[24.24706,57.0282],[24.24689,57.03229],[24.24787,57.03559],[24.24601,57.03856],[24.24534,57.04104],[24.24638,57.04391],[24.25107,57.0487],[24.25222,57.05085],[24.25383,57.05225],[24.25672,57.0559],[24.25738,57.0576],[24.26052,57.06062],[24.26256,57.06195],[24.26372,57.06451],[24.26534,57.06674],[24.2676,57.06793],[24.27004,57.06883],[24.27086,57.06972],[24.27221,57.07057],[24.29788,57.08525],[24.29924,57.08701],[24.30536,57.09326],[24.30744,57.09394],[24.31062,57.09453]]}},{"type":"Feature","properties":{"name":"riga-papisilla-2025-08-28-3","country":"LV","lengthKm":46.5},"geometry":{"type":"LineString","coordinates":[[24.34799,57.08723],[24.34834,57.0863],[24.34975,57.08524],[24.35059,57.08394],[24.3557,57.08427],[24.35914,57.08413],[24.36604,57.08298],[24.36697,57.08244],[24.36709,57.08179],[24.3695,57.08047],[24.37062,57.07959],[24.37305,57.07953],[24.37582,57.07995],[24.38048,57.08214],[24.38431,57.08192],[24.3859,57.0816],[24.3926,57.0843],[24.39423,57.08466],[24.39728,57.08493],[24.39965,57.08551],[24.40134,57.08547],[24.40317,57.0851],[24.406,57.08506],[24.41332,57.08347],[24.41807,57.08363],[24.42071,57.08465],[24.42315,57.08501],[24.42537,57.08459],[24.43125,57.08471],[24.43223,57.085],[24.43321,57.08587],[24.43825,57.08871],[24.43975,57.08926],[24.44458,57.08979],[24.44868,57.09002],[24.45022,57.08993],[24.45227,57.08927],[24.45598,57.08924],[24.45995,57.0905],[24.46533,57.09121],[24.46619,57.09149],[24.475,57.09705],[24.47683,57.09781],[24.48064,57.09884],[24.48592,57.10065],[24.49266,57.10368],[24.49734,57.10643],[24.49988,57.10768],[24.50026,57.10896],[24.50777,57.11259],[24.51185,57.11425],[24.51423,57.11629],[24.51742,57.11837],[24.51935,57.1193],[24.52222,57.12006],[24.52416,57.12029],[24.52659,57.12135],[24.52706,57.12161],[24.52777,57.12289],[24.52945,57.124],[24.53819,57.12737],[24.54725,57.13182],[24.55195,57.13469],[24.55361,57.13528],[24.567,57.14259],[24.56773,57.14329],[24.56871,57.1435],[24.572,57.14346],[24.57381,57.14366],[24.57628,57.14465],[24.58055,57.14777],[24.58228,57.14874],[24.58765,57.14966],[24.59037,57.15069],[24.59382,57.1526],[24.59714,57.15331],[24.59819,57.15424],[24.59888,57.15546],[24.60221,57.15772],[24.603,57.15909],[24.60383,57.15935],[24.60555,57.15951],[24.6095,57.16122],[24.60974,57.16157],[24.60963,57.16276],[24.60997,57.16308],[24.61605,57.16403],[24.62087,57.16534],[24.61965,57.16811],[24.61876,57.16915],[24.61743,57.17009],[24.6118,57.17303],[24.60708,57.17824],[24.60672,57.18],[24.60621,57.18096],[24.60259,57.18428],[24.60232,57.18688],[24.60197,57.18771],[24.60115,57.18837],[24.5981,57.18947],[24.59732,57.19006],[24.59698,57.19073],[24.59715,57.19166],[24.60041,57.19548],[24.60028,57.1967],[24.59737,57.19944],[24.59449,57.19986],[24.59356,57.20036],[24.59051,57.20384],[24.58842,57.20564],[24.58707,57.20899],[24.58671,57.21162],[24.58909,57.21207],[24.59478,57.21372],[24.59763,57.21518],[24.59772,57.2161],[24.5998,57.21708],[24.60099,57.21809],[24.59747,57.21905],[24.59606,57.21917],[24.59579,57.21994],[24.59628,57.22114],[24.59694,57.22166],[24.59692,57.22205],[24.59905,57.22333],[24.60052,57.22593],[24.60194,57.22646],[24.60298,57.22746],[24.60346,57.22859],[24.60327,57.22958],[24.60202,57.23116],[24.60021,57.23233],[24.58969,57.23635],[24.58655,57.23707],[24.58492,57.23596],[24.57863,57.23553],[24.57363,57.23491],[24.57232,57.23429],[24.5717,57.23421],[24.57091,57.23432],[24.56758,57.23571],[24.57055,57.23797],[24.57126,57.23895],[24.57279,57.23978],[24.57626,57.24279],[24.57751,57.24662],[24.57929,57.24786],[24.5799,57.24855],[24.58144,57.25146],[24.58396,57.25389],[24.58445,57.25466],[24.58468,57.25535],[24.58452,57.25755],[24.58481,57.25826],[24.58863,57.26152],[24.58321,57.26332],[24.57653,57.26487],[24.5752,57.26502],[24.57268,57.26495],[24.56898,57.2642],[24.56522,57.26374],[24.55492,57.26373],[24.55262,57.26355],[24.55022,57.26309],[24.54838,57.26209],[24.54727,57.26279],[24.53585,57.26638],[24.52785,57.27234],[24.52702,57.27449],[24.50567,57.27301],[24.50412,57.27616],[24.50031,57.28115],[24.49958,57.28178],[24.49892,57.28467],[24.50434,57.28514],[24.50728,57.28587],[24.5127,57.28943],[24.52124,57.29158],[24.52017,57.29352],[24.51697,57.30285],[24.51708,57.30331],[24.51911,57.30574],[24.51821,57.30723]]}},{"type":"Feature","properties":{"name":"riga-papisilla-2025-08-28-4","country":"EE","lengthKm":63.5},"geometry":{"type":"LineString","coordinates":[[24.52551,57.31944],[24.52702,57.32506],[24.5207,57.32549],[24.52147,57.32772],[24.52266,57.32885],[24.52273,57.33083],[24.52199,57.33506],[24.52071,57.3355],[24.51981,57.33733],[24.51857,57.33835],[24.52095,57.33903],[24.52512,57.3407],[24.52358,57.34273],[24.52182,57.34376],[24.52112,57.34463],[24.51742,57.34655],[24.50832,57.35417],[24.5035,57.35704],[24.50251,57.35844],[24.50185,57.36366],[24.50179,57.36273],[24.50221,57.3618],[24.50741,57.36147],[24.50863,57.36201],[24.50933,57.36168],[24.55463,57.38438],[24.55063,57.38567],[24.54995,57.38622],[24.54292,57.39842],[24.54276,57.39909],[24.54398,57.40248],[24.54458,57.40356],[24.54571,57.40428],[24.52634,57.4164],[24.52941,57.41898],[24.53415,57.42153],[24.53687,57.4239],[24.54207,57.42544],[24.54834,57.42857],[24.55411,57.43033],[24.56067,57.43117],[24.56555,57.43274],[24.57009,57.43272],[24.5715,57.43319],[24.57398,57.43758],[24.57567,57.43935],[24.57733,57.44012],[24.58149,57.44114],[24.582,57.44156],[24.58185,57.44556],[24.57945,57.44967],[24.57934,57.4503],[24.57977,57.45123],[24.58095,57.45216],[24.58003,57.45259],[24.57882,57.45264],[24.57522,57.4519],[24.5733,57.45197],[24.56633,57.45354],[24.56318,57.45448],[24.56013,57.4563],[24.55891,57.45679],[24.55167,57.45682],[24.53945,57.45792],[24.53502,57.45735],[24.53346,57.4574],[24.52904,57.4587],[24.52311,57.45976],[24.5218,57.46063],[24.51983,57.46123],[24.51427,57.46356],[24.5129,57.46383],[24.51051,57.4637],[24.50299,57.46273],[24.49968,57.4636],[24.49056,57.46418],[24.48676,57.46474],[24.48051,57.4661],[24.47666,57.46648],[24.47557,57.46635],[24.47693,57.46745],[24.47729,57.46805],[24.47761,57.47225],[24.4831,57.47664],[24.48385,57.47803],[24.48389,57.47852],[24.48182,57.4814],[24.48145,57.48328],[24.48391,57.48388],[24.48767,57.48522],[24.49284,57.4881],[24.50212,57.49055],[24.50303,57.49121],[24.50399,57.49336],[24.50478,57.49415],[24.50574,57.49482],[24.50736,57.49523],[24.50905,57.49658],[24.51285,57.50413],[24.51303,57.50737],[24.51531,57.51095],[24.51537,57.51177],[24.52111,57.514],[24.52239,57.51591],[24.522,57.5179],[24.52217,57.51954],[24.52669,57.52187],[24.52954,57.52399],[24.53112,57.5264],[24.53483,57.53064],[24.5363,57.53505],[24.5378,57.53784],[24.53756,57.54147],[24.53717,57.54205],[24.53511,57.54322],[24.52724,57.54588],[24.52455,57.54704],[24.52329,57.54834],[24.5215,57.55188],[24.52141,57.55297],[24.5242,57.55772],[24.52797,57.56164],[24.52962,57.56533],[24.52862,57.5667],[24.52065,57.57199],[24.51444,57.5791],[24.51355,57.5817],[24.51362,57.58711],[24.5138,57.58817],[24.51524,57.59104],[24.51539,57.59246],[24.51513,57.59441],[24.51468,57.59565],[24.51325,57.59755],[24.51026,57.60063],[24.50444,57.60419],[24.50105,57.60586],[24.49751,57.60943],[24.49636,57.61194],[24.49445,57.6116],[24.49376,57.61092],[24.4921,57.61013],[24.48819,57.60741],[24.48559,57.60778],[24.48249,57.6086],[24.47958,57.60904],[24.47156,57.60771],[24.46624,57.60776],[24.46191,57.60894],[24.45474,57.60868],[24.45401,57.60881],[24.45038,57.60545],[24.44709,57.59798],[24.44634,57.59687],[24.44261,57.59379],[24.43958,57.59199],[24.43969,57.59119],[24.4386,57.58709],[24.43918,57.58467],[24.43896,57.58213],[24.43846,57.58018],[24.43479,57.57136],[24.43503,57.57137],[24.43492,57.57022],[24.43437,57.57011],[24.43436,57.57023],[24.43379,57.56991],[24.43409,57.56946],[24.42935,57.56768],[24.42481,57.5678],[24.42077,57.56677],[24.4188,57.56646],[24.41507,57.56623],[24.41321,57.56629],[24.40849,57.56698],[24.40036,57.56954],[24.3984,57.56968],[24.39986,57.56963],[24.39533,57.57114],[24.39047,57.57391],[24.38469,57.57619],[24.38195,57.5781],[24.38062,57.57853],[24.37774,57.57897],[24.37548,57.57872],[24.37272,57.57918],[24.37146,57.57897],[24.37102,57.57835],[24.36751,57.57835],[24.36624,57.57868],[24.36598,57.57906],[24.36558,57.58073],[24.36808,57.58199],[24.36908,57.58283],[24.36937,57.58436],[24.37023,57.58523],[24.3705,57.58593],[24.36983,57.58738],[24.37038,57.58769],[24.37056,57.58838],[24.37141,57.58885],[24.37205,57.58987],[24.37386,57.59666],[24.37297,57.60004],[24.37355,57.60096],[24.37557,57.60195],[24.37622,57.603],[24.37827,57.6045],[24.37941,57.6064],[24.38116,57.60695],[24.38265,57.60868],[24.38278,57.60944],[24.3833,57.61004],[24.38404,57.61026],[24.38588,57.61026],[24.3884,57.61117],[24.38967,57.61387],[24.39071,57.61436],[24.39278,57.61417],[24.39478,57.61427]]}},{"type":"Feature","properties":{"name":"riga-papisilla-2025-08-28-5","country":"EE","lengthKm":66.8},"geometry":{"type":"LineString","coordinates":[[24.37474,57.64582],[24.37514,57.65038],[24.37374,57.65011],[24.37333,57.65492],[24.3722,57.65748],[24.3702,57.66072],[24.369,57.66789],[24.36885,57.67083],[24.36769,57.67459],[24.36796,57.67538],[24.36779,57.67589],[24.36626,57.67847],[24.36563,57.6802],[24.36483,57.68062],[24.36389,57.68212],[24.36181,57.68693],[24.36143,57.68673],[24.36071,57.68685],[24.36099,57.68852],[24.36074,57.69137],[24.35891,57.69552],[24.35719,57.69753],[24.35625,57.69908],[24.35489,57.70228],[24.35478,57.7047],[24.35233,57.70885],[24.35152,57.71124],[24.34741,57.71795],[24.34731,57.72056],[24.34765,57.72186],[24.34829,57.72275],[24.3488,57.7262],[24.34955,57.72772],[24.34951,57.73005],[24.35002,57.73434],[24.3533,57.74707],[24.35658,57.75245],[24.3581,57.75215],[24.36132,57.7553],[24.36185,57.75636],[24.3627,57.75664],[24.3627,57.75682],[24.3627,57.75664],[24.36561,57.75674],[24.36728,57.76144],[24.37519,57.77096],[24.37749,57.77223],[24.3766,57.7727],[24.3793,57.77447],[24.38724,57.78097],[24.38801,57.78154],[24.39378,57.78285],[24.39516,57.78171],[24.39701,57.77955],[24.38181,57.79615],[24.38364,57.79657],[24.3861,57.79803],[24.40439,57.80304],[24.40712,57.80087],[24.40917,57.79759],[24.40972,57.79731],[24.41139,57.79701],[24.42898,57.79454],[24.43103,57.79458],[24.4323,57.79423],[24.44279,57.7925],[24.44434,57.79261],[24.44478,57.79443],[24.44753,57.79484],[24.44798,57.7951],[24.44876,57.79646],[24.44884,57.7975],[24.44786,57.80145],[24.44639,57.80523],[24.44733,57.80581],[24.44704,57.80654],[24.44758,57.80779],[24.44743,57.80902],[24.44765,57.81013],[24.44817,57.81058],[24.44761,57.81554],[24.45057,57.82162],[24.44966,57.82328],[24.44894,57.82571],[24.44963,57.82621],[24.44967,57.82685],[24.4517,57.82925],[24.45196,57.82988],[24.4513,57.8311],[24.45106,57.83232],[24.45209,57.83574],[24.45145,57.8381],[24.45032,57.84059],[24.45491,57.84861],[24.4557,57.84924],[24.35851,57.86345],[24.36066,57.87026],[24.3609,57.8739],[24.36201,57.87662],[24.36419,57.88069],[24.36598,57.88294],[24.36905,57.88994],[24.3719,57.89415],[24.37469,57.89922],[24.38018,57.90646],[24.38331,57.91128],[24.38512,57.91436],[24.38708,57.91919],[24.39002,57.92392],[24.39097,57.92631],[24.39197,57.93185],[24.3916,57.93528],[24.39199,57.93958],[24.39119,57.94562],[24.39134,57.94839],[24.39168,57.94946],[24.39494,57.95292],[24.39819,57.95504],[24.40403,57.96082],[24.40788,57.96713],[24.40879,57.96968],[24.41075,57.97233],[24.41297,57.97616],[24.41501,57.97881],[24.41732,57.98283],[24.41827,57.98388],[24.42005,57.9854],[24.42231,57.98686],[24.43297,57.99833],[24.43651,58.00101],[24.44142,58.00413],[24.4446,58.00586],[24.44599,58.00709],[24.4493,58.01163],[24.45119,58.01691],[24.45369,58.0195],[24.45477,58.02291],[24.45818,58.02724],[24.46012,58.03225],[24.46165,58.03518],[24.4647,58.03869],[24.47337,58.04549],[24.47484,58.04705],[24.47747,58.05114],[24.4787,58.05521],[24.48027,58.05833],[24.48207,58.06081],[24.48644,58.06417],[24.49223,58.07254],[24.49615,58.07685],[24.51366,58.07496],[24.51506,58.07519],[24.52033,58.07691],[24.52499,58.07772],[24.52285,58.0817],[24.52429,58.08569],[24.53135,58.08507],[24.53161,58.08516],[24.53311,58.08814],[24.53438,58.08997],[24.54781,58.09846]]}},{"type":"Feature","properties":{"name":"sigulda-riga-2025-03-23-1","country":"LV","lengthKm":50.7},"geometry":{"type":"LineString","coordinates":[[24.8508,57.17849],[24.85145,57.17905],[24.85139,57.17983],[24.85102,57.18014],[24.8517,57.18068],[24.85488,57.18131],[24.85587,57.18179],[24.86183,57.182],[24.8637,57.18271],[24.86442,57.18249],[24.86582,57.18248],[24.86693,57.18326],[24.86895,57.18399],[24.86989,57.18471],[24.87083,57.18504],[24.87382,57.18536],[24.87577,57.18579],[24.87837,57.18601],[24.88288,57.18786],[24.88447,57.18871],[24.88495,57.1891],[24.88504,57.18998],[24.88538,57.19022],[24.88757,57.19099],[24.89003,57.19138],[24.89094,57.19186],[24.89125,57.19236],[24.89094,57.19325],[24.89016,57.19374],[24.88925,57.19483],[24.88931,57.19519],[24.89068,57.19539],[24.89078,57.19569],[24.88958,57.19764],[24.88904,57.19791],[24.88876,57.19851],[24.88779,57.19923],[24.88566,57.19997],[24.88388,57.20028],[24.88344,57.20076],[24.87712,57.20201],[24.87607,57.20284],[24.86939,57.20537],[24.86833,57.20612],[24.86453,57.2078],[24.86291,57.2081],[24.85992,57.20816],[24.85807,57.20869],[24.85646,57.20981],[24.85734,57.21067],[24.8576,57.21132],[24.85229,57.21198],[24.8482,57.21192],[24.84527,57.2132],[24.83181,57.21373],[24.83006,57.21427],[24.82162,57.21491],[24.81746,57.21599],[24.81635,57.21581],[24.81414,57.21493],[24.81339,57.21506],[24.81244,57.21557],[24.81172,57.21556],[24.80626,57.21355],[24.80297,57.21275],[24.80169,57.21264],[24.79883,57.21304],[24.7935,57.213],[24.79112,57.21237],[24.78956,57.21236],[24.78581,57.21143],[24.78442,57.21138],[24.78261,57.2118],[24.78122,57.21025],[24.77716,57.21045],[24.77027,57.21279],[24.76881,57.21311],[24.76252,57.21358],[24.76306,57.21674],[24.76333,57.22123],[24.76223,57.22294],[24.76246,57.22624],[24.76223,57.22294],[24.76333,57.22123],[24.76306,57.21674],[24.76252,57.21358],[24.76119,57.21407],[24.75626,57.21675],[24.75149,57.21783],[24.74979,57.21937],[24.74813,57.21973],[24.74686,57.2196],[24.74364,57.21789],[24.7427,57.21761],[24.74149,57.2176],[24.74042,57.21785],[24.73353,57.21788],[24.72884,57.21744],[24.72063,57.21726],[24.71737,57.21621],[24.71408,57.21681],[24.70993,57.21815],[24.70942,57.21817],[24.70407,57.21561],[24.70078,57.21481],[24.69851,57.21454],[24.69763,57.21679],[24.69597,57.21632],[24.69084,57.21137],[24.69033,57.20824],[24.69047,57.20707],[24.68952,57.20645],[24.68937,57.20605],[24.6898,57.205],[24.68856,57.20393],[24.68837,57.20348],[24.68641,57.20283],[24.68392,57.20282],[24.68337,57.20266],[24.68233,57.20106],[24.68189,57.19954],[24.67999,57.19824],[24.66965,57.19553],[24.66669,57.19674],[24.66358,57.19737],[24.65562,57.19768],[24.65324,57.19741],[24.65081,57.19688],[24.64926,57.19678],[24.64367,57.19734],[24.63315,57.199],[24.62842,57.19938],[24.62603,57.19913],[24.62014,57.19748],[24.61705,57.19701],[24.61598,57.19701],[24.61178,57.19732],[24.60569,57.2002],[24.60374,57.2003],[24.59737,57.19944],[24.59397,57.20005],[24.59051,57.20384],[24.58842,57.20564],[24.58707,57.20899],[24.58672,57.21162],[24.58909,57.21207],[24.59478,57.21372],[24.59763,57.21518],[24.59772,57.2161],[24.5998,57.21708],[24.60171,57.2185],[24.60862,57.21914],[24.61236,57.21979],[24.61441,57.21987],[24.61501,57.22012],[24.61624,57.22138],[24.61747,57.22224],[24.62005,57.22308],[24.62364,57.22468],[24.62005,57.22308],[24.61747,57.22224],[24.61624,57.22138],[24.61501,57.22012],[24.61441,57.21987],[24.61236,57.21979],[24.6076,57.21903],[24.60229,57.21863],[24.60099,57.21809],[24.59747,57.21905],[24.59625,57.21911],[24.59576,57.21961],[24.5961,57.22081],[24.5969,57.22159],[24.59692,57.22205],[24.59882,57.22308],[24.60044,57.22584],[24.60208,57.22656],[24.60298,57.22746],[24.60346,57.22859],[24.6034,57.22935],[24.60221,57.23096],[24.60021,57.23233],[24.58969,57.23635],[24.58655,57.23707],[24.58492,57.23596],[24.57863,57.23553],[24.57363,57.23491],[24.57232,57.23429],[24.5717,57.23421],[24.57091,57.23432],[24.56758,57.23571],[24.57055,57.23797],[24.57126,57.23895],[24.57279,57.23978],[24.57626,57.24279],[24.57751,57.24662],[24.57929,57.24786],[24.58026,57.24899],[24.58103,57.25083],[24.58233,57.2525],[24.57949,57.25187],[24.5763,57.25144],[24.56976,57.2496],[24.55719,57.25318],[24.55295,57.25247],[24.55081,57.25157],[24.54993,57.24947],[24.54853,57.24861],[24.54435,57.2492],[24.54147,57.24938],[24.53969,57.2479],[24.53652,57.24743],[24.53483,57.24686],[24.53351,57.24923],[24.53282,57.25376],[24.52744,57.25196],[24.52116,57.25061],[24.51647,57.24896],[24.50639,57.25071],[24.50472,57.25079],[24.50122,57.25021],[24.49893,57.2495],[24.48641,57.24273],[24.48427,57.24201],[24.48254,57.24177],[24.47524,57.24171],[24.47341,57.24149],[24.46395,57.23786],[24.46132,57.23717],[24.45417,57.23718],[24.45244,57.23739],[24.44967,57.23808]]}},{"type":"Feature","properties":{"name":"sigulda-riga-2025-03-23-2","country":"LV","lengthKm":12.3},"geometry":{"type":"LineString","coordinates":[[24.41549,57.24892],[24.41021,57.24293],[24.40814,57.23605],[24.40856,57.2341],[24.41039,57.22926],[24.40965,57.22668],[24.41053,57.2255],[24.40992,57.22443],[24.41039,57.22354],[24.41037,57.22246],[24.40989,57.22216],[24.41023,57.22199],[24.40989,57.22216],[24.40958,57.22201],[24.40944,57.22171],[24.40838,57.22113],[24.40861,57.22102],[24.41023,57.22199],[24.40989,57.22216],[24.40943,57.22203],[24.40837,57.22261],[24.4046,57.22375],[24.40411,57.22372],[24.40222,57.22275],[24.40074,57.2224],[24.39968,57.22165],[24.39979,57.22073],[24.39835,57.21965],[24.39767,57.21848],[24.39316,57.21637],[24.39479,57.21268],[24.38778,57.20845],[24.38869,57.209],[24.38868,57.20824],[24.38953,57.20817],[24.39003,57.20786],[24.38988,57.20732],[24.38806,57.20683],[24.38534,57.2067],[24.38299,57.20522],[24.38347,57.20494],[24.38448,57.20212],[24.38554,57.20184],[24.38744,57.20188],[24.3904,57.20217],[24.39134,57.20253],[24.3904,57.20217],[24.38549,57.2018],[24.38619,57.20099],[24.38718,57.20047],[24.38855,57.19926],[24.3847,57.19886],[24.38588,57.19783],[24.38656,57.19604],[24.38575,57.19496],[24.38443,57.19435],[24.38229,57.19212],[24.38033,57.19105],[24.38015,57.19057],[24.38051,57.18999],[24.3811,57.18971],[24.38098,57.18933],[24.3798,57.1891],[24.37715,57.18805],[24.37579,57.18651],[24.37421,57.18561],[24.37203,57.18526],[24.3714,57.18493],[24.36941,57.18587],[24.36396,57.18753],[24.36369,57.18795],[24.36404,57.19035],[24.36379,57.19063],[24.35861,57.191],[24.35428,57.19156],[24.35246,57.19139]]}},{"type":"Feature","properties":{"name":"sigulda-riga-2025-03-23-3","country":"LV","lengthKm":1.3},"geometry":{"type":"LineString","coordinates":[[24.32594,57.17549],[24.32616,57.17544],[24.32249,57.17206],[24.32167,57.17106],[24.32132,57.16982],[24.32022,57.16861],[24.31671,57.1656]]}},{"type":"Feature","properties":{"name":"sigulda-riga-2025-03-23-4","country":"LV","lengthKm":6.7},"geometry":{"type":"LineString","coordinates":[[24.32338,57.16452],[24.32202,57.16399],[24.32046,57.16298],[24.31429,57.15795],[24.31283,57.15703],[24.30727,57.15149],[24.30692,57.15037],[24.30427,57.15174],[24.30692,57.15037],[24.3064,57.14979],[24.30479,57.14841],[24.30216,57.14721],[24.29926,57.14373],[24.29854,57.14349],[24.2984,57.14263],[24.29545,57.14203],[24.29653,57.1416],[24.29728,57.141],[24.29771,57.13971],[24.29889,57.13802],[24.30698,57.13455],[24.30838,57.13342],[24.30925,57.13055],[24.31238,57.12703],[24.31379,57.12585],[24.3179,57.12331],[24.32007,57.12239],[24.32109,57.12225],[24.32333,57.12255],[24.3264,57.12228]]}},{"type":"Feature","properties":{"name":"sigulda-riga-2025-03-23-5","country":"LV","lengthKm":19},"geometry":{"type":"LineString","coordinates":[[24.32409,57.11747],[24.32418,57.11767],[24.32386,57.11772],[24.31887,57.11796],[24.31408,57.11708],[24.30905,57.11521],[24.30653,57.11361],[24.30686,57.11312],[24.30574,57.11321],[24.30686,57.11312],[24.30275,57.11789],[24.29268,57.11572],[24.28732,57.11505],[24.28046,57.11241],[24.27871,57.11038],[24.26935,57.10828],[24.26243,57.10782],[24.26019,57.10409],[24.26023,57.10354],[24.27371,57.08768],[24.28833,57.07973],[24.27122,57.06998],[24.27025,57.06878],[24.27054,57.06788],[24.27004,57.06883],[24.2676,57.06793],[24.26534,57.06674],[24.26372,57.06451],[24.26256,57.06195],[24.26052,57.06062],[24.25738,57.0576],[24.25672,57.0559],[24.25383,57.05225],[24.25222,57.05085],[24.25107,57.0487],[24.2463,57.04376],[24.24625,57.04301],[24.24534,57.04104],[24.24601,57.03856],[24.24787,57.03559],[24.24689,57.03229],[24.24706,57.0282],[24.24745,57.02637],[24.24721,57.02579],[24.2462,57.02496],[24.24498,57.02291],[24.24505,57.0228],[24.24602,57.02374],[24.24505,57.0228],[24.24585,57.02189],[24.24747,57.02123],[24.25114,57.01905],[24.25343,57.01911],[24.25584,57.0187],[24.25824,57.01873],[24.25846,57.01812],[24.25971,57.01669],[24.25968,57.01608],[24.25913,57.01516],[24.25966,57.01366],[24.25953,57.01185],[24.26042,57.01093],[24.2604,57.00985],[24.26145,57.00851],[24.26127,57.00685],[24.26044,57.00539],[24.26052,57.00465],[24.25989,57.00364]]}}]}