{"type":"FeatureCollection","features":[{"type":"Feature","properties":{"name":"TET_AND_20190604","country":"AD","lengthKm":35},"geometry":{"type":"LineString","coordinates":[[1.47286,42.43532],[1.47356,42.43608],[1.47602,42.43695],[1.47796,42.4411],[1.48193,42.44506],[1.48253,42.44837],[1.48621,42.45093],[1.48702,42.45249],[1.48669,42.4566],[1.49059,42.46185],[1.48971,42.46471],[1.49108,42.4664],[1.49207,42.46698],[1.49161,42.46783],[1.49213,42.47011],[1.49068,42.47402],[1.49076,42.47722],[1.48942,42.47977],[1.48963,42.48139],[1.4911,42.48415],[1.49334,42.48527],[1.49467,42.48642],[1.49481,42.48787],[1.4963,42.4895],[1.49646,42.49106],[1.50108,42.49398],[1.50348,42.49503],[1.50535,42.49523],[1.51043,42.49791],[1.51373,42.50213],[1.51656,42.50373],[1.51915,42.50355],[1.52161,42.50449],[1.52805,42.50522],[1.53397,42.50644],[1.53421,42.50691],[1.53394,42.50982],[1.52397,42.51905],[1.52347,42.52107],[1.52214,42.52223],[1.52071,42.52461],[1.52018,42.52772],[1.52082,42.52923],[1.52049,42.52973],[1.52074,42.53068],[1.52008,42.53078],[1.51951,42.53175],[1.51984,42.5327],[1.51942,42.53369],[1.52124,42.53572],[1.51958,42.53845],[1.51953,42.54088],[1.51752,42.54209],[1.51682,42.54347],[1.514,42.5461],[1.51399,42.54746],[1.51171,42.54995],[1.50706,42.5537],[1.50648,42.55538],[1.5049,42.55735],[1.50461,42.5589],[1.50185,42.56146],[1.4998,42.56179],[1.49631,42.56135],[1.49404,42.55937],[1.49322,42.55754],[1.4899,42.55378],[1.48788,42.55344],[1.48688,42.55273],[1.48791,42.55032],[1.48728,42.54847],[1.48625,42.54777],[1.48449,42.54828],[1.48557,42.54717],[1.48221,42.54476],[1.48612,42.54502],[1.48589,42.54458],[1.48266,42.54349],[1.48146,42.54231],[1.48216,42.54232],[1.48387,42.54321],[1.48316,42.54235],[1.48099,42.54109],[1.47924,42.54252],[1.47608,42.54354],[1.4758,42.54454],[1.4746,42.54491],[1.47278,42.54341],[1.47262,42.54294],[1.4759,42.54277],[1.47883,42.5414],[1.47563,42.54211],[1.47436,42.54195],[1.47273,42.54108],[1.47471,42.54151],[1.47599,42.54126],[1.47755,42.54035],[1.47871,42.53812],[1.48038,42.5372],[1.48242,42.53719],[1.48044,42.53673],[1.47737,42.53714],[1.47616,42.5391],[1.47498,42.53943],[1.47174,42.53538],[1.47006,42.53439],[1.46672,42.53356],[1.46608,42.53359],[1.46416,42.53493],[1.46486,42.53637],[1.46455,42.53687],[1.46063,42.53629],[1.45895,42.53723],[1.458,42.53876],[1.45802,42.54079],[1.45574,42.54317],[1.45323,42.54488],[1.45274,42.54593],[1.45258,42.54852],[1.45416,42.55207],[1.45348,42.55291],[1.45174,42.55369],[1.44792,42.55311],[1.44687,42.55331],[1.44694,42.55467],[1.44783,42.55668],[1.44609,42.55856],[1.44605,42.56007],[1.44085,42.56008],[1.43964,42.55889],[1.43896,42.55898],[1.43747,42.55818],[1.43621,42.55838],[1.43366,42.5577],[1.43259,42.55629],[1.4323,42.55465],[1.43176,42.55437],[1.42836,42.55477],[1.42522,42.55385],[1.42448,42.55311],[1.42396,42.54971],[1.42149,42.54817],[1.41998,42.54652],[1.41884,42.54656]]}}]}