{"type":"FeatureCollection","features":[{"type":"Feature","properties":{"name":"TET_BiH-01_20230417","country":"BA","lengthKm":213.1},"geometry":{"type":"LineString","coordinates":[[16.26368,44.17711],[16.26398,44.17729],[16.263,44.17973],[16.2636,44.18068],[16.26372,44.18301],[16.26171,44.18391],[16.26184,44.18447],[16.26252,44.1848],[16.26388,44.18445],[16.26428,44.18465],[16.26378,44.1855],[16.26398,44.18636],[16.26245,44.18898],[16.26348,44.188],[16.26539,44.18724],[16.26368,44.18825],[16.26348,44.1902],[16.26224,44.19191],[16.26366,44.19109],[16.26529,44.18884],[16.26884,44.18825],[16.26879,44.18702],[16.26983,44.18467],[16.26988,44.18246],[16.27192,44.18232],[16.27315,44.17901],[16.27288,44.17791],[16.27368,44.17712],[16.27667,44.17677],[16.2769,44.17555],[16.27862,44.17488],[16.28422,44.17509],[16.2848,44.17449],[16.28729,44.17561],[16.28825,44.17565],[16.29033,44.17724],[16.29238,44.17735],[16.29394,44.17822],[16.29502,44.18032],[16.29607,44.18105],[16.29563,44.18291],[16.29743,44.1843],[16.29771,44.18654],[16.29928,44.18964],[16.29948,44.19047],[16.29878,44.1919],[16.29802,44.19238],[16.29945,44.19297],[16.29989,44.19762],[16.29957,44.19871],[16.30085,44.19924],[16.30186,44.19661],[16.30623,44.19172],[16.30923,44.19224],[16.31516,44.19158],[16.32062,44.19042],[16.32185,44.19004],[16.32365,44.1883],[16.32646,44.18738],[16.328,44.18631],[16.32884,44.18673],[16.32898,44.18805],[16.33105,44.18875],[16.33317,44.18855],[16.33614,44.18983],[16.33714,44.18983],[16.34035,44.18865],[16.34094,44.18831],[16.34123,44.18601],[16.34067,44.18442],[16.33903,44.18243],[16.33916,44.18173],[16.34546,44.18025],[16.34711,44.17878],[16.35126,44.17693],[16.35244,44.17589],[16.35491,44.17641],[16.35823,44.17626],[16.36054,44.17731],[16.36198,44.17948],[16.3635,44.18023],[16.36488,44.18168],[16.36797,44.18195],[16.3699,44.17856],[16.36973,44.17816],[16.37171,44.17614],[16.37185,44.17416],[16.37652,44.17387],[16.38207,44.1756],[16.38487,44.17802],[16.39112,44.17748],[16.40118,44.17571],[16.40327,44.17519],[16.40672,44.17365],[16.40845,44.17352],[16.40913,44.17434],[16.41144,44.17521],[16.41317,44.1748],[16.41372,44.17406],[16.4143,44.17403],[16.41589,44.17512],[16.41811,44.17544],[16.42589,44.17865],[16.42796,44.17834],[16.43052,44.17912],[16.43489,44.1815],[16.4361,44.18291],[16.43577,44.18487],[16.43964,44.18795],[16.43886,44.18931],[16.44198,44.19339],[16.43884,44.20429],[16.44036,44.20796],[16.44369,44.21175],[16.44339,44.21362],[16.44177,44.21547],[16.44405,44.21497],[16.44599,44.21418],[16.44649,44.21359],[16.44664,44.21383],[16.44476,44.21608],[16.44431,44.21746],[16.44148,44.21886],[16.43791,44.21997],[16.44407,44.21936],[16.44672,44.21989],[16.44733,44.21922],[16.44696,44.21736],[16.4473,44.2172],[16.44821,44.21845],[16.45262,44.22046],[16.4532,44.22216],[16.45572,44.22511],[16.45912,44.22447],[16.46044,44.2247],[16.46364,44.22298],[16.46782,44.22337],[16.46933,44.22311],[16.47193,44.22247],[16.47747,44.2203],[16.47959,44.2199],[16.4895,44.21947],[16.49324,44.22009],[16.50566,44.21801],[16.52344,44.21243],[16.52776,44.21028],[16.53022,44.20967],[16.53368,44.20676],[16.53405,44.20561],[16.53373,44.20247],[16.53465,44.19956],[16.53628,44.19823],[16.53687,44.19591],[16.53912,44.19471],[16.53994,44.1934],[16.54042,44.19087],[16.54119,44.18995],[16.54549,44.18741],[16.54696,44.18591],[16.54832,44.1832],[16.55208,44.18001],[16.55798,44.17641],[16.55896,44.17523],[16.55894,44.17232],[16.55688,44.1721],[16.55537,44.17114],[16.55342,44.1711],[16.55367,44.16906],[16.55596,44.16703],[16.55572,44.16555],[16.55596,44.16417],[16.55641,44.16398],[16.55734,44.16432],[16.55789,44.1652],[16.55904,44.1643],[16.56186,44.16514],[16.56506,44.16382],[16.56609,44.16388],[16.56827,44.1649],[16.5693,44.16439],[16.56893,44.1632],[16.56956,44.1628],[16.57109,44.15995],[16.57267,44.16078],[16.57451,44.1609],[16.57546,44.16217],[16.5778,44.16062],[16.57881,44.16082],[16.57939,44.1629],[16.57928,44.16506],[16.58107,44.16556],[16.58148,44.16687],[16.57974,44.16711],[16.5794,44.16778],[16.57993,44.16866],[16.57982,44.17019],[16.57571,44.17348],[16.57438,44.17405],[16.57335,44.17601],[16.57473,44.17421],[16.5825,44.16958],[16.58411,44.1703],[16.5855,44.16953],[16.58636,44.16957],[16.58772,44.17009],[16.58955,44.17167],[16.58926,44.17153],[16.59255,44.17274],[16.5956,44.17294],[16.59835,44.17188],[16.59975,44.16962],[16.60062,44.16916],[16.60192,44.16914],[16.60304,44.16835],[16.60302,44.16761],[16.60187,44.16731],[16.60299,44.16759],[16.60316,44.16827],[16.60202,44.1691],[16.6006,44.16918],[16.59971,44.1697],[16.59825,44.17202],[16.59585,44.17292],[16.59246,44.17275],[16.5891,44.17147],[16.58755,44.16997],[16.58627,44.16959],[16.58378,44.17024],[16.58252,44.16954],[16.58187,44.17023],[16.57479,44.17422],[16.57346,44.17599],[16.57446,44.17397],[16.57563,44.17351],[16.57982,44.17015],[16.57994,44.1688],[16.5794,44.16779],[16.57991,44.16703],[16.58144,44.16687],[16.58097,44.16559],[16.57929,44.16505],[16.57935,44.16279],[16.57872,44.16088],[16.57774,44.1606],[16.5755,44.1622],[16.57443,44.16078],[16.57273,44.16073],[16.5713,44.15989],[16.57041,44.16171],[16.56967,44.1622],[16.56982,44.16289],[16.56905,44.16334],[16.56932,44.16433],[16.56865,44.16492],[16.5679,44.16504],[16.56658,44.16413],[16.5649,44.16385],[16.56203,44.1652],[16.55899,44.16433],[16.55806,44.16526],[16.55726,44.16498],[16.55737,44.1644],[16.55615,44.16405],[16.55586,44.16731],[16.55366,44.16915],[16.55352,44.17099],[16.55417,44.17132],[16.55558,44.17115],[16.55694,44.17204],[16.5588,44.17225],[16.55925,44.17404],[16.55895,44.17524],[16.55791,44.1765],[16.55211,44.18],[16.54805,44.18356],[16.54631,44.18674],[16.54323,44.18902],[16.54159,44.18966],[16.54062,44.19077],[16.54018,44.19298],[16.53922,44.19472],[16.53688,44.19596],[16.53681,44.19747],[16.53469,44.19956],[16.53374,44.20228],[16.53429,44.20673],[16.53384,44.20939],[16.54004,44.20906],[16.54088,44.2076],[16.54232,44.2064],[16.54479,44.20542],[16.54747,44.20618],[16.54827,44.20731],[16.55213,44.20819],[16.5533,44.20812],[16.55745,44.20674],[16.55863,44.20552],[16.56095,44.20511],[16.56368,44.20546],[16.56524,44.20419],[16.56741,44.2043],[16.56883,44.20301],[16.57078,44.20211],[16.5727,44.19972],[16.57631,44.19846],[16.57672,44.19772],[16.57785,44.19719],[16.5809,44.19454],[16.58215,44.19413],[16.58453,44.19232],[16.58836,44.19063],[16.58929,44.19107],[16.59093,44.19119],[16.59381,44.19063],[16.59465,44.19164],[16.59594,44.19154],[16.59622,44.1918],[16.59632,44.1937],[16.6007,44.19332],[16.60221,44.19503],[16.60353,44.19581],[16.60408,44.1972],[16.60527,44.19815],[16.60582,44.19983],[16.60728,44.20024],[16.60957,44.1996],[16.61078,44.19995],[16.6129,44.19889],[16.61308,44.19749],[16.61212,44.19604],[16.60979,44.1946],[16.61033,44.19404],[16.6102,44.19319],[16.60955,44.19267],[16.60991,44.1915],[16.6108,44.19106],[16.60955,44.1895],[16.6112,44.18703],[16.61435,44.18888],[16.61751,44.1898],[16.62087,44.19304],[16.62291,44.19319],[16.62329,44.19392],[16.62401,44.19396],[16.62613,44.19374],[16.62781,44.19216],[16.62746,44.1909],[16.62827,44.19027],[16.63093,44.19144],[16.63236,44.19113],[16.63289,44.18999],[16.63518,44.18995],[16.63542,44.19041],[16.63739,44.19086],[16.63872,44.19167],[16.64256,44.19171],[16.64525,44.19054],[16.64628,44.19075],[16.64719,44.19009],[16.65048,44.18945],[16.65242,44.18871],[16.6533,44.18762],[16.65502,44.18731],[16.65583,44.18678],[16.66321,44.18788],[16.66835,44.18812],[16.66938,44.1874],[16.67005,44.18579],[16.66991,44.18402],[16.66899,44.18343],[16.66871,44.18257],[16.66911,44.18196],[16.6687,44.18067],[16.66758,44.18012],[16.66646,44.18067],[16.66328,44.17978],[16.66191,44.1798],[16.66101,44.17634],[16.66146,44.17569],[16.66296,44.17607],[16.66657,44.17573],[16.66903,44.17456],[16.66845,44.1698],[16.67096,44.16465],[16.67043,44.16379],[16.66939,44.1633],[16.66974,44.16243],[16.66923,44.16131],[16.67067,44.1587],[16.67129,44.15591],[16.67304,44.15561],[16.67337,44.15619],[16.6725,44.1582],[16.67311,44.15946],[16.67414,44.15935],[16.67545,44.15864],[16.67607,44.15753],[16.68043,44.15383],[16.68157,44.14897],[16.68516,44.1463],[16.68685,44.1455],[16.68749,44.14404],[16.68782,44.14443],[16.68822,44.14387],[16.68909,44.14399],[16.69053,44.14264],[16.69336,44.14193],[16.69588,44.14011],[16.69782,44.13962],[16.7007,44.14014],[16.70336,44.13898],[16.70437,44.1373],[16.70426,44.13658],[16.70363,44.13623],[16.70622,44.13337],[16.70554,44.13255],[16.70727,44.13223],[16.70961,44.12979],[16.71021,44.12772],[16.7108,44.1276],[16.71257,44.12543],[16.71723,44.12346],[16.71903,44.1221],[16.72098,44.11846],[16.72237,44.11442],[16.72112,44.11086],[16.72377,44.10381],[16.72361,44.10312],[16.72849,44.09704],[16.73075,44.09512],[16.73632,44.08897],[16.73681,44.08743],[16.73637,44.08533],[16.73661,44.08342],[16.73845,44.08358],[16.74347,44.08145],[16.74485,44.08047],[16.74722,44.0777],[16.74799,44.07766],[16.75265,44.0756],[16.75515,44.07565],[16.75619,44.07521],[16.75714,44.07376],[16.75653,44.07308],[16.75876,44.07199],[16.76132,44.07172],[16.7625,44.06866],[16.76368,44.06718],[16.76549,44.06613],[16.76677,44.06609],[16.76904,44.06721],[16.77065,44.06693],[16.77067,44.06751],[16.77008,44.06796],[16.77144,44.06793],[16.772,44.06879],[16.7715,44.0694],[16.77068,44.06961],[16.77091,44.06989],[16.77288,44.06919],[16.77338,44.07001],[16.77553,44.07003],[16.77623,44.07077],[16.77884,44.07037],[16.78077,44.07049],[16.78249,44.07098],[16.78334,44.07199],[16.78582,44.07294],[16.79361,44.07173],[16.79907,44.07144],[16.80434,44.07005],[16.81727,44.07337],[16.81992,44.07272],[16.82057,44.07176],[16.82995,44.07628],[16.83764,44.07555],[16.8438,44.07648],[16.8522,44.0798],[16.86237,44.08698],[16.86812,44.09037],[16.86989,44.09037],[16.8817,44.09621],[16.89143,44.09983],[16.89311,44.10163],[16.89022,44.10601],[16.89606,44.105],[16.89877,44.10183],[16.90259,44.10003],[16.90898,44.10005],[16.91161,44.10182],[16.91334,44.10368],[16.9142,44.10644],[16.91718,44.10782],[16.91995,44.11047],[16.92026,44.11219],[16.92166,44.11447],[16.92774,44.1171],[16.92938,44.12096],[16.93115,44.12343],[16.93683,44.12462],[16.94251,44.12373],[16.94861,44.1242],[16.9498,44.12473],[16.95106,44.12658],[16.95507,44.1292],[16.95514,44.13447],[16.95645,44.13689],[16.9589,44.13879],[16.95885,44.14046],[16.95634,44.1414],[16.95639,44.14563],[16.95415,44.14788],[16.95186,44.14872],[16.94877,44.15191],[16.94725,44.15457],[16.94688,44.15695],[16.94743,44.15766],[16.95771,44.15704],[16.96161,44.15579],[16.96427,44.15401],[16.96823,44.1552],[16.97053,44.154],[16.97338,44.15443],[16.97689,44.15393],[16.97812,44.15521],[16.97714,44.15588],[16.97696,44.15927],[16.97878,44.16022],[16.98517,44.15944],[16.98653,44.15991],[16.98765,44.15893],[16.9902,44.15811],[16.98884,44.15523],[16.99035,44.15367],[16.99315,44.15244],[16.99352,44.15171],[16.99588,44.15064],[16.9978,44.14914],[17.00563,44.14732],[17.01201,44.14079],[17.01564,44.1403],[17.01773,44.14056],[17.01872,44.1411],[17.02104,44.14112],[17.02223,44.14019],[17.02464,44.1397],[17.02601,44.13872],[17.02601,44.13759],[17.02529,44.13671],[17.02722,44.13708],[17.02881,44.1368],[17.03051,44.13533],[17.03161,44.13326],[17.0339,44.13119],[17.03405,44.12957],[17.03623,44.1288],[17.03717,44.12933],[17.03772,44.13043],[17.03929,44.13036],[17.04001,44.13],[17.04064,44.12826],[17.03975,44.12731],[17.04025,44.1264],[17.04144,44.12633],[17.04372,44.12794],[17.04925,44.12623],[17.04987,44.12492],[17.0478,44.12369],[17.04645,44.12198],[17.04692,44.12068],[17.04918,44.11833],[17.04925,44.11718],[17.04876,44.11658],[17.04729,44.11801],[17.04491,44.11811],[17.04368,44.11858],[17.04203,44.1205],[17.04365,44.12077],[17.04441,44.12053],[17.04489,44.1201],[17.04406,44.11962],[17.04489,44.1201],[17.04441,44.12053],[17.04365,44.12077],[17.04203,44.1205],[17.0443,44.11823],[17.04668,44.11823],[17.04837,44.11676],[17.04906,44.11672],[17.04918,44.11833],[17.04692,44.12068],[17.04645,44.12198],[17.0478,44.12369],[17.04987,44.12492],[17.04925,44.12623],[17.04372,44.12794],[17.04144,44.12633],[17.04025,44.1264],[17.03975,44.12731],[17.04064,44.12826],[17.03987,44.13018],[17.03772,44.13043],[17.03717,44.12933],[17.03623,44.1288],[17.03405,44.12957],[17.0339,44.13119],[17.03161,44.13326],[17.03051,44.13533],[17.02881,44.1368],[17.02722,44.13708],[17.02529,44.13671],[17.02615,44.13851],[17.02464,44.1397],[17.02223,44.14019],[17.02104,44.14112],[17.02023,44.14121],[17.01564,44.1403],[17.01439,44.14067],[17.01238,44.14061],[17.01092,44.14223],[17.01086,44.14316],[17.01142,44.14384],[17.01035,44.14617],[17.01059,44.14811],[17.01166,44.14897],[17.01142,44.15244],[17.01061,44.15373],[17.00777,44.15543],[17.00802,44.15651],[17.01438,44.15625],[17.01669,44.15699],[17.01802,44.15633],[17.01966,44.15642],[17.02627,44.15433],[17.02635,44.15214],[17.02774,44.15132],[17.02749,44.15081],[17.02624,44.15056],[17.02634,44.15024],[17.02825,44.14895],[17.02879,44.14791],[17.03061,44.14702],[17.03006,44.15199],[17.03171,44.15313],[17.0338,44.15327],[17.03409,44.15184],[17.0352,44.15227],[17.03471,44.15492],[17.0337,44.15539],[17.03414,44.15697],[17.0329,44.15742],[17.03189,44.15892],[17.02895,44.16058],[17.02888,44.16193],[17.02585,44.16235],[17.02239,44.16605],[17.01999,44.16715],[17.01953,44.16844],[17.01739,44.16981],[17.01829,44.17469],[17.01741,44.17868],[17.0182,44.17895],[17.01948,44.17843],[17.01938,44.17748],[17.02039,44.1763],[17.02009,44.17504],[17.02102,44.17279],[17.0233,44.17175],[17.02365,44.17056],[17.02429,44.17061],[17.02544,44.17147],[17.0264,44.17096],[17.02752,44.17134],[17.02842,44.17098],[17.02925,44.17166],[17.03108,44.17165],[17.03129,44.17074],[17.03263,44.16957],[17.03249,44.16882],[17.03418,44.16803],[17.03424,44.16649],[17.03355,44.16596],[17.03488,44.16452],[17.03533,44.16196],[17.03752,44.16034],[17.04016,44.15997],[17.04087,44.15929],[17.04471,44.15991],[17.04621,44.15912],[17.04947,44.16104],[17.0509,44.16095],[17.05241,44.16162],[17.05252,44.16236],[17.05381,44.16293],[17.05348,44.16438],[17.05522,44.16653],[17.05497,44.16714],[17.05615,44.16683],[17.05686,44.16774],[17.05793,44.16776],[17.06189,44.16916],[17.06363,44.16907],[17.06424,44.16833],[17.06526,44.17003],[17.06704,44.17135],[17.06881,44.17137],[17.07286,44.17255],[17.0737,44.1735],[17.0736,44.17423],[17.0748,44.17483],[17.07432,44.17244],[17.07524,44.17033],[17.07441,44.16994],[17.07395,44.16884],[17.07308,44.16906],[17.07273,44.1685],[17.07154,44.1684],[17.07136,44.16783],[17.07223,44.16654],[17.07171,44.16621],[17.07141,44.16504],[17.07043,44.165],[17.06993,44.16399],[17.06918,44.16359],[17.0693,44.16234],[17.06789,44.16192],[17.06829,44.16152],[17.06998,44.1615],[17.07075,44.16042],[17.07057,44.15999],[17.06986,44.15988],[17.06943,44.15793],[17.0709,44.1572],[17.0717,44.15572],[17.07111,44.15509],[17.07094,44.15342],[17.07039,44.15302],[17.0703,44.15114],[17.06774,44.14924],[17.06905,44.14858],[17.06937,44.14704],[17.06866,44.14671],[17.06849,44.14551],[17.06604,44.14471],[17.06617,44.1437],[17.06671,44.14331],[17.06653,44.14232],[17.0649,44.14204],[17.06519,44.14162],[17.0665,44.1416],[17.06845,44.14024],[17.06987,44.14075],[17.07071,44.14154],[17.0695,44.14009],[17.07031,44.13931],[17.06907,44.13866],[17.06833,44.13722],[17.06933,44.13475],[17.07009,44.13411],[17.07116,44.13464],[17.07281,44.13265],[17.07275,44.13163],[17.07352,44.13094],[17.07678,44.13077],[17.07851,44.12949],[17.07856,44.12863],[17.08141,44.12767],[17.08232,44.12646],[17.07999,44.12466],[17.0791,44.12467],[17.07933,44.1231],[17.07717,44.12029],[17.07821,44.12067],[17.07844,44.12129],[17.07925,44.12168],[17.079,44.12089],[17.07979,44.12006],[17.0804,44.12007],[17.07918,44.11906],[17.07896,44.11787],[17.08069,44.11724],[17.08071,44.1168],[17.08015,44.11639],[17.07905,44.1165],[17.07944,44.1161],[17.07895,44.11457],[17.07992,44.11389],[17.08096,44.11403],[17.083,44.1132],[17.08631,44.10986],[17.08896,44.10892],[17.08742,44.10674],[17.08795,44.10628],[17.08743,44.10593],[17.08713,44.10423],[17.08722,44.10078],[17.08843,44.09945],[17.09011,44.09907],[17.09,44.09818],[17.08833,44.09678],[17.08831,44.09554],[17.08738,44.09351],[17.08798,44.09321],[17.08986,44.09335],[17.09035,44.09295],[17.08971,44.09104],[17.09041,44.09045],[17.09394,44.09039],[17.09536,44.08931],[17.09673,44.08884],[17.09796,44.08757],[17.09756,44.0869],[17.09781,44.08525],[17.09723,44.0842],[17.09624,44.08417],[17.09193,44.0824],[17.09341,44.08043],[17.09257,44.07912],[17.09281,44.07834],[17.0917,44.07861],[17.0905,44.07811],[17.09061,44.07751],[17.09286,44.0766],[17.09312,44.0736],[17.09197,44.07167],[17.09467,44.06928],[17.09441,44.06761],[17.09597,44.06684],[17.09488,44.06545],[17.09634,44.06503],[17.09802,44.06228],[17.10126,44.05886],[17.1013,44.05743],[17.09989,44.05659],[17.09982,44.05561],[17.098,44.05524],[17.09798,44.054],[17.09656,44.05382],[17.09639,44.0532],[17.09797,44.05162],[17.1007,44.04749],[17.10222,44.04633],[17.10651,44.04439],[17.10815,44.04323],[17.10868,44.04217],[17.1098,44.03723],[17.10921,44.03556],[17.10979,44.035],[17.10878,44.03443],[17.10828,44.03359],[17.10598,44.03309],[17.10564,44.03148],[17.10666,44.03059],[17.10674,44.0297],[17.10827,44.02742],[17.111,44.02611],[17.11117,44.02527],[17.11028,44.02349],[17.11105,44.02033],[17.11245,44.01905],[17.11232,44.0184],[17.11408,44.01683],[17.11382,44.01581],[17.11479,44.01507],[17.115,44.01388],[17.11603,44.01364],[17.11682,44.01228],[17.12032,44.01121],[17.12064,44.01048],[17.1254,44.00702],[17.12886,44.00681],[17.13173,44.00735],[17.13341,44.00843],[17.13361,44.00902],[17.13472,44.00921],[17.13495,44.00976],[17.14083,44.01132],[17.14314,44.01254],[17.14414,44.0137],[17.14432,44.01485],[17.14728,44.01742],[17.1506,44.01905],[17.1526,44.02059],[17.15625,44.02098],[17.15798,44.02256],[17.16777,44.02296],[17.16926,44.02269],[17.17438,44.02061],[17.17742,44.01812],[17.18244,44.01569],[17.18353,44.0131],[17.18875,44.0093],[17.19528,44.00665],[17.19801,44.00672],[17.20557,44.00206],[17.21344,44.00221],[17.21761,44.00103],[17.2217,43.99895],[17.22273,43.99889],[17.22758,44.00208],[17.22869,44.0033],[17.23339,44.01141],[17.23245,44.01439],[17.23242,44.01747],[17.23099,44.01999],[17.23457,44.02037],[17.23899,44.01989],[17.24188,44.02056],[17.24789,44.01821],[17.24579,44.01618],[17.249,44.01725],[17.24745,44.0133],[17.24912,44.01152],[17.24915,44.01037],[17.2511,44.01011],[17.2499,44.0073],[17.25296,44.00756],[17.25748,44.01],[17.26149,44.00944],[17.26334,44.0078],[17.26381,44.00572],[17.26506,44.00526],[17.26529,44.00392],[17.26778,44.00322],[17.2675,44.00073],[17.26933,44.00035],[17.27128,44.00087],[17.27852,44.00124],[17.28161,44.0027],[17.28289,44.00489],[17.28377,44.00792],[17.28363,44.00904],[17.28478,44.01195],[17.28712,44.01427],[17.28726,44.01508]]}},{"type":"Feature","properties":{"name":"TET_BiH-02_20230417","country":"BA","lengthKm":200.1},"geometry":{"type":"LineString","coordinates":[[17.28741,44.01503],[17.2899,44.01239],[17.28995,44.01074],[17.292,44.01013],[17.29141,44.00871],[17.29162,44.00801],[17.29272,44.00741],[17.29397,44.00741],[17.29444,44.00671],[17.29596,44.00607],[17.29529,44.00562],[17.29328,44.00533],[17.29314,44.00387],[17.29376,44.00336],[17.29752,44.00216],[17.29616,44.00072],[17.29582,44.00079],[17.297,44.00204],[17.2949,44.00179],[17.29324,44.00217],[17.29191,44.0018],[17.29325,43.99752],[17.29325,43.99532],[17.29442,43.99308],[17.29169,43.99102],[17.29102,43.98971],[17.2888,43.98777],[17.29175,43.98608],[17.29452,43.9838],[17.29828,43.98017],[17.29971,43.97714],[17.30323,43.97481],[17.30588,43.97066],[17.30598,43.96963],[17.30724,43.96838],[17.30762,43.96653],[17.31589,43.96739],[17.32231,43.9653],[17.32133,43.95894],[17.32145,43.95802],[17.32302,43.9555],[17.32516,43.95408],[17.33131,43.95296],[17.33345,43.95299],[17.33433,43.95201],[17.33397,43.94917],[17.33588,43.94554],[17.33233,43.94409],[17.32801,43.94137],[17.32901,43.93997],[17.32789,43.93884],[17.32532,43.93791],[17.3239,43.93892],[17.3211,43.93924],[17.31862,43.94005],[17.31814,43.93981],[17.31898,43.93729],[17.32136,43.93653],[17.32152,43.93479],[17.32069,43.93401],[17.32091,43.93376],[17.32376,43.93357],[17.32194,43.93324],[17.32138,43.93271],[17.32126,43.93011],[17.32033,43.92889],[17.3208,43.9276],[17.32054,43.9268],[17.31851,43.92508],[17.31652,43.92416],[17.31514,43.92226],[17.32494,43.9178],[17.32803,43.91807],[17.32897,43.91746],[17.33477,43.91622],[17.3404,43.91656],[17.34206,43.91715],[17.34786,43.91527],[17.34983,43.91266],[17.3527,43.91266],[17.35516,43.91332],[17.35712,43.9134],[17.36094,43.91236],[17.37218,43.90793],[17.37327,43.90654],[17.37679,43.90506],[17.37788,43.90387],[17.3805,43.90284],[17.38387,43.89924],[17.38542,43.89847],[17.38384,43.8977],[17.38313,43.8935],[17.38168,43.89178],[17.38186,43.89084],[17.38291,43.89008],[17.38431,43.88963],[17.38781,43.88934],[17.40083,43.89052],[17.40368,43.88893],[17.40352,43.88753],[17.40436,43.88608],[17.40827,43.88263],[17.4069,43.88047],[17.40226,43.87638],[17.40123,43.87464],[17.40077,43.8719],[17.40182,43.86896],[17.40176,43.86843],[17.40025,43.86744],[17.40044,43.86668],[17.40362,43.86528],[17.40752,43.86251],[17.40779,43.86118],[17.40876,43.8603],[17.40795,43.85952],[17.40914,43.85748],[17.40883,43.8558],[17.41043,43.85534],[17.41249,43.85378],[17.41329,43.85448],[17.41513,43.85455],[17.41574,43.85415],[17.41709,43.85411],[17.42036,43.85419],[17.42094,43.85465],[17.42141,43.85398],[17.42379,43.85318],[17.42377,43.85104],[17.42433,43.8505],[17.42478,43.84701],[17.42747,43.84399],[17.42895,43.83933],[17.43011,43.83793],[17.43002,43.83636],[17.43118,43.83531],[17.43066,43.83454],[17.43356,43.83105],[17.43497,43.83114],[17.43644,43.83176],[17.44076,43.83128],[17.44427,43.83206],[17.44717,43.83118],[17.45628,43.83057],[17.46996,43.83372],[17.46857,43.83244],[17.46864,43.83159],[17.46744,43.83046],[17.46849,43.82981],[17.47089,43.82974],[17.47231,43.82904],[17.47381,43.82983],[17.47488,43.82982],[17.47381,43.82983],[17.47231,43.82904],[17.47089,43.82974],[17.46849,43.82981],[17.46744,43.83046],[17.46864,43.83159],[17.46857,43.83244],[17.46996,43.83372],[17.45754,43.83072],[17.45445,43.83054],[17.45259,43.83079],[17.44995,43.83145],[17.44902,43.83267],[17.44543,43.83547],[17.44325,43.83649],[17.44265,43.83739],[17.44376,43.83793],[17.44362,43.83946],[17.44452,43.8395],[17.44669,43.83862],[17.44879,43.83918],[17.44745,43.83993],[17.44951,43.84068],[17.44837,43.84096],[17.44748,43.842],[17.4499,43.84261],[17.44893,43.84305],[17.44949,43.84315],[17.44941,43.8443],[17.44797,43.84681],[17.44879,43.84818],[17.45027,43.84894],[17.45381,43.84954],[17.45424,43.85129],[17.45323,43.85136],[17.45334,43.8516],[17.45452,43.85209],[17.45422,43.85257],[17.45504,43.85257],[17.45462,43.85309],[17.4549,43.85334],[17.45691,43.8543],[17.45643,43.85552],[17.45434,43.8576],[17.45421,43.85938],[17.45248,43.86213],[17.4546,43.86446],[17.45514,43.86785],[17.45405,43.8678],[17.45145,43.86644],[17.45019,43.8664],[17.45114,43.86753],[17.45021,43.86643],[17.45193,43.8666],[17.45405,43.86781],[17.45509,43.86795],[17.45454,43.86975],[17.45462,43.87059],[17.45519,43.87103],[17.45779,43.8715],[17.45779,43.8712],[17.45877,43.87114],[17.45916,43.87188],[17.46022,43.87151],[17.46315,43.87157],[17.46481,43.87201],[17.46591,43.87307],[17.46868,43.87292],[17.46899,43.87208],[17.47082,43.87201],[17.47131,43.8693],[17.47095,43.86862],[17.47273,43.86875],[17.4733,43.86846],[17.47354,43.86944],[17.47699,43.86828],[17.48006,43.86885],[17.48149,43.86877],[17.48226,43.86825],[17.48271,43.86868],[17.48512,43.86809],[17.48666,43.86866],[17.48868,43.86826],[17.48869,43.8676],[17.48691,43.86793],[17.48635,43.86769],[17.48551,43.86708],[17.48552,43.86633],[17.48463,43.86605],[17.48457,43.86555],[17.48373,43.86549],[17.48344,43.86489],[17.48119,43.86548],[17.47997,43.86464],[17.47843,43.8643],[17.47909,43.86374],[17.48135,43.86344],[17.48384,43.85971],[17.4849,43.86033],[17.48599,43.86012],[17.48721,43.86036],[17.48871,43.85918],[17.49023,43.85965],[17.4914,43.85875],[17.49413,43.85805],[17.49593,43.85663],[17.49904,43.85566],[17.50035,43.85451],[17.50085,43.85485],[17.50149,43.85452],[17.50538,43.85474],[17.50789,43.85421],[17.50957,43.85479],[17.5077,43.85246],[17.51125,43.85001],[17.51113,43.84971],[17.5132,43.84807],[17.51286,43.84742],[17.51393,43.84629],[17.51551,43.84575],[17.52007,43.84852],[17.52239,43.84835],[17.52424,43.84712],[17.52776,43.84619],[17.52918,43.84615],[17.52937,43.84538],[17.52889,43.84499],[17.5249,43.84458],[17.5247,43.84412],[17.52624,43.84402],[17.52512,43.84354],[17.52491,43.84309],[17.52611,43.84339],[17.52492,43.84265],[17.52669,43.84298],[17.52914,43.8415],[17.53085,43.84169],[17.53228,43.84082],[17.53357,43.84084],[17.53134,43.84023],[17.53059,43.84064],[17.53109,43.83998],[17.53331,43.83968],[17.53104,43.83935],[17.53031,43.83958],[17.52877,43.83913],[17.52787,43.83941],[17.528,43.83911],[17.52979,43.83876],[17.52694,43.83765],[17.52895,43.83678],[17.52943,43.83593],[17.52725,43.83535],[17.52195,43.83478],[17.52043,43.83184],[17.51867,43.82993],[17.51884,43.82924],[17.51727,43.82812],[17.51671,43.82709],[17.52117,43.82892],[17.52217,43.82883],[17.52259,43.82826],[17.52185,43.82647],[17.5228,43.82486],[17.52592,43.82361],[17.5286,43.82322],[17.52833,43.82148],[17.52968,43.82016],[17.52861,43.82034],[17.52869,43.81885],[17.52781,43.81786],[17.52872,43.81678],[17.52881,43.8115],[17.53092,43.80704],[17.52993,43.80485],[17.52999,43.80259],[17.5275,43.80157],[17.52561,43.80234],[17.52721,43.80161],[17.52796,43.80168],[17.53017,43.80278],[17.52993,43.80484],[17.53091,43.80697],[17.52876,43.81185],[17.5287,43.81682],[17.52782,43.81783],[17.52863,43.81878],[17.52873,43.8204],[17.52974,43.82013],[17.52869,43.82075],[17.52831,43.82166],[17.52874,43.82288],[17.5283,43.82344],[17.52553,43.82369],[17.52281,43.82485],[17.52179,43.82673],[17.52252,43.82788],[17.52218,43.82883],[17.52075,43.82888],[17.51649,43.82725],[17.51602,43.82923],[17.51545,43.82925],[17.51402,43.82831],[17.51257,43.82856],[17.50869,43.83114],[17.50591,43.82882],[17.504,43.82962],[17.50149,43.82997],[17.49884,43.82879],[17.49292,43.82879],[17.49161,43.82812],[17.48963,43.82879],[17.48305,43.82556],[17.48124,43.82408],[17.47762,43.82327],[17.47466,43.8234],[17.47551,43.82054],[17.47521,43.81981],[17.47687,43.81839],[17.47661,43.81812],[17.47424,43.81808],[17.47509,43.81656],[17.47847,43.81458],[17.47699,43.81322],[17.47755,43.81119],[17.4752,43.81076],[17.47607,43.80993],[17.47756,43.80934],[17.48018,43.80892],[17.48207,43.8024],[17.48485,43.79908],[17.48904,43.79782],[17.49052,43.79623],[17.4924,43.79607],[17.49485,43.7946],[17.49551,43.79449],[17.49623,43.79497],[17.49836,43.79424],[17.50039,43.7928],[17.50438,43.79085],[17.505,43.78951],[17.50621,43.79],[17.50667,43.78984],[17.50659,43.78831],[17.50584,43.7877],[17.50336,43.7869],[17.50277,43.78605],[17.50323,43.78496],[17.5027,43.78167],[17.50384,43.78155],[17.50455,43.78089],[17.50532,43.7808],[17.50806,43.78229],[17.50903,43.78356],[17.50998,43.78322],[17.5109,43.781],[17.51059,43.77867],[17.51239,43.77486],[17.5131,43.77115],[17.50915,43.76769],[17.51037,43.76618],[17.51014,43.7648],[17.51054,43.76417],[17.51174,43.76512],[17.51229,43.7649],[17.51152,43.76327],[17.51201,43.76274],[17.51133,43.76075],[17.51277,43.75754],[17.51292,43.75554],[17.51634,43.75251],[17.51712,43.74963],[17.51871,43.74777],[17.51822,43.74557],[17.51604,43.74474],[17.51734,43.74391],[17.51791,43.74466],[17.52177,43.74461],[17.5234,43.74285],[17.52662,43.74074],[17.52675,43.73992],[17.52803,43.73919],[17.52777,43.7377],[17.52712,43.73694],[17.52755,43.73645],[17.52724,43.73524],[17.52629,43.73483],[17.52615,43.73396],[17.52511,43.73385],[17.52244,43.73505],[17.5217,43.73481],[17.52172,43.73413],[17.52074,43.73364],[17.52047,43.73179],[17.52122,43.73089],[17.5197,43.72768],[17.5203,43.72717],[17.52269,43.72806],[17.52515,43.72787],[17.5261,43.72721],[17.52879,43.72681],[17.52936,43.72536],[17.52835,43.72573],[17.52782,43.72474],[17.52554,43.72442],[17.526,43.72334],[17.52558,43.72215],[17.52452,43.72232],[17.52275,43.72096],[17.51951,43.71956],[17.51948,43.71816],[17.5156,43.71605],[17.51454,43.71601],[17.51267,43.71522],[17.51014,43.71337],[17.50828,43.7126],[17.50724,43.71329],[17.50633,43.71272],[17.50536,43.71341],[17.50185,43.71397],[17.50105,43.71471],[17.50003,43.71471],[17.49287,43.70966],[17.49185,43.70698],[17.49348,43.70622],[17.49681,43.70674],[17.49987,43.70539],[17.5033,43.7052],[17.50849,43.70719],[17.5137,43.70815],[17.5223,43.70884],[17.52578,43.70736],[17.52735,43.70459],[17.53015,43.70153],[17.53279,43.69695],[17.53387,43.69633],[17.53754,43.69614],[17.54377,43.6947],[17.54529,43.6931],[17.54539,43.69222],[17.54079,43.68731],[17.54012,43.68353],[17.54113,43.6789],[17.54209,43.67708],[17.54206,43.67522],[17.54407,43.66972],[17.54336,43.66508],[17.5422,43.66308],[17.53456,43.65395],[17.52398,43.64438],[17.50785,43.62508],[17.50333,43.61908],[17.49933,43.6148],[17.49369,43.61327],[17.49107,43.61352],[17.48831,43.61464],[17.48562,43.61686],[17.48364,43.61784],[17.4819,43.61806],[17.47986,43.61699],[17.47405,43.6103],[17.47389,43.60863],[17.47485,43.60563],[17.47715,43.60124],[17.47636,43.59921],[17.47701,43.5973],[17.47541,43.5946],[17.4737,43.59325],[17.47509,43.5907],[17.47857,43.5901],[17.48066,43.59014],[17.48437,43.58903],[17.49453,43.58742],[17.49606,43.58678],[17.49511,43.588],[17.4971,43.58716],[17.49836,43.58611],[17.50511,43.58488],[17.50684,43.58493],[17.51103,43.5839],[17.51269,43.58334],[17.51246,43.5825],[17.51601,43.58206],[17.5177,43.58136],[17.51981,43.58162],[17.52112,43.57942],[17.52362,43.5784],[17.52521,43.57691],[17.52449,43.57605],[17.52,43.57513],[17.51346,43.57701],[17.51247,43.57703],[17.51169,43.5766],[17.50285,43.57632],[17.50143,43.5748],[17.50144,43.57381],[17.49757,43.5733],[17.49702,43.5718],[17.49503,43.57095],[17.49385,43.56955],[17.49399,43.56871],[17.49223,43.56738],[17.49243,43.56383],[17.49435,43.56204],[17.49483,43.56],[17.49593,43.55817],[17.49425,43.55649],[17.4934,43.55644],[17.49381,43.55535],[17.49337,43.5546],[17.49095,43.5548],[17.48837,43.55306],[17.4911,43.5529],[17.49239,43.55222],[17.49433,43.55067],[17.49707,43.54706],[17.49773,43.54711],[17.49807,43.54646],[17.4989,43.54623],[17.49889,43.54543],[17.50004,43.54403],[17.49984,43.54247],[17.50042,43.53994],[17.5034,43.53797],[17.50457,43.53674],[17.50514,43.53528],[17.50745,43.53305],[17.51368,43.52943],[17.52129,43.52661],[17.52442,43.52408],[17.52647,43.52343],[17.52929,43.52079],[17.53512,43.51792],[17.53969,43.51684],[17.54203,43.5171],[17.54719,43.51537],[17.55004,43.5125],[17.55174,43.5118],[17.55164,43.51042],[17.55347,43.50795],[17.55649,43.50633],[17.55722,43.50519],[17.55928,43.50407],[17.56137,43.50186],[17.56455,43.50015],[17.56496,43.49824],[17.56602,43.49679],[17.5683,43.49627],[17.56838,43.49525],[17.56998,43.49436],[17.57106,43.49437],[17.57618,43.49086],[17.5786,43.49031],[17.58059,43.48887],[17.58095,43.48802],[17.58455,43.48454],[17.59284,43.48142],[17.59283,43.48078],[17.59458,43.47937],[17.59814,43.47747],[17.60324,43.47373],[17.60403,43.47508],[17.60848,43.47393],[17.60947,43.47326],[17.61267,43.47247],[17.61624,43.47078],[17.61824,43.47096],[17.61954,43.47062],[17.62562,43.46758],[17.6283,43.46394],[17.63494,43.45751],[17.63603,43.45742],[17.6367,43.45777],[17.64003,43.4559],[17.6416,43.45558],[17.64218,43.45477],[17.64663,43.4536],[17.64998,43.45163],[17.65119,43.45038],[17.65438,43.44898],[17.65714,43.44864],[17.65915,43.448],[17.66186,43.44598],[17.66673,43.44459],[17.67896,43.44283],[17.68201,43.44168],[17.68696,43.44052],[17.69382,43.43588],[17.69676,43.433],[17.70169,43.43178],[17.70354,43.43217],[17.71394,43.42974],[17.71682,43.42874],[17.71957,43.42634],[17.72132,43.42588],[17.72497,43.42556],[17.72968,43.4242],[17.73361,43.4247],[17.73546,43.4212],[17.73794,43.41774],[17.73992,43.4159],[17.74244,43.40923],[17.74517,43.40568],[17.74666,43.40277],[17.75176,43.39727],[17.75363,43.39282],[17.75556,43.39073],[17.75931,43.38457],[17.76132,43.38066],[17.75917,43.38239],[17.75977,43.37928],[17.76121,43.37727],[17.76152,43.37528],[17.76316,43.37215],[17.76532,43.37019],[17.76881,43.36829],[17.77222,43.36294],[17.77447,43.36041],[17.777,43.35925],[17.78172,43.35831],[17.77675,43.35832],[17.77412,43.35888],[17.77266,43.3597],[17.77155,43.35976],[17.77148,43.35834],[17.77192,43.35766],[17.77321,43.35722],[17.77246,43.35704],[17.77225,43.35647],[17.77379,43.35598],[17.77671,43.35292],[17.77971,43.3521],[17.7855,43.34919],[17.78745,43.34742],[17.78623,43.34536],[17.78548,43.34484],[17.78466,43.34241],[17.78592,43.34146],[17.79115,43.33965],[17.79372,43.33762],[17.7963,43.33738],[17.79658,43.33841],[17.79836,43.34011],[17.80033,43.34838],[17.80455,43.34785],[17.81284,43.34851],[17.81246,43.35546],[17.81329,43.35963],[17.81453,43.36134],[17.81875,43.36349],[17.83453,43.36613],[17.83645,43.36672],[17.8396,43.36845],[17.84719,43.37374],[17.86111,43.38675],[17.86209,43.38811],[17.86296,43.38849],[17.87141,43.39638],[17.87201,43.39731],[17.87562,43.4124],[17.87973,43.41535],[17.881,43.41675],[17.88383,43.41778],[17.88577,43.41947],[17.88757,43.42407],[17.88873,43.42506],[17.88977,43.42816],[17.89337,43.43161],[17.89343,43.43306],[17.89589,43.43402],[17.90063,43.43781],[17.90572,43.44018],[17.90927,43.44316],[17.9174,43.44541],[17.9239,43.44648],[17.92905,43.44897],[17.93647,43.45116],[17.93892,43.45166],[17.9413,43.45145],[17.94185,43.4517],[17.9417,43.4522],[17.93957,43.45308],[17.93607,43.45376],[17.93604,43.45401],[17.94592,43.45375],[17.94195,43.45505],[17.94565,43.45481],[17.95121,43.45642],[17.94738,43.45611],[17.95071,43.4571],[17.95183,43.45788],[17.95068,43.45733],[17.94793,43.45719],[17.95038,43.45773],[17.95203,43.45892],[17.95459,43.45957],[17.95588,43.45927],[17.9571,43.45846],[17.95674,43.45757],[17.95762,43.45845],[17.95595,43.46042],[17.95845,43.45872],[17.95855,43.45754],[17.95906,43.45874],[17.95657,43.46148],[17.95937,43.46402],[17.95795,43.46551],[17.96019,43.46433],[17.95982,43.46323],[17.96028,43.46296],[17.9633,43.46352],[17.9648,43.46426],[17.96577,43.46411],[17.96908,43.46495],[17.97191,43.46453],[17.97423,43.46509],[17.97928,43.46442]]}},{"type":"Feature","properties":{"name":"TET_BiH-03_20230417","country":"BA","lengthKm":192.3},"geometry":{"type":"LineString","coordinates":[[17.9807,43.46449],[17.98477,43.46476],[17.98645,43.4636],[17.98957,43.4626],[17.99243,43.4623],[17.99535,43.46265],[17.99739,43.46139],[17.9989,43.45892],[17.99946,43.45576],[17.99791,43.45372],[18.0005,43.45009],[18.00194,43.44512],[18.00174,43.44212],[18.00043,43.43842],[18.00105,43.4376],[18.00049,43.43654],[18.00131,43.43574],[18.00019,43.42981],[17.99693,43.42699],[17.99255,43.42585],[17.99053,43.42383],[17.9866,43.42173],[17.98339,43.41525],[17.98397,43.41135],[17.98185,43.40863],[17.98061,43.40795],[17.98016,43.40696],[17.97943,43.40657],[17.99124,43.40712],[17.99546,43.40801],[17.99913,43.40798],[18.00175,43.40883],[18.00342,43.40299],[18.00677,43.39975],[18.00527,43.39891],[18.00465,43.39624],[18.00503,43.39502],[18.00482,43.39323],[18.00222,43.38922],[18.00105,43.38855],[18.00052,43.38747],[18.00053,43.38525],[17.99935,43.38456],[17.99925,43.38398],[18.0011,43.3821],[18.00136,43.3803],[18.00356,43.37894],[18.00553,43.37607],[18.00602,43.37456],[18.00664,43.3739],[18.01066,43.37215],[18.01165,43.37084],[18.01347,43.36987],[18.01625,43.36706],[18.01637,43.36631],[18.01912,43.3641],[18.01892,43.36335],[18.01991,43.362],[18.02267,43.36135],[18.02465,43.36168],[18.02646,43.36149],[18.02659,43.3609],[18.02846,43.3613],[18.02955,43.36235],[18.03182,43.36192],[18.03297,43.36238],[18.03333,43.36203],[18.03639,43.36157],[18.03675,43.36192],[18.03741,43.36173],[18.03698,43.36119],[18.03823,43.36041],[18.04037,43.35998],[18.04175,43.36019],[18.04228,43.35947],[18.04412,43.3603],[18.04445,43.35982],[18.04682,43.35941],[18.04699,43.35901],[18.04814,43.35863],[18.05504,43.35904],[18.05899,43.35885],[18.06015,43.35774],[18.06159,43.35731],[18.06613,43.35405],[18.06659,43.35292],[18.07107,43.35041],[18.07719,43.34578],[18.07719,43.34376],[18.08015,43.33998],[18.08426,43.33742],[18.08635,43.33747],[18.08863,43.33614],[18.09238,43.33765],[18.09436,43.33801],[18.09545,43.33761],[18.09918,43.33779],[18.10236,43.33554],[18.10357,43.3368],[18.10653,43.33833],[18.10993,43.33842],[18.11936,43.33743],[18.12385,43.33815],[18.12989,43.33815],[18.1346,43.3377],[18.13789,43.33797],[18.14502,43.34075],[18.15928,43.33303],[18.16059,43.33402],[18.16213,43.33357],[18.16421,43.33168],[18.16914,43.33006],[18.17211,43.32737],[18.17397,43.32288],[18.17386,43.32135],[18.17474,43.32117],[18.1743,43.31776],[18.1766,43.31605],[18.17463,43.31416],[18.1811,43.30806],[18.18351,43.30689],[18.18636,43.3059],[18.19415,43.30464],[18.19514,43.30491],[18.19667,43.30437],[18.19865,43.30437],[18.2004,43.30356],[18.2015,43.30168],[18.20358,43.30015],[18.20501,43.29817],[18.20522,43.29692],[18.20698,43.29422],[18.20654,43.29287],[18.20808,43.29171],[18.20862,43.29],[18.20994,43.28964],[18.21117,43.28877],[18.21367,43.29026],[18.22079,43.29051],[18.22521,43.2877],[18.2299,43.28607],[18.23435,43.28622],[18.23425,43.28673],[18.23286,43.28661],[18.23263,43.28699],[18.23361,43.28762],[18.23499,43.28738],[18.23573,43.28778],[18.23691,43.28761],[18.23691,43.28863],[18.23737,43.28897],[18.23912,43.28855],[18.23954,43.28938],[18.2407,43.28998],[18.24121,43.29128],[18.24091,43.29202],[18.24177,43.29208],[18.24247,43.29269],[18.24492,43.29292],[18.24362,43.29194],[18.24401,43.29108],[18.24488,43.2907],[18.2466,43.29077],[18.24861,43.29337],[18.24806,43.29441],[18.24869,43.29523],[18.24803,43.29597],[18.24884,43.29556],[18.25001,43.29562],[18.24995,43.29465],[18.25049,43.29417],[18.25445,43.29349],[18.25732,43.29409],[18.25809,43.29481],[18.25734,43.29585],[18.25959,43.29664],[18.25947,43.29761],[18.26014,43.29809],[18.26077,43.3011],[18.25996,43.30221],[18.26034,43.30328],[18.26012,43.30487],[18.25941,43.30539],[18.25972,43.30662],[18.25864,43.30785],[18.25948,43.30831],[18.25954,43.31075],[18.26041,43.31114],[18.26058,43.31195],[18.26425,43.31327],[18.26456,43.31518],[18.2633,43.31609],[18.26395,43.31671],[18.26515,43.31672],[18.26653,43.31776],[18.26846,43.321],[18.26883,43.32265],[18.2708,43.32501],[18.26962,43.32609],[18.26943,43.32743],[18.2685,43.32849],[18.26854,43.33169],[18.26948,43.33171],[18.27177,43.33307],[18.2744,43.33363],[18.27499,43.33442],[18.27439,43.3368],[18.27506,43.33778],[18.27608,43.33874],[18.27932,43.33987],[18.28028,43.34123],[18.27956,43.34427],[18.2772,43.34517],[18.27523,43.34659],[18.27364,43.34676],[18.27291,43.34777],[18.27076,43.3486],[18.27053,43.34921],[18.27137,43.35129],[18.27102,43.35204],[18.27161,43.35357],[18.27128,43.35494],[18.27547,43.36182],[18.27909,43.36506],[18.27945,43.36593],[18.27919,43.3678],[18.28102,43.37027],[18.28008,43.37089],[18.27921,43.37435],[18.27994,43.37547],[18.27992,43.37688],[18.28197,43.37912],[18.28107,43.38018],[18.28085,43.38256],[18.27925,43.38273],[18.27905,43.38308],[18.27995,43.38508],[18.28126,43.38573],[18.2814,43.38676],[18.28236,43.387],[18.28125,43.38769],[18.27988,43.38634],[18.27738,43.38694],[18.27713,43.38752],[18.27945,43.38819],[18.27782,43.3884],[18.27733,43.38891],[18.27837,43.3901],[18.27678,43.39051],[18.27587,43.39184],[18.27492,43.39209],[18.27494,43.39254],[18.27339,43.39273],[18.27342,43.39409],[18.27166,43.39631],[18.27265,43.39725],[18.27384,43.39722],[18.27509,43.39768],[18.27611,43.39874],[18.27714,43.39844],[18.27707,43.39737],[18.28025,43.39929],[18.28134,43.39929],[18.2804,43.40092],[18.28109,43.40146],[18.28215,43.40113],[18.2836,43.40147],[18.28527,43.4004],[18.28392,43.40211],[18.28209,43.40226],[18.28116,43.4031],[18.27993,43.40323],[18.27947,43.40292],[18.28106,43.40372],[18.28204,43.40303],[18.28354,43.4032],[18.28481,43.40278],[18.28451,43.40455],[18.28497,43.40493],[18.28609,43.40497],[18.28756,43.40611],[18.28759,43.40733],[18.28925,43.40754],[18.29073,43.40844],[18.2927,43.40835],[18.29285,43.40896],[18.29055,43.40893],[18.28966,43.4098],[18.29056,43.41003],[18.29112,43.40975],[18.29414,43.41068],[18.29663,43.41097],[18.2999,43.40929],[18.2983,43.41066],[18.29789,43.4122],[18.29354,43.41243],[18.29781,43.41383],[18.29896,43.41481],[18.30017,43.41481],[18.30234,43.41589],[18.30358,43.41583],[18.30654,43.41694],[18.30685,43.41723],[18.30654,43.41896],[18.30923,43.41658],[18.30937,43.41584],[18.3085,43.4151],[18.31024,43.41568],[18.3125,43.41558],[18.31198,43.41656],[18.31316,43.41727],[18.31058,43.42236],[18.31147,43.42237],[18.31052,43.42349],[18.31167,43.42463],[18.31256,43.42493],[18.31307,43.42759],[18.31285,43.42885],[18.31352,43.42934],[18.31298,43.43018],[18.31365,43.43206],[18.31475,43.43252],[18.31636,43.43258],[18.31611,43.43316],[18.31323,43.43397],[18.31477,43.43513],[18.31397,43.43567],[18.31376,43.43897],[18.3143,43.43986],[18.31396,43.44042],[18.3151,43.44146],[18.31593,43.44506],[18.31597,43.44339],[18.31651,43.44493],[18.31771,43.44594],[18.3169,43.44643],[18.31747,43.44826],[18.32183,43.44973],[18.32324,43.44914],[18.32415,43.44987],[18.32543,43.45002],[18.32614,43.45141],[18.32613,43.45266],[18.32913,43.45544],[18.3302,43.45548],[18.33167,43.45677],[18.33402,43.45685],[18.33476,43.45867],[18.33787,43.46226],[18.34207,43.4626],[18.34477,43.46107],[18.34626,43.46115],[18.347,43.46237],[18.34706,43.46366],[18.34504,43.46653],[18.34511,43.4671],[18.34811,43.46866],[18.3499,43.46834],[18.35034,43.46773],[18.35163,43.46776],[18.35094,43.46876],[18.35132,43.46904],[18.35302,43.46866],[18.35262,43.46934],[18.35298,43.47062],[18.35333,43.46932],[18.35429,43.46845],[18.35358,43.46795],[18.35389,43.46781],[18.35456,43.4684],[18.3545,43.46971],[18.35589,43.47068],[18.35661,43.47194],[18.35762,43.47241],[18.357,43.47409],[18.35842,43.47571],[18.3595,43.47599],[18.3608,43.47829],[18.36273,43.47836],[18.36497,43.47946],[18.37041,43.48084],[18.37214,43.48054],[18.37333,43.48108],[18.3774,43.48124],[18.38013,43.48224],[18.38202,43.48157],[18.38281,43.48185],[18.38346,43.48161],[18.38519,43.48237],[18.38567,43.48117],[18.38758,43.48051],[18.39071,43.48105],[18.39203,43.47987],[18.3943,43.48029],[18.3958,43.48229],[18.39691,43.48281],[18.39749,43.48391],[18.39731,43.48518],[18.40273,43.48637],[18.40368,43.48607],[18.40505,43.48692],[18.40763,43.48718],[18.41182,43.48924],[18.41321,43.48852],[18.41664,43.48851],[18.41952,43.48936],[18.4205,43.49085],[18.42181,43.49101],[18.4245,43.49283],[18.42694,43.49289],[18.429,43.49355],[18.43236,43.49609],[18.43374,43.49644],[18.43622,43.49873],[18.4366,43.50043],[18.44059,43.50166],[18.44317,43.50204],[18.44702,43.50419],[18.44898,43.50386],[18.44942,43.5031],[18.45376,43.50049],[18.45458,43.49936],[18.45626,43.49941],[18.45941,43.49852],[18.46206,43.49847],[18.46472,43.49783],[18.4666,43.49952],[18.46725,43.49813],[18.47138,43.49812],[18.47385,43.49645],[18.48159,43.495],[18.48441,43.49509],[18.48669,43.49456],[18.48776,43.4939],[18.48927,43.49366],[18.4897,43.49259],[18.49114,43.49306],[18.49306,43.49048],[18.49265,43.48954],[18.48606,43.48601],[18.48456,43.48561],[18.47986,43.48153],[18.47789,43.481],[18.4797,43.47972],[18.48001,43.47771],[18.48272,43.47491],[18.48744,43.47222],[18.48917,43.47222],[18.49358,43.47085],[18.49541,43.46949],[18.49731,43.46904],[18.50019,43.46579],[18.50395,43.46328],[18.50736,43.46368],[18.50869,43.46276],[18.51131,43.46304],[18.51321,43.46277],[18.51482,43.46175],[18.51679,43.46191],[18.51811,43.46132],[18.52047,43.46121],[18.52225,43.46063],[18.52394,43.46093],[18.52834,43.45991],[18.53021,43.46025],[18.53244,43.45857],[18.53596,43.45739],[18.53772,43.45562],[18.54148,43.45542],[18.54477,43.45344],[18.54951,43.4523],[18.55305,43.4505],[18.55409,43.44917],[18.55534,43.44881],[18.55711,43.44682],[18.5582,43.44372],[18.55449,43.43869],[18.55526,43.43774],[18.55786,43.43639],[18.55876,43.43298],[18.55974,43.43178],[18.55926,43.43058],[18.55112,43.42742],[18.5489,43.42536],[18.54887,43.42453],[18.54556,43.42293],[18.54224,43.42187],[18.53909,43.4216],[18.53622,43.42001],[18.53296,43.41962],[18.53152,43.41881],[18.52876,43.41862],[18.52956,43.41781],[18.52863,43.41634],[18.53043,43.41584],[18.53125,43.41437],[18.53263,43.4141],[18.5328,43.41356],[18.53623,43.41334],[18.53639,43.41289],[18.53656,43.41171],[18.53572,43.40933],[18.53657,43.40609],[18.53488,43.40326],[18.53432,43.39975],[18.53586,43.39624],[18.53531,43.39554],[18.53648,43.39309],[18.53675,43.39183],[18.53634,43.391],[18.53794,43.3907],[18.53855,43.3918],[18.54115,43.38737],[18.54099,43.3831],[18.54244,43.38049],[18.54096,43.37911],[18.54112,43.37763],[18.54204,43.37687],[18.54572,43.37821],[18.5486,43.37737],[18.54824,43.37612],[18.54605,43.37667],[18.54227,43.3763],[18.54009,43.37743],[18.53972,43.37711],[18.53998,43.37578],[18.53808,43.37517],[18.53606,43.37297],[18.53459,43.3733],[18.53359,43.37428],[18.53351,43.37559],[18.53455,43.37203],[18.53738,43.37428],[18.53803,43.37014],[18.53771,43.36907],[18.53601,43.36822],[18.53673,43.36779],[18.53743,43.36653],[18.5373,43.36589],[18.53648,43.36631],[18.53666,43.36494],[18.53557,43.36464],[18.53434,43.3648],[18.53388,43.36598],[18.53244,43.36597],[18.53117,43.36696],[18.53248,43.36327],[18.53124,43.36207],[18.53145,43.36086],[18.53082,43.35982],[18.5318,43.35801],[18.53247,43.35762],[18.53238,43.35654],[18.53321,43.35543],[18.53203,43.35403],[18.53229,43.35318],[18.53667,43.35342],[18.53729,43.35413],[18.53848,43.35365],[18.54154,43.35031],[18.54336,43.35073],[18.54283,43.35017],[18.54302,43.34815],[18.54493,43.34692],[18.54288,43.34691],[18.5438,43.34551],[18.54774,43.34203],[18.5493,43.33992],[18.55166,43.33942],[18.55152,43.33808],[18.55263,43.33591],[18.5554,43.33381],[18.55746,43.33329],[18.55718,43.33222],[18.55516,43.33128],[18.55386,43.32952],[18.55582,43.32762],[18.55587,43.3262],[18.55722,43.32585],[18.55866,43.32445],[18.55911,43.32149],[18.55999,43.32002],[18.55984,43.31866],[18.56096,43.31848],[18.56236,43.31744],[18.5633,43.31665],[18.56352,43.31555],[18.56583,43.31464],[18.56564,43.31137],[18.56845,43.30743],[18.56718,43.30637],[18.56707,43.3058],[18.56944,43.3016],[18.56945,43.3003],[18.57017,43.29893],[18.57291,43.29805],[18.57414,43.2965],[18.57454,43.29265],[18.57371,43.29088],[18.57648,43.29149],[18.58105,43.28982],[18.58145,43.29031],[18.58223,43.29043],[18.5838,43.29007],[18.5883,43.29029],[18.5899,43.28979],[18.59306,43.29048],[18.59609,43.29029],[18.59776,43.28926],[18.60083,43.28604],[18.60247,43.28545],[18.60479,43.28524],[18.60638,43.28459],[18.60726,43.28372],[18.60737,43.28233],[18.60966,43.28169],[18.60884,43.28036],[18.60981,43.27779],[18.61092,43.27788],[18.61411,43.27722],[18.61457,43.27692],[18.6143,43.2756],[18.61611,43.27465],[18.61617,43.2759],[18.61805,43.27537],[18.61824,43.27602],[18.61851,43.27578],[18.61903,43.27651],[18.61955,43.27364],[18.62012,43.27486],[18.61984,43.27696],[18.62072,43.27805],[18.61863,43.28286],[18.61748,43.28376],[18.61738,43.28637],[18.61802,43.28871],[18.6173,43.28992],[18.6175,43.29042],[18.6194,43.29011],[18.62042,43.29047],[18.62314,43.29315],[18.62536,43.29336],[18.62694,43.2927],[18.62767,43.29277],[18.63092,43.29468],[18.63397,43.2954],[18.63703,43.29531],[18.63947,43.29799],[18.6403,43.29814],[18.64244,43.29752],[18.64607,43.29873],[18.64811,43.30092],[18.64985,43.3043],[18.65125,43.30517],[18.65177,43.30639],[18.65309,43.30727],[18.65524,43.30796],[18.65869,43.30806],[18.6593,43.30942],[18.66125,43.30988],[18.65983,43.31137],[18.65979,43.31349],[18.66045,43.31406],[18.66483,43.3151],[18.66675,43.31598],[18.67156,43.31948],[18.6746,43.32235],[18.67631,43.32316],[18.67699,43.32496],[18.67784,43.32568],[18.67988,43.32644],[18.68318,43.32698],[18.68409,43.32818],[18.68628,43.32943],[18.68819,43.33129],[18.69052,43.3328],[18.69126,43.33529],[18.69098,43.33806],[18.69016,43.3401],[18.69053,43.34349],[18.69123,43.34462],[18.69095,43.34621],[18.69041,43.34622],[18.69093,43.34627],[18.69119,43.34943],[18.69056,43.35081],[18.69147,43.35471],[18.69852,43.36207],[18.69862,43.36399],[18.69953,43.36504],[18.69907,43.36709],[18.70053,43.36929],[18.70041,43.37121],[18.70086,43.37174],[18.70331,43.37233],[18.70796,43.37434],[18.70793,43.37499],[18.70672,43.37621],[18.70514,43.3768],[18.70536,43.37728],[18.70777,43.37689],[18.70928,43.37738],[18.71007,43.37676],[18.72213,43.37608],[18.72585,43.37544],[18.72925,43.37582],[18.73105,43.37563],[18.73481,43.37761],[18.73615,43.37743],[18.73818,43.37815],[18.74107,43.37838],[18.74227,43.3781],[18.74301,43.37837],[18.74381,43.37962],[18.74331,43.38117],[18.74408,43.38241],[18.74802,43.38272],[18.74933,43.3819],[18.75215,43.38168],[18.75282,43.38059],[18.75343,43.38042],[18.75529,43.38103],[18.75647,43.38209],[18.75893,43.3818],[18.75995,43.38144],[18.76129,43.38008],[18.76421,43.37906],[18.76445,43.38016],[18.76317,43.38325],[18.76335,43.38512],[18.76596,43.38785],[18.76626,43.38866],[18.76481,43.39029],[18.7656,43.39136],[18.7663,43.39528],[18.7653,43.39678],[18.7672,43.39823],[18.76735,43.39975],[18.76882,43.40129],[18.76811,43.40398],[18.76581,43.40503],[18.7636,43.40733],[18.76484,43.4085],[18.76536,43.40973],[18.76455,43.41028],[18.76335,43.41032],[18.76055,43.41179],[18.75968,43.41346],[18.7588,43.41414],[18.75978,43.41509],[18.75972,43.41707],[18.76115,43.4189],[18.7607,43.41998],[18.76124,43.42093],[18.7612,43.42229],[18.76224,43.4237],[18.76222,43.42575],[18.76084,43.42776],[18.76089,43.42888],[18.75967,43.42987],[18.75968,43.4319],[18.75877,43.43539],[18.7573,43.43618],[18.75538,43.44052],[18.75524,43.44193],[18.75261,43.44463],[18.75247,43.44522],[18.75354,43.44616],[18.75196,43.45173],[18.74985,43.45362],[18.74398,43.45739],[18.74472,43.45977],[18.74443,43.46489],[18.74507,43.46585],[18.74446,43.46657],[18.74493,43.4674],[18.74492,43.46976],[18.74615,43.47064],[18.74728,43.47377],[18.74751,43.47673],[18.74715,43.47832],[18.74576,43.47933],[18.74495,43.48069],[18.74368,43.48608],[18.74713,43.48648],[18.74703,43.483],[18.74802,43.4804],[18.75049,43.47693],[18.75067,43.47477],[18.75141,43.47333],[18.74957,43.47139],[18.74881,43.46956],[18.74722,43.46783],[18.74747,43.46175],[18.74673,43.45971],[18.74743,43.45811],[18.75404,43.45282],[18.75545,43.45043],[18.75561,43.44723],[18.75627,43.44567],[18.76055,43.4407],[18.7627,43.43976],[18.76373,43.43801],[18.76346,43.43746],[18.76434,43.43459],[18.76631,43.43254],[18.767,43.43062],[18.76762,43.43018],[18.76789,43.42863],[18.76727,43.42583],[18.76933,43.42265],[18.76873,43.42205],[18.769,43.42098],[18.76977,43.41957],[18.77276,43.41676],[18.77408,43.41595],[18.77598,43.41548],[18.77609,43.41419],[18.77778,43.41136],[18.7795,43.40686],[18.78104,43.40579],[18.78205,43.40154],[18.78046,43.39906],[18.7813,43.39578],[18.78237,43.39394],[18.78306,43.39363],[18.78272,43.39251],[18.78306,43.3914],[18.78573,43.38758],[18.78925,43.38462],[18.79288,43.38225],[18.7931,43.38127],[18.79516,43.37967],[18.79537,43.37877],[18.79622,43.37839],[18.79571,43.37761],[18.79651,43.37653],[18.79651,43.37277],[18.79715,43.37043],[18.80058,43.36769],[18.8019,43.36704],[18.80348,43.36705],[18.8035,43.36657],[18.80463,43.36584],[18.80593,43.36587],[18.80742,43.36366],[18.81065,43.36239],[18.81075,43.36173],[18.81223,43.36096],[18.81246,43.35925],[18.81537,43.35817],[18.81703,43.35649],[18.81765,43.35515],[18.82077,43.3544],[18.82259,43.35443],[18.82369,43.35332],[18.82661,43.35292],[18.82714,43.35206],[18.8305,43.35162],[18.83173,43.35252],[18.83851,43.35053],[18.84,43.34954],[18.84201,43.34941],[18.84268,43.34896],[18.84491,43.34909],[18.84529,43.34853]]}},{"type":"Feature","properties":{"name":"TET_BiH-04_20230417","country":"BA","lengthKm":203.2},"geometry":{"type":"LineString","coordinates":[[17.97967,43.46464],[17.97395,43.46745],[17.9732,43.46823],[17.97532,43.46971],[17.98333,43.47376],[17.9892,43.4774],[17.99014,43.47843],[17.99329,43.47979],[17.99387,43.48041],[17.99514,43.48066],[17.99733,43.48004],[17.99881,43.48082],[17.9989,43.48164],[18.00381,43.48454],[18.00506,43.48619],[18.00798,43.48867],[18.01559,43.49242],[18.01987,43.49547],[18.02115,43.49585],[18.02211,43.49701],[18.0247,43.49837],[18.02801,43.50163],[18.03281,43.50485],[18.03396,43.50625],[18.03586,43.50738],[18.03824,43.5074],[18.04071,43.509],[18.04394,43.5101],[18.04411,43.51059],[18.04202,43.51197],[18.04093,43.51562],[18.03913,43.5188],[18.0379,43.52375],[18.03688,43.52443],[18.03659,43.52629],[18.03569,43.52805],[18.03328,43.53097],[18.03321,43.53175],[18.03205,43.53263],[18.03018,43.53636],[18.03006,43.53698],[18.0326,43.53382],[18.03594,43.5326],[18.03676,43.53182],[18.03649,43.53289],[18.03452,43.53573],[18.03498,43.53599],[18.03695,43.53574],[18.0356,43.53799],[18.03586,43.53892],[18.03449,43.53997],[18.03287,43.53999],[18.03156,43.54225],[18.03235,43.54241],[18.03371,43.54139],[18.03331,43.54303],[18.03256,43.54384],[18.03017,43.54457],[18.03,43.54505],[18.03098,43.54474],[18.02882,43.5473],[18.03111,43.54639],[18.02987,43.54724],[18.02775,43.54977],[18.03252,43.54771],[18.0343,43.54782],[18.03768,43.54878],[18.03752,43.55047],[18.04057,43.54972],[18.03626,43.55247],[18.03588,43.55369],[18.03502,43.55404],[18.03263,43.55754],[18.02868,43.56128],[18.03115,43.55992],[18.02902,43.562],[18.03063,43.56134],[18.02963,43.56212],[18.02945,43.56285],[18.02634,43.5658],[18.02596,43.56911],[18.02471,43.57003],[18.02334,43.57249],[18.01983,43.5748],[18.01917,43.57606],[18.01142,43.58525],[18.00811,43.58787],[18.0035,43.59334],[18.001,43.59531],[18.00038,43.59738],[17.99843,43.59825],[17.99593,43.60095],[17.9944,43.6019],[17.99143,43.60617],[17.99103,43.60744],[17.99004,43.60746],[17.98758,43.60962],[17.98507,43.61008],[17.98216,43.61183],[17.98179,43.60998],[17.98074,43.60998],[17.9814,43.61041],[17.98116,43.61211],[17.98218,43.61321],[17.98216,43.61464],[17.9817,43.6144],[17.98154,43.61316],[17.98005,43.61263],[17.98115,43.61331],[17.98116,43.61482],[17.98174,43.61539],[17.98155,43.61809],[17.98418,43.6196],[17.98402,43.62001],[17.98239,43.62083],[17.98013,43.621],[17.98202,43.62035],[17.98221,43.61997],[17.97878,43.62096],[17.98053,43.61998],[17.97822,43.62052],[17.97922,43.61976],[17.97856,43.61909],[17.97806,43.61967],[17.97265,43.62252],[17.97109,43.62406],[17.96751,43.62511],[17.96797,43.62582],[17.96979,43.62596],[17.96951,43.62684],[17.97102,43.62925],[17.97081,43.63076],[17.97179,43.63197],[17.9725,43.63696],[17.97357,43.63863],[17.97534,43.63928],[17.97647,43.63896],[17.98048,43.6366],[17.98589,43.63414],[17.98743,43.63397],[17.99146,43.63474],[17.99292,43.6347],[17.99595,43.63282],[17.99991,43.63129],[18.00341,43.62682],[18.00496,43.62599],[18.00553,43.62637],[18.0097,43.62524],[18.01216,43.62216],[18.01295,43.62229],[18.01327,43.62299],[18.01363,43.62286],[18.0141,43.62189],[18.01307,43.62138],[18.01361,43.61967],[18.01442,43.61935],[18.01682,43.61702],[18.01902,43.61716],[18.01979,43.61481],[18.0228,43.61233],[18.02642,43.61197],[18.02648,43.61151],[18.02746,43.61092],[18.02581,43.61013],[18.02332,43.6097],[18.02191,43.60591],[18.02353,43.6051],[18.02475,43.605],[18.02627,43.6029],[18.028,43.60213],[18.02883,43.60069],[18.03186,43.59966],[18.03232,43.59798],[18.03353,43.59811],[18.03446,43.59875],[18.03491,43.60025],[18.03609,43.60011],[18.03616,43.60149],[18.03796,43.60149],[18.04042,43.59922],[18.04155,43.59975],[18.04225,43.60139],[18.04271,43.60135],[18.04302,43.60001],[18.0452,43.59987],[18.04778,43.59901],[18.04866,43.59923],[18.04793,43.59786],[18.046,43.597],[18.0448,43.59604],[18.04446,43.59516],[18.04567,43.59425],[18.04723,43.59436],[18.04797,43.59384],[18.04809,43.5915],[18.05099,43.59071],[18.05151,43.59024],[18.05266,43.58998],[18.05424,43.59062],[18.05515,43.59046],[18.05617,43.59088],[18.05525,43.5907],[18.05405,43.59112],[18.05521,43.59102],[18.05626,43.59179],[18.0571,43.59109],[18.05849,43.59123],[18.05807,43.58987],[18.0593,43.58983],[18.06048,43.58835],[18.05931,43.58735],[18.05939,43.58699],[18.06185,43.58918],[18.06384,43.59014],[18.06405,43.59311],[18.06506,43.59358],[18.06495,43.59481],[18.06429,43.59389],[18.06352,43.59385],[18.06424,43.59418],[18.06452,43.59712],[18.06576,43.59727],[18.06498,43.59799],[18.06267,43.59793],[18.06277,43.6007],[18.06505,43.60045],[18.06743,43.60161],[18.06768,43.6028],[18.06938,43.60458],[18.07001,43.60829],[18.0722,43.61029],[18.07296,43.61294],[18.07502,43.61427],[18.07875,43.61575],[18.08037,43.61705],[18.08144,43.61706],[18.08592,43.61982],[18.08872,43.62034],[18.08867,43.62139],[18.08981,43.62214],[18.09244,43.62253],[18.09405,43.62326],[18.09534,43.62322],[18.0963,43.62377],[18.09922,43.6237],[18.09876,43.62489],[18.10046,43.62585],[18.09959,43.62794],[18.09989,43.62889],[18.09666,43.63198],[18.09441,43.63267],[18.0945,43.63384],[18.09317,43.63501],[18.09116,43.63521],[18.09041,43.63621],[18.08938,43.63667],[18.0896,43.63747],[18.08871,43.63824],[18.08174,43.64014],[18.08174,43.64097],[18.07941,43.64244],[18.07372,43.64395],[18.07383,43.64431],[18.07164,43.6453],[18.06971,43.64564],[18.06873,43.64621],[18.06773,43.64616],[18.06589,43.64739],[18.06697,43.64803],[18.06682,43.6502],[18.06808,43.65166],[18.06795,43.65255],[18.0671,43.65289],[18.07085,43.65381],[18.07291,43.65335],[18.07281,43.65367],[18.07523,43.65451],[18.07725,43.65576],[18.08584,43.65603],[18.09007,43.65689],[18.09147,43.65768],[18.09176,43.65837],[18.09314,43.65886],[18.095,43.66155],[18.10086,43.6649],[18.10326,43.66671],[18.10537,43.66713],[18.10665,43.66797],[18.10971,43.66853],[18.11322,43.67036],[18.11541,43.671],[18.11811,43.67123],[18.11945,43.67193],[18.12364,43.67302],[18.12826,43.67326],[18.12997,43.67298],[18.13702,43.67077],[18.13936,43.67067],[18.14173,43.67126],[18.14319,43.67069],[18.14626,43.67071],[18.14886,43.67116],[18.15114,43.67018],[18.15168,43.67077],[18.15294,43.66943],[18.15334,43.66744],[18.15478,43.66632],[18.15721,43.66573],[18.1623,43.66278],[18.16353,43.66065],[18.16612,43.6582],[18.17227,43.65636],[18.17342,43.65426],[18.17429,43.65375],[18.17532,43.65217],[18.17812,43.65011],[18.17837,43.64928],[18.17928,43.64876],[18.18069,43.64696],[18.18204,43.64369],[18.18405,43.64099],[18.18423,43.64002],[18.18345,43.63754],[18.18404,43.63649],[18.18341,43.63755],[18.18421,43.63996],[18.18401,43.64103],[18.18219,43.64334],[18.18077,43.64685],[18.17838,43.64924],[18.17812,43.65007],[18.17534,43.6521],[18.17433,43.65368],[18.17344,43.6542],[18.17238,43.65619],[18.17097,43.65736],[18.17017,43.65879],[18.16806,43.65972],[18.16843,43.66204],[18.16874,43.66336],[18.17018,43.66494],[18.17788,43.66812],[18.1813,43.66862],[18.18237,43.67114],[18.18348,43.67229],[18.18765,43.67553],[18.19094,43.6774],[18.19293,43.67932],[18.19282,43.68248],[18.19518,43.68542],[18.19765,43.6862],[18.20115,43.68673],[18.2054,43.68674],[18.20903,43.68742],[18.20968,43.6869],[18.21421,43.68604],[18.21461,43.68628],[18.21979,43.68613],[18.22296,43.68689],[18.22549,43.68631],[18.22699,43.68514],[18.22785,43.68552],[18.23131,43.68526],[18.2355,43.6857],[18.23667,43.6854],[18.23848,43.68389],[18.24014,43.68362],[18.2419,43.68449],[18.24315,43.68408],[18.24423,43.68511],[18.24787,43.68607],[18.25168,43.68618],[18.25231,43.68741],[18.25469,43.68797],[18.25667,43.68959],[18.258,43.69001],[18.25921,43.69127],[18.26049,43.69157],[18.26441,43.69188],[18.2658,43.69148],[18.26743,43.69015],[18.26996,43.68953],[18.27425,43.6893],[18.27702,43.6899],[18.27796,43.69047],[18.27889,43.6921],[18.27745,43.69464],[18.27359,43.69708],[18.27361,43.69765],[18.27432,43.69824],[18.27391,43.69899],[18.27544,43.70039],[18.27978,43.70308],[18.28241,43.70172],[18.28139,43.70549],[18.28178,43.70604],[18.28473,43.70842],[18.28549,43.70862],[18.28585,43.70936],[18.28743,43.70984],[18.28866,43.7095],[18.28918,43.70974],[18.28888,43.71213],[18.28925,43.71395],[18.28825,43.71426],[18.28889,43.71477],[18.28774,43.71604],[18.28829,43.71636],[18.28741,43.71659],[18.28279,43.71999],[18.2825,43.72379],[18.28157,43.72541],[18.28137,43.7275],[18.28015,43.72849],[18.27854,43.73159],[18.27726,43.7326],[18.27801,43.73385],[18.27791,43.73579],[18.27556,43.73691],[18.27562,43.73727],[18.27841,43.73727],[18.27955,43.73767],[18.28003,43.73927],[18.27964,43.74035],[18.27707,43.74346],[18.27097,43.74866],[18.2656,43.75237],[18.26511,43.75354],[18.26379,43.75405],[18.26339,43.75517],[18.26403,43.75416],[18.26746,43.75381],[18.26862,43.75255],[18.27113,43.75142],[18.27257,43.75131],[18.27521,43.75214],[18.27654,43.75202],[18.27783,43.7511],[18.27752,43.75038],[18.27838,43.7497],[18.28003,43.74949],[18.28181,43.75026],[18.28318,43.75002],[18.28424,43.74879],[18.28424,43.74962],[18.28309,43.7507],[18.28403,43.75204],[18.28402,43.75278],[18.28067,43.75431],[18.28131,43.75484],[18.28099,43.75709],[18.28001,43.75771],[18.27817,43.75772],[18.27793,43.75839],[18.27573,43.75971],[18.27254,43.75989],[18.27056,43.76108],[18.27284,43.76258],[18.27423,43.76247],[18.2752,43.76341],[18.27498,43.76465],[18.27595,43.76575],[18.27516,43.76702],[18.27675,43.76723],[18.27704,43.7677],[18.2766,43.76895],[18.27741,43.76906],[18.27736,43.76971],[18.27851,43.76966],[18.27828,43.77032],[18.27918,43.77137],[18.27835,43.77327],[18.28025,43.7745],[18.28552,43.7756],[18.28517,43.77662],[18.28584,43.77797],[18.28489,43.77792],[18.28467,43.77825],[18.28691,43.78053],[18.28702,43.78141],[18.28964,43.78256],[18.29138,43.78241],[18.29344,43.7809],[18.29294,43.77789],[18.29342,43.77675],[18.29531,43.77637],[18.29671,43.77521],[18.29645,43.77401],[18.29746,43.7736],[18.29774,43.77307],[18.2991,43.77361],[18.30022,43.7734],[18.30075,43.77417],[18.30102,43.7736],[18.30201,43.77402],[18.30102,43.77565],[18.30087,43.77707],[18.29933,43.77867],[18.29867,43.78011],[18.29841,43.78079],[18.29907,43.78155],[18.29697,43.78494],[18.29727,43.78582],[18.29796,43.78611],[18.29777,43.787],[18.29667,43.78786],[18.29592,43.78961],[18.29495,43.7899],[18.29222,43.78967],[18.29221,43.79053],[18.29143,43.79145],[18.28927,43.79196],[18.28929,43.79272],[18.28827,43.79331],[18.28791,43.79446],[18.28523,43.79605],[18.28665,43.79726],[18.28634,43.79915],[18.27909,43.80418],[18.28175,43.80264],[18.28834,43.79989],[18.28971,43.7987],[18.29162,43.79812],[18.2919,43.79757],[18.29324,43.79773],[18.29362,43.79691],[18.2951,43.79683],[18.2979,43.79491],[18.29854,43.79348],[18.30124,43.79337],[18.30373,43.79095],[18.30574,43.79016],[18.30674,43.79018],[18.30812,43.78945],[18.30892,43.78947],[18.30929,43.78873],[18.30969,43.78898],[18.3095,43.78984],[18.30846,43.78995],[18.30862,43.79042],[18.31003,43.79018],[18.31063,43.78942],[18.31095,43.78959],[18.30923,43.79133],[18.30858,43.79266],[18.30553,43.79349],[18.30497,43.79414],[18.30149,43.79543],[18.29907,43.79869],[18.2991,43.79977],[18.29684,43.80044],[18.29671,43.80214],[18.29611,43.80285],[18.2929,43.80425],[18.29242,43.80609],[18.29351,43.80485],[18.29469,43.8065],[18.29672,43.80623],[18.29934,43.80848],[18.30195,43.80558],[18.3063,43.80289],[18.30986,43.80121],[18.3128,43.79908],[18.32592,43.79398],[18.33439,43.79161],[18.33878,43.79099],[18.34561,43.79065],[18.34791,43.79074],[18.35093,43.79154],[18.35624,43.79125],[18.35895,43.79262],[18.36074,43.79295],[18.36074,43.79336],[18.35676,43.79779],[18.35566,43.79857],[18.35224,43.79952],[18.35085,43.80043],[18.34865,43.80315],[18.34685,43.80409],[18.34528,43.80685],[18.34674,43.80993],[18.34752,43.81067],[18.35056,43.81207],[18.35491,43.81659],[18.35708,43.82005],[18.35941,43.82125],[18.36304,43.82417],[18.36663,43.82251],[18.36736,43.82313],[18.36663,43.82251],[18.37195,43.81914],[18.37448,43.81449],[18.3774,43.81253],[18.37958,43.81182],[18.38033,43.81089],[18.38187,43.81017],[18.38533,43.80632],[18.38856,43.80407],[18.39134,43.80364],[18.39288,43.80214],[18.39517,43.80178],[18.39943,43.7999],[18.40195,43.79772],[18.40613,43.79653],[18.40909,43.79619],[18.41153,43.79525],[18.41195,43.79472],[18.41206,43.79235],[18.41346,43.79072],[18.41459,43.79037],[18.41633,43.78896],[18.41994,43.78926],[18.42086,43.78882],[18.42172,43.78702],[18.42089,43.78565],[18.42268,43.78657],[18.42511,43.78656],[18.42785,43.7883],[18.42836,43.78544],[18.43007,43.78604],[18.43273,43.7845],[18.43701,43.78297],[18.4393,43.78286],[18.44057,43.78351],[18.44176,43.78241],[18.44582,43.78118],[18.4444,43.77922],[18.44445,43.77786],[18.44556,43.77733],[18.44924,43.77403],[18.45027,43.77246],[18.45302,43.77048],[18.453,43.76893],[18.45377,43.76893],[18.45598,43.77056],[18.45779,43.77084],[18.45883,43.77022],[18.46028,43.77024],[18.46081,43.76989],[18.45945,43.76809],[18.45973,43.76749],[18.46028,43.76741],[18.46177,43.76828],[18.4658,43.76777],[18.47096,43.76786],[18.47293,43.76857],[18.47208,43.77064],[18.47373,43.77317],[18.47597,43.7734],[18.4771,43.77278],[18.47811,43.77281],[18.4795,43.77305],[18.48247,43.77451],[18.48493,43.77373],[18.48693,43.77375],[18.48657,43.77272],[18.48784,43.772],[18.48811,43.76956],[18.48963,43.76849],[18.49257,43.76806],[18.49294,43.76765],[18.49265,43.76642],[18.49483,43.76744],[18.49883,43.76852],[18.49899,43.76729],[18.50069,43.76411],[18.5034,43.76233],[18.50387,43.76238],[18.50494,43.76387],[18.50599,43.76273],[18.51091,43.76249],[18.51224,43.76368],[18.51349,43.76369],[18.51481,43.76427],[18.51557,43.76336],[18.51622,43.76341],[18.51825,43.76492],[18.52026,43.76491],[18.52298,43.76582],[18.52459,43.76477],[18.52515,43.76387],[18.52836,43.76374],[18.53118,43.76263],[18.53218,43.76278],[18.53395,43.76229],[18.53438,43.76303],[18.53516,43.76293],[18.53686,43.76351],[18.53844,43.76444],[18.53964,43.76387],[18.54034,43.76262],[18.54341,43.76158],[18.54346,43.76005],[18.54527,43.76063],[18.54664,43.7602],[18.54694,43.75948],[18.54784,43.75948],[18.54841,43.7587],[18.5491,43.7587],[18.54878,43.75616],[18.54933,43.75408],[18.5517,43.75032],[18.55691,43.74738],[18.55874,43.74749],[18.56073,43.74702],[18.56355,43.74756],[18.56507,43.74724],[18.56554,43.74674],[18.56475,43.74502],[18.56681,43.74296],[18.56511,43.74356],[18.56871,43.74145],[18.56865,43.74016],[18.56741,43.73756],[18.56851,43.73449],[18.57185,43.73258],[18.57252,43.73151],[18.57357,43.73103],[18.57423,43.7293],[18.5738,43.72761],[18.57605,43.7295],[18.57534,43.72712],[18.5761,43.72695],[18.57428,43.72546],[18.57434,43.72501],[18.57796,43.72324],[18.57777,43.72209],[18.57864,43.72253],[18.57763,43.72143],[18.57944,43.72169],[18.57853,43.72059],[18.5783,43.71905],[18.57934,43.71565],[18.57931,43.71314],[18.58013,43.71184],[18.57954,43.71144],[18.57956,43.70996],[18.57799,43.71037],[18.57752,43.70975],[18.57862,43.70817],[18.57878,43.70679],[18.5801,43.70569],[18.5805,43.7047],[18.58396,43.70361],[18.58559,43.70255],[18.58397,43.70213],[18.58299,43.70009],[18.58981,43.69739],[18.59677,43.69577],[18.59797,43.69573],[18.59893,43.69669],[18.60135,43.69691],[18.60514,43.6964],[18.60914,43.69398],[18.6123,43.69115],[18.61403,43.69045],[18.61598,43.68841],[18.61939,43.68729],[18.62033,43.68432],[18.62185,43.68357],[18.62252,43.68204],[18.62128,43.68159],[18.6193,43.68182],[18.6191,43.68159],[18.62038,43.68039],[18.62196,43.67969],[18.62332,43.67791],[18.61994,43.6767],[18.62054,43.67468],[18.62399,43.67231],[18.62649,43.67126],[18.62795,43.66799],[18.62672,43.6666],[18.62322,43.66495],[18.62062,43.66447],[18.62193,43.66248],[18.62161,43.66184],[18.62228,43.65938],[18.62252,43.6608],[18.62477,43.66093],[18.62689,43.66193],[18.62727,43.66275],[18.63057,43.66162],[18.63219,43.66031],[18.63475,43.65952],[18.63633,43.65969],[18.63817,43.65775],[18.63891,43.65746],[18.6404,43.65515],[18.64066,43.65376],[18.63927,43.65302],[18.63815,43.6543],[18.63529,43.6549],[18.63487,43.65463],[18.63269,43.65215],[18.63347,43.64813],[18.63667,43.6467],[18.63805,43.64558],[18.64046,43.64473],[18.64206,43.64286],[18.6423,43.64186],[18.64435,43.64435],[18.64444,43.64551],[18.64619,43.64478],[18.64602,43.64354],[18.64682,43.64088],[18.64839,43.6437],[18.64879,43.64363],[18.65117,43.6409],[18.6509,43.63869],[18.65136,43.63861],[18.65079,43.63798],[18.6515,43.63698],[18.6539,43.63602],[18.65717,43.63353],[18.66199,43.63271],[18.66671,43.63007],[18.66859,43.62712],[18.67354,43.62445],[18.67513,43.62281],[18.67853,43.62055],[18.68126,43.61739],[18.68582,43.61466],[18.68655,43.61568],[18.68724,43.61559],[18.6871,43.61435],[18.68794,43.61305],[18.68815,43.61099],[18.68925,43.60981],[18.69068,43.6094],[18.69273,43.6076],[18.6924,43.60573],[18.69297,43.60462],[18.69255,43.60404],[18.69116,43.60367],[18.69053,43.60239],[18.69102,43.60128],[18.69291,43.59957],[18.69371,43.59754],[18.69377,43.59624],[18.69326,43.59546],[18.69401,43.59511],[18.69311,43.59305],[18.69382,43.5922],[18.69304,43.59161],[18.69161,43.58856],[18.69287,43.58182],[18.69229,43.57827],[18.68726,43.57248],[18.68756,43.57079],[18.68701,43.56843],[18.68803,43.56734],[18.6885,43.56553],[18.68739,43.56264],[18.68486,43.56088],[18.68344,43.55682],[18.68131,43.55644],[18.68072,43.55597],[18.68117,43.55493],[18.68511,43.55258],[18.68656,43.55028],[18.68917,43.5506],[18.69165,43.5496],[18.69462,43.54812],[18.69527,43.54731],[18.69667,43.54682],[18.69701,43.54614],[18.69924,43.54477],[18.69924,43.54337],[18.69999,43.54262],[18.69689,43.54026],[18.6976,43.53991],[18.69967,43.54046],[18.69968,43.5402],[18.69797,43.5392],[18.69892,43.53918],[18.69623,43.53641],[18.69722,43.53503],[18.70041,43.53344],[18.70157,43.53222],[18.70214,43.53075],[18.70392,43.52957],[18.70412,43.52858],[18.70303,43.52677],[18.70194,43.52643],[18.7007,43.52409],[18.70346,43.52475],[18.70449,43.52421],[18.70573,43.52274],[18.71057,43.52025],[18.71255,43.52019],[18.71374,43.52164],[18.71371,43.52039],[18.71253,43.51849],[18.70859,43.51702],[18.70773,43.51573],[18.70498,43.51401],[18.70314,43.514],[18.70567,43.51261],[18.70903,43.51243],[18.70861,43.51179],[18.70718,43.51142],[18.70898,43.51103],[18.70932,43.51044],[18.70894,43.50923],[18.71081,43.50995],[18.7097,43.50809],[18.71052,43.50795],[18.71214,43.50855],[18.71137,43.5072],[18.71209,43.50708],[18.71141,43.50619],[18.71187,43.506],[18.71123,43.50534],[18.7117,43.50497],[18.71326,43.50527],[18.71381,43.50272],[18.7143,43.50234],[18.71641,43.50247],[18.71988,43.50043],[18.72309,43.5004],[18.72552,43.49975],[18.73067,43.49686],[18.73408,43.49615],[18.73603,43.49641],[18.73956,43.49506],[18.74071,43.49294],[18.74256,43.49196],[18.74263,43.49066],[18.74337,43.48958],[18.74344,43.48664],[18.74394,43.4862]]}},{"type":"Feature","properties":{"name":"TET_BiH-05_20230417","country":"BA","lengthKm":7.4},"geometry":{"type":"LineString","coordinates":[[17.29469,43.9931],[17.2996,43.99296],[17.30484,43.99387],[17.30266,43.991],[17.30238,43.98942],[17.30424,43.98765],[17.30602,43.98728],[17.30815,43.98779],[17.30782,43.98866],[17.30824,43.98911],[17.31504,43.98874],[17.31672,43.989],[17.31915,43.98995],[17.32118,43.99139],[17.32148,43.98945],[17.3275,43.98121],[17.32907,43.98014],[17.33033,43.97762],[17.32759,43.97714],[17.32479,43.97785],[17.32371,43.97709],[17.32252,43.97688],[17.31675,43.97763],[17.31489,43.97327],[17.31644,43.97058],[17.31448,43.96819],[17.31522,43.96741]]}},{"type":"Feature","properties":{"name":"TET_BiH-06_20230417","country":"BA","lengthKm":4.5},"geometry":{"type":"LineString","coordinates":[[17.47044,43.83384],[17.47224,43.83346],[17.47332,43.83437],[17.47445,43.83388],[17.47579,43.83476],[17.47651,43.83393],[17.47863,43.83474],[17.47941,43.83424],[17.48062,43.83513],[17.48282,43.8342],[17.48481,43.83523],[17.48607,43.83486],[17.48756,43.83499],[17.48682,43.83479],[17.48688,43.83419],[17.48746,43.83401],[17.48884,43.83446],[17.4916,43.83452],[17.49304,43.83528],[17.49626,43.83584],[17.49485,43.83455],[17.49536,43.83204],[17.4959,43.83193],[17.50024,43.83384],[17.50085,43.83244],[17.5024,43.83255],[17.5028,43.83182],[17.50528,43.83082],[17.5058,43.82895]]}},{"type":"Feature","properties":{"name":"TET_BiH-07_20230417","country":"BA","lengthKm":21},"geometry":{"type":"LineString","coordinates":[[17.52569,43.57612],[17.53132,43.57451],[17.53262,43.57541],[17.53432,43.57566],[17.53689,43.57426],[17.53822,43.57503],[17.53986,43.57517],[17.54038,43.57554],[17.54031,43.57617],[17.53787,43.57765],[17.53905,43.57814],[17.54088,43.57803],[17.54131,43.57853],[17.54041,43.57862],[17.54033,43.5792],[17.54445,43.57896],[17.54497,43.57949],[17.54666,43.57966],[17.54307,43.58103],[17.54075,43.58139],[17.53922,43.58239],[17.53703,43.58247],[17.53658,43.58307],[17.53401,43.58385],[17.53348,43.5845],[17.53431,43.5846],[17.53404,43.58509],[17.53501,43.58517],[17.53516,43.58551],[17.53361,43.58634],[17.53415,43.58673],[17.53409,43.58734],[17.53739,43.58747],[17.53811,43.58824],[17.53688,43.58864],[17.53791,43.58957],[17.54139,43.59036],[17.53984,43.59051],[17.53843,43.59185],[17.54009,43.59217],[17.53871,43.59347],[17.54087,43.59333],[17.53968,43.59383],[17.53918,43.59449],[17.54044,43.59461],[17.54095,43.59538],[17.54299,43.59476],[17.54386,43.59488],[17.54222,43.59564],[17.54348,43.59582],[17.54386,43.59625],[17.54208,43.59669],[17.54164,43.59719],[17.54536,43.59724],[17.54435,43.59776],[17.5449,43.5985],[17.54388,43.59928],[17.54393,43.60005],[17.54509,43.59978],[17.54652,43.60051],[17.54733,43.6016],[17.54677,43.60284],[17.54782,43.60223],[17.55169,43.6018],[17.55418,43.6004],[17.55633,43.60066],[17.56292,43.59938],[17.56388,43.59885],[17.56496,43.599],[17.56424,43.59925],[17.56477,43.59906],[17.56392,43.59884],[17.56294,43.59937],[17.55865,43.59996],[17.5567,43.60063],[17.55406,43.60038],[17.55176,43.60178],[17.54842,43.60214],[17.54689,43.60288],[17.54667,43.60255],[17.54737,43.60156],[17.54657,43.60053],[17.54481,43.59972],[17.54405,43.60004],[17.54377,43.59962],[17.54489,43.59851],[17.54439,43.59773],[17.54527,43.59741],[17.54514,43.5971],[17.54162,43.59714],[17.54195,43.59674],[17.54388,43.59621],[17.54222,43.59563],[17.54382,43.59486],[17.5409,43.59537],[17.54042,43.5946],[17.53918,43.59449],[17.53968,43.59383],[17.54089,43.59334],[17.53872,43.59348],[17.54009,43.59216],[17.53843,43.59185],[17.53984,43.59051],[17.54138,43.59029],[17.5379,43.58957],[17.53689,43.58867],[17.53812,43.58821],[17.53741,43.58749],[17.53402,43.58729],[17.53418,43.58676],[17.53359,43.58637],[17.53514,43.58533],[17.53405,43.58509],[17.53438,43.58466],[17.53348,43.58445],[17.53434,43.58363],[17.5366,43.58306],[17.53704,43.58247],[17.53922,43.58239],[17.54076,43.58139],[17.54302,43.58106],[17.54659,43.57957],[17.54491,43.57949],[17.54437,43.57896],[17.54034,43.57921],[17.54043,43.57861],[17.54131,43.57854],[17.54093,43.57807],[17.53911,43.57816],[17.53788,43.57767],[17.54035,43.57614],[17.54038,43.57554],[17.53989,43.57547],[17.53999,43.57518],[17.53822,43.57504],[17.5369,43.57426],[17.53418,43.57568],[17.53262,43.5754],[17.53136,43.57455],[17.52561,43.57613]]}},{"type":"Feature","properties":{"name":"TET_BiH-08_20230417","country":"BA","lengthKm":39.7},"geometry":{"type":"LineString","coordinates":[[17.81297,43.35579],[17.8138,43.35578],[17.81432,43.35667],[17.81537,43.35667],[17.8163,43.35781],[17.81485,43.3527],[17.81565,43.35153],[17.81579,43.35288],[17.81795,43.3546],[17.81782,43.35266],[17.81924,43.3505],[17.81904,43.34963],[17.82088,43.34829],[17.82033,43.34959],[17.82128,43.35214],[17.82214,43.34964],[17.8229,43.35166],[17.82358,43.35008],[17.82471,43.34951],[17.82651,43.34693],[17.82604,43.34814],[17.82619,43.35201],[17.82774,43.34894],[17.82899,43.3479],[17.83013,43.34772],[17.83278,43.3483],[17.83192,43.34558],[17.83472,43.34602],[17.83533,43.34516],[17.83562,43.3465],[17.835,43.34699],[17.83607,43.34685],[17.83695,43.34421],[17.83857,43.34805],[17.83966,43.34568],[17.84051,43.3452],[17.84078,43.34686],[17.84309,43.34865],[17.8427,43.34706],[17.8448,43.34645],[17.84516,43.34517],[17.84483,43.34262],[17.84754,43.341],[17.84891,43.34035],[17.85181,43.33985],[17.85243,43.33927],[17.85388,43.33891],[17.86258,43.33737],[17.86603,43.33609],[17.87006,43.3333],[17.87355,43.3333],[17.882,43.33575],[17.88532,43.33843],[17.88518,43.33964],[17.88641,43.33931],[17.88879,43.34027],[17.88815,43.34225],[17.88877,43.34241],[17.88891,43.344],[17.88953,43.34384],[17.88967,43.3445],[17.89042,43.34463],[17.89269,43.3441],[17.89072,43.34837],[17.89433,43.34652],[17.89416,43.34736],[17.89555,43.34725],[17.89561,43.34858],[17.9002,43.34968],[17.90085,43.35075],[17.9017,43.35086],[17.9049,43.35316],[17.90584,43.3549],[17.90813,43.3556],[17.91058,43.35358],[17.91094,43.35486],[17.91327,43.35248],[17.91639,43.35016],[17.91525,43.35456],[17.91652,43.35763],[17.91802,43.35795],[17.91757,43.35895],[17.91778,43.3599],[17.91847,43.36019],[17.92215,43.35999],[17.92413,43.36072],[17.92911,43.36373],[17.92596,43.3593],[17.92738,43.35608],[17.92794,43.35612],[17.92727,43.35689],[17.9292,43.35582],[17.92876,43.35597],[17.92815,43.35761],[17.92886,43.35879],[17.92937,43.35745],[17.93194,43.35582],[17.93051,43.35837],[17.9331,43.35702],[17.93279,43.35858],[17.93506,43.35667],[17.93488,43.35761],[17.9366,43.35597],[17.93888,43.35504],[17.93808,43.3558],[17.93891,43.35506],[17.93829,43.35505],[17.93635,43.35614],[17.9347,43.35757],[17.93518,43.35668],[17.9328,43.35858],[17.93309,43.35702],[17.93051,43.35838],[17.9319,43.35581],[17.92972,43.35709],[17.92884,43.35879],[17.92816,43.35762],[17.9292,43.35584],[17.92734,43.35699],[17.92707,43.35675],[17.9279,43.35615],[17.92705,43.35606],[17.92602,43.35679],[17.92545,43.35932],[17.92938,43.36378],[17.93154,43.36442],[17.93369,43.36716],[17.93516,43.36815],[17.93753,43.36868],[17.94115,43.36839],[17.94333,43.36773],[17.94592,43.36774],[17.94697,43.36807],[17.94846,43.36956],[17.94946,43.37181],[17.94897,43.37387],[17.94811,43.37492],[17.94882,43.37619],[17.95203,43.37663],[17.95512,43.37614],[17.95847,43.37271],[17.96003,43.372],[17.9601,43.37004],[17.95837,43.36916],[17.95858,43.36805],[17.95799,43.36727],[17.95945,43.36766],[17.95993,43.36818],[17.96138,43.36747],[17.96332,43.36715],[17.96488,43.36714],[17.9663,43.36758],[17.9673,43.36718],[17.96869,43.36756],[17.96967,43.36683],[17.97164,43.36688],[17.97321,43.36714],[17.97429,43.36814],[17.97512,43.36698],[17.97516,43.36548],[17.97696,43.36484],[17.9785,43.36553],[17.97873,43.36693],[17.97965,43.3684],[17.9822,43.37106],[17.98193,43.37186],[17.98065,43.37194],[17.98117,43.37464],[17.98196,43.37365],[17.98309,43.37377],[17.98573,43.37545],[17.9875,43.37529],[17.98836,43.37566],[17.98925,43.37416],[17.99198,43.37566],[17.99362,43.37318],[17.99454,43.37267],[17.99816,43.37192],[18.00027,43.3723],[18.0026,43.37138],[18.00455,43.37135],[18.00484,43.37114],[18.00438,43.37092],[18.00537,43.36995],[18.0054,43.36885],[18.00741,43.3679],[18.00797,43.36685],[18.01089,43.36696],[18.01274,43.36858],[18.01399,43.36777],[18.01372,43.36642],[18.01553,43.36682]]}},{"type":"Feature","properties":{"name":"TET_BiH-09_20230417","country":"BA","lengthKm":9.3},"geometry":{"type":"LineString","coordinates":[[18.26749,43.69029],[18.26824,43.69025],[18.26676,43.69228],[18.26744,43.69384],[18.26685,43.69376],[18.26776,43.69558],[18.26599,43.69487],[18.25892,43.6962],[18.26373,43.69708],[18.25909,43.69756],[18.26207,43.69837],[18.25745,43.69848],[18.26112,43.69966],[18.26005,43.6996],[18.25903,43.70002],[18.25873,43.70063],[18.26031,43.70042],[18.25973,43.70061],[18.25914,43.70159],[18.25746,43.70156],[18.25883,43.70207],[18.25547,43.70182],[18.25602,43.70246],[18.25532,43.7033],[18.25613,43.70291],[18.25526,43.7041],[18.25592,43.70351],[18.2557,43.70432],[18.25667,43.7036],[18.25719,43.70391],[18.25689,43.70363],[18.25732,43.70345],[18.25961,43.70314],[18.26166,43.70242],[18.26006,43.70491],[18.26158,43.70456],[18.26147,43.70556],[18.26289,43.70681],[18.26454,43.70656],[18.26498,43.70571],[18.26593,43.70541],[18.26897,43.70613],[18.26906,43.70776],[18.26979,43.70841],[18.26936,43.71138],[18.27102,43.711],[18.27261,43.71003],[18.2746,43.70792],[18.27421,43.70687],[18.27494,43.70565],[18.27438,43.70303],[18.27465,43.70011]]}},{"type":"Feature","properties":{"name":"TET_BiH-10_20230417","country":"BA","lengthKm":11.7},"geometry":{"type":"LineString","coordinates":[[18.63713,43.65897],[18.64059,43.65874],[18.63802,43.66295],[18.63922,43.66353],[18.63838,43.66579],[18.63935,43.66698],[18.63925,43.66744],[18.6424,43.66828],[18.64331,43.66887],[18.64487,43.66785],[18.64805,43.66693],[18.65053,43.66754],[18.64949,43.66773],[18.64874,43.66927],[18.64878,43.67045],[18.64838,43.67001],[18.6478,43.67051],[18.64853,43.67199],[18.64762,43.67491],[18.6485,43.67543],[18.64786,43.67677],[18.64916,43.67751],[18.64822,43.68078],[18.64866,43.68146],[18.64812,43.68303],[18.65255,43.68187],[18.65553,43.68158],[18.65854,43.68046],[18.65937,43.67959],[18.66033,43.67987],[18.66133,43.67723],[18.66251,43.67556],[18.66295,43.67362],[18.66463,43.67181],[18.66393,43.67027],[18.66494,43.669],[18.66464,43.66595],[18.66523,43.66512],[18.66419,43.66346],[18.66368,43.66349],[18.66287,43.66188],[18.66234,43.66245],[18.66174,43.66039],[18.66118,43.66122],[18.66062,43.66075],[18.661,43.65692],[18.65914,43.65788],[18.65913,43.65677],[18.65783,43.65555],[18.65774,43.65369],[18.65555,43.65484],[18.65536,43.65373],[18.65687,43.65077],[18.65509,43.65006],[18.65391,43.6503],[18.65346,43.64947],[18.65392,43.64861],[18.65304,43.64662],[18.65258,43.64331],[18.651,43.64176]]}}]}