{"type":"FeatureCollection","features":[{"type":"Feature","properties":{"name":"TET_B-01-NW_20240507","country":"BE","lengthKm":422},"geometry":{"type":"LineString","coordinates":[[4.97792,51.23329],[4.9773,51.2324],[4.97694,51.22896],[4.97356,51.22603],[4.97845,51.20702],[4.98189,51.20232],[4.98284,51.20003],[4.98263,51.19837],[4.97712,51.19733],[4.97396,51.19515],[4.96696,51.19177],[4.96624,51.18829],[4.96306,51.18888],[4.96152,51.18854],[4.96149,51.18944],[4.95831,51.19186],[4.95504,51.18907],[4.95325,51.18825],[4.95226,51.18835],[4.95086,51.18789],[4.9514,51.18679],[4.9572,51.18238],[4.95733,51.18163],[4.95453,51.17834],[4.9553,51.17722],[4.95393,51.17633],[4.95444,51.17521],[4.95397,51.17277],[4.95051,51.1733],[4.94699,51.17301],[4.947,51.17056],[4.94551,51.1674],[4.94609,51.16642],[4.94442,51.16677],[4.94416,51.16614],[4.94398,51.16485],[4.94485,51.16193],[4.9418,51.16023],[4.93987,51.15776],[4.94029,51.15684],[4.94347,51.15597],[4.9461,51.15635],[4.94822,51.15619],[4.95499,51.15479],[4.96167,51.15507],[4.96338,51.15264],[4.96456,51.14905],[4.96707,51.1453],[4.96729,51.14344],[4.97004,51.14037],[4.97133,51.13778],[4.97135,51.13614],[4.97864,51.13241],[4.97992,51.13127],[4.98118,51.13128],[4.98339,51.12786],[4.98351,51.12682],[4.97973,51.12094],[4.97887,51.11871],[4.97258,51.11996],[4.97068,51.11941],[4.96747,51.12023],[4.96695,51.11928],[4.96755,51.11793],[4.96624,51.11704],[4.96398,51.11657],[4.96556,51.11464],[4.96593,51.11113],[4.96868,51.11133],[4.97439,51.10753],[4.97618,51.10841],[4.97917,51.10646],[4.98054,51.10698],[4.98186,51.10636],[4.98928,51.1049],[4.99183,51.1037],[4.99117,51.09721],[4.98578,51.09475],[4.98514,51.09311],[4.98132,51.09191],[4.98133,51.09083],[4.98015,51.09013],[4.9804,51.08936],[4.97894,51.08882],[4.97478,51.08795],[4.97322,51.08829],[4.9725,51.08917],[4.97108,51.08931],[4.9658,51.08879],[4.96426,51.08952],[4.95938,51.08913],[4.95498,51.08687],[4.95475,51.08546],[4.95216,51.08254],[4.95276,51.08141],[4.94937,51.08334],[4.944,51.08307],[4.94335,51.08376],[4.93724,51.08434],[4.93447,51.08422],[4.93205,51.08282],[4.93376,51.08064],[4.92754,51.07613],[4.92607,51.07556],[4.91925,51.07596],[4.91672,51.07557],[4.91603,51.07674],[4.91555,51.07678],[4.91438,51.07514],[4.90918,51.07247],[4.90621,51.06915],[4.9068,51.06675],[4.90866,51.06629],[4.91111,51.06328],[4.91314,51.05745],[4.91886,51.05836],[4.91785,51.05243],[4.91806,51.04882],[4.9212,51.04762],[4.92481,51.04698],[4.92415,51.04589],[4.92601,51.04521],[4.93616,51.04271],[4.93645,51.0386],[4.94144,51.03454],[4.94439,51.03059],[4.94943,51.02886],[4.95287,51.02613],[4.95488,51.02526],[4.94994,51.0243],[4.94561,51.02269],[4.94908,51.01948],[4.9482,51.0184],[4.95174,51.01425],[4.95076,51.01338],[4.95123,51.01115],[4.94836,51.01147],[4.94731,51.01102],[4.94866,51.00943],[4.9517,51.00873],[4.95502,51.00897],[4.95293,51.00394],[4.95269,50.99974],[4.95122,50.9947],[4.95244,50.99038],[4.95585,50.9861],[4.94894,50.98361],[4.94593,50.9833],[4.94841,50.98045],[4.94851,50.97804],[4.94516,50.97592],[4.94294,50.97371],[4.93988,50.97159],[4.94675,50.97159],[4.94642,50.96986],[4.94718,50.96517],[4.95577,50.96555],[4.9641,50.96678],[4.96342,50.96548],[4.96441,50.96297],[4.9622,50.95886],[4.96101,50.95365],[4.96207,50.9513],[4.96382,50.94928],[4.96425,50.9464],[4.96844,50.94117],[4.96789,50.93809],[4.96678,50.93717],[4.96623,50.93398],[4.96731,50.93342],[4.96742,50.93271],[4.96497,50.93192],[4.96699,50.9277],[4.96564,50.92667],[4.96523,50.92577],[4.96632,50.92513],[4.96732,50.92253],[4.96206,50.91725],[4.96401,50.91439],[4.95942,50.91335],[4.95772,50.91242],[4.9517,50.91061],[4.95109,50.90928],[4.94887,50.90829],[4.95166,50.90236],[4.95406,50.89981],[4.95523,50.8994],[4.95626,50.89837],[4.95792,50.89793],[4.95801,50.89726],[4.95537,50.89551],[4.95531,50.89421],[4.94919,50.8902],[4.94886,50.88953],[4.95015,50.88667],[4.9502,50.88527],[4.94412,50.88159],[4.94159,50.88057],[4.94278,50.87761],[4.9426,50.87443],[4.94326,50.8737],[4.94566,50.87279],[4.93912,50.86541],[4.93362,50.86324],[4.93205,50.86208],[4.93461,50.85996],[4.93248,50.85897],[4.9322,50.85801],[4.93066,50.85726],[4.93098,50.85657],[4.92448,50.85348],[4.92058,50.85204],[4.91816,50.85163],[4.91795,50.85126],[4.91788,50.84932],[4.92008,50.84342],[4.9222,50.84227],[4.93086,50.8324],[4.93079,50.82953],[4.93399,50.82251],[4.93283,50.82244],[4.93259,50.82331],[4.92963,50.8238],[4.92734,50.81845],[4.92718,50.81521],[4.9209,50.8339],[4.91813,50.83738],[4.91557,50.83603],[4.91112,50.83554],[4.90796,50.83253],[4.89827,50.82666],[4.8958,50.82462],[4.89162,50.82251],[4.89083,50.82239],[4.88592,50.82394],[4.88772,50.82162],[4.88774,50.82056],[4.88712,50.81995],[4.8874,50.81868],[4.8864,50.8176],[4.88751,50.81638],[4.88706,50.81578],[4.88328,50.81467],[4.88125,50.81579],[4.87901,50.81494],[4.87394,50.81504],[4.87024,50.81416],[4.86229,50.81398],[4.8562,50.81291],[4.85281,50.81373],[4.84885,50.81372],[4.84509,50.81291],[4.8425,50.81163],[4.83539,50.81122],[4.83155,50.81042],[4.81996,50.80159],[4.81852,50.79968],[4.81281,50.80081],[4.80534,50.80437],[4.79481,50.80839],[4.79274,50.81094],[4.79053,50.81202],[4.78314,50.80698],[4.7819,50.80532],[4.78148,50.80219],[4.77973,50.79922],[4.77358,50.7926],[4.77501,50.78819],[4.77505,50.78472],[4.77607,50.78246],[4.77632,50.78073],[4.77576,50.77917],[4.77827,50.77538],[4.76898,50.77376],[4.75852,50.77338],[4.75478,50.77277],[4.75545,50.77043],[4.75151,50.76635],[4.74926,50.7623],[4.74858,50.76159],[4.74691,50.76096],[4.74655,50.7588],[4.7437,50.75745],[4.74649,50.75432],[4.74835,50.74697],[4.74967,50.74444],[4.75321,50.74243],[4.75761,50.74187],[4.76061,50.7421],[4.7611,50.74136],[4.7465,50.7395],[4.74805,50.73452],[4.74807,50.73184],[4.74583,50.73147],[4.74268,50.73017],[4.74011,50.7306],[4.73809,50.73028],[4.73751,50.72911],[4.73798,50.72802],[4.73762,50.72642],[4.73433,50.72326],[4.73727,50.7221],[4.73322,50.72028],[4.73125,50.71972],[4.72888,50.7196],[4.72991,50.7187],[4.72781,50.71869],[4.72566,50.71805],[4.72527,50.71729],[4.72336,50.71663],[4.72007,50.71637],[4.71415,50.71936],[4.71515,50.72029],[4.71473,50.72083],[4.71493,50.72238],[4.71351,50.72316],[4.71203,50.72316],[4.70657,50.72448],[4.7033,50.72642],[4.69939,50.72397],[4.69866,50.72287],[4.69787,50.72347],[4.69457,50.72325],[4.69259,50.72287],[4.68998,50.72177],[4.68919,50.7189],[4.69048,50.71673],[4.69037,50.71585],[4.67806,50.70565],[4.67559,50.7],[4.67064,50.69996],[4.66959,50.69916],[4.66728,50.69903],[4.66554,50.69839],[4.66261,50.69983],[4.65856,50.69815],[4.65657,50.69807],[4.65422,50.69887],[4.65127,50.69896],[4.64476,50.69779],[4.64127,50.69662],[4.63815,50.69334],[4.63599,50.69216],[4.63484,50.69041],[4.63383,50.68994],[4.63274,50.69017],[4.62761,50.68967],[4.62605,50.68983],[4.61619,50.68788],[4.61575,50.68833],[4.61654,50.69028],[4.61618,50.69049],[4.61556,50.68791],[4.61385,50.68782],[4.61307,50.68683],[4.60195,50.68452],[4.59833,50.68711],[4.59637,50.68929],[4.59333,50.69119],[4.58984,50.69236],[4.58692,50.69109],[4.58912,50.68983],[4.58712,50.68776],[4.58523,50.68471],[4.58162,50.68409],[4.58041,50.68423],[4.57735,50.68574],[4.56899,50.68425],[4.56845,50.6845],[4.56456,50.68435],[4.56046,50.68218],[4.55825,50.68197],[4.55608,50.68227],[4.55534,50.68291],[4.55144,50.68295],[4.55145,50.68389],[4.55075,50.68413],[4.5488,50.6839],[4.54198,50.68472],[4.5378,50.68352],[4.53297,50.68344],[4.53545,50.68084],[4.53591,50.67915],[4.53429,50.67687],[4.52766,50.67305],[4.52742,50.67209],[4.52843,50.66833],[4.52751,50.66537],[4.52728,50.66164],[4.52487,50.66152],[4.51953,50.66035],[4.50934,50.65925],[4.51035,50.6577],[4.50843,50.65632],[4.50799,50.65448],[4.51031,50.65315],[4.51148,50.65146],[4.51102,50.64866],[4.51175,50.64799],[4.51275,50.64529],[4.51326,50.64216],[4.51198,50.64165],[4.51353,50.64007],[4.51695,50.63972],[4.51772,50.63905],[4.51696,50.63783],[4.51555,50.63746],[4.51518,50.63532],[4.51326,50.63366],[4.51466,50.63271],[4.51498,50.63141],[4.5145,50.62933],[4.51349,50.62754],[4.51124,50.61928],[4.50812,50.61685],[4.51028,50.61354],[4.51161,50.61378],[4.51263,50.61285],[4.51149,50.61094],[4.51385,50.60816],[4.5124,50.6046],[4.50959,50.6041],[4.4986,50.60027],[4.49884,50.59936],[4.49768,50.59848],[4.49889,50.59747],[4.50135,50.59728],[4.50175,50.59624],[4.50104,50.59449],[4.49683,50.59137],[4.49896,50.59133],[4.50232,50.59009],[4.50598,50.59168],[4.51333,50.59195],[4.52119,50.59121],[4.52437,50.59035],[4.52707,50.59068],[4.52903,50.59019],[4.5304,50.58923],[4.52948,50.58668],[4.52999,50.58544],[4.52892,50.58302],[4.53151,50.58418],[4.53184,50.58397],[4.53073,50.58278],[4.53094,50.58237],[4.53449,50.58274],[4.53594,50.58254],[4.53603,50.58167],[4.53749,50.58032],[4.53474,50.57919],[4.53813,50.57937],[4.5395,50.57855],[4.53916,50.57756],[4.54407,50.57462],[4.5455,50.57401],[4.55242,50.57294],[4.55194,50.57138],[4.55017,50.56996],[4.5488,50.5703],[4.54743,50.57012],[4.5464,50.57107],[4.54511,50.57121],[4.54247,50.56842],[4.54067,50.56766],[4.53846,50.56816],[4.53665,50.56933],[4.53527,50.55952],[4.52798,50.55877],[4.52576,50.55819],[4.52069,50.55578],[4.52564,50.55079],[4.51519,50.55198],[4.50991,50.55511],[4.50719,50.55761],[4.50331,50.56006],[4.50056,50.55947],[4.49744,50.55941],[4.49789,50.56129],[4.4947,50.56468],[4.49223,50.5654],[4.47955,50.55696],[4.47089,50.55304],[4.46521,50.55107],[4.46004,50.54754],[4.4594,50.54667],[4.45285,50.5506],[4.45203,50.54995],[4.45204,50.55078],[4.44689,50.55115],[4.44174,50.55251],[4.44055,50.55323],[4.43714,50.5509],[4.43177,50.54846],[4.4301,50.54685],[4.42627,50.54447],[4.42194,50.53951],[4.42185,50.53845],[4.41999,50.53832],[4.41734,50.53879],[4.41449,50.53771],[4.41318,50.53855],[4.41062,50.53812],[4.40989,50.53546],[4.40878,50.53458],[4.39869,50.53033],[4.39743,50.52934],[4.3902,50.52831],[4.39251,50.52632],[4.39835,50.52267],[4.39967,50.52063],[4.39882,50.51847],[4.39135,50.51045],[4.39139,50.50981],[4.38982,50.50794],[4.39021,50.5076],[4.38207,50.50869],[4.36997,50.51171],[4.36212,50.51409],[4.35627,50.51758],[4.35412,50.5217],[4.35378,50.52362],[4.3484,50.52254],[4.34683,50.52187],[4.34345,50.52198],[4.33553,50.52396],[4.33321,50.52619],[4.31729,50.52647],[4.32005,50.52757],[4.32273,50.52983],[4.31799,50.53148],[4.31286,50.53403],[4.30919,50.5378],[4.30242,50.53597],[4.29511,50.54327],[4.2931,50.54409],[4.29045,50.54397],[4.28435,50.54494],[4.28048,50.54701],[4.27731,50.54791],[4.27262,50.55029],[4.27135,50.55128],[4.27469,50.55576],[4.27034,50.55305],[4.26974,50.55429],[4.26724,50.55673],[4.2663,50.55492],[4.26131,50.55232],[4.25975,50.55053],[4.25879,50.55011],[4.25877,50.55167],[4.25493,50.55998],[4.25314,50.56098],[4.25312,50.5618],[4.25431,50.56251],[4.25577,50.56271],[4.25962,50.56249],[4.26,50.56452],[4.25751,50.5661],[4.25702,50.56692],[4.25893,50.56661],[4.26072,50.56705],[4.25825,50.56705],[4.25756,50.56745],[4.25768,50.56827],[4.25967,50.56999],[4.26518,50.57217],[4.26951,50.57466],[4.26643,50.57637],[4.26294,50.57659],[4.25851,50.57883],[4.25862,50.58042],[4.26794,50.58297],[4.2662,50.5844],[4.2634,50.5845],[4.26189,50.58647],[4.25864,50.58819],[4.2583,50.58921],[4.25644,50.59027],[4.25535,50.59317],[4.25822,50.59399],[4.2618,50.59347],[4.26739,50.59441],[4.26852,50.5948],[4.26846,50.59559],[4.2676,50.59595],[4.26283,50.5947],[4.25544,50.5966],[4.25187,50.5965],[4.25243,50.59242],[4.25177,50.58855],[4.24767,50.5882],[4.24521,50.58853],[4.24113,50.58772],[4.23412,50.58947],[4.23507,50.5908],[4.23477,50.59341],[4.2337,50.59526],[4.2338,50.59916],[4.2328,50.59928],[4.23361,50.60072],[4.23197,50.60102],[4.23234,50.60144],[4.23477,50.60127],[4.23488,50.60193],[4.23139,50.604],[4.2297,50.60619],[4.22226,50.60742],[4.21851,50.6086],[4.21139,50.6087],[4.21079,50.60773],[4.20779,50.6074],[4.19814,50.60296],[4.19572,50.60248],[4.19285,50.6009],[4.19027,50.59883],[4.18894,50.5988],[4.18707,50.60044],[4.18552,50.60019],[4.18383,50.60157],[4.18054,50.6008],[4.17294,50.5976],[4.17127,50.59641],[4.17107,50.59549],[4.16922,50.59401],[4.16781,50.59118],[4.16372,50.58767],[4.1611,50.58864],[4.15936,50.59007],[4.16015,50.59075],[4.15988,50.59342],[4.15853,50.59523],[4.15262,50.59875],[4.15172,50.59873],[4.15025,50.59793],[4.14483,50.60277],[4.14326,50.60219],[4.14281,50.60039],[4.1417,50.59934],[4.13841,50.59841],[4.13476,50.59683],[4.13118,50.59447],[4.13298,50.59067],[4.12852,50.58683],[4.12605,50.58337],[4.12487,50.5803],[4.12307,50.57955],[4.12032,50.57661],[4.11893,50.57668],[4.11728,50.57777],[4.11575,50.57803],[4.11367,50.58382],[4.11346,50.58526],[4.11412,50.58657],[4.1132,50.58751],[4.11509,50.58904],[4.10983,50.59206],[4.11007,50.59303],[4.10844,50.59487],[4.11382,50.59655],[4.11333,50.59706],[4.11592,50.59891],[4.11286,50.60039],[4.11146,50.60389],[4.11069,50.60444],[4.11395,50.60683],[4.11288,50.60734],[4.11108,50.60751],[4.10835,50.60603],[4.10543,50.60882],[4.10408,50.60931],[4.10138,50.61146],[4.09691,50.61116],[4.09236,50.61187],[4.08659,50.61092],[4.08327,50.60994],[4.08245,50.6121],[4.08056,50.6138],[4.0788,50.61672],[4.07687,50.61822],[4.07408,50.61884],[4.07249,50.61996],[4.0729,50.62062],[4.07237,50.62122],[4.06855,50.62371],[4.06692,50.62412],[4.06784,50.62564],[4.06765,50.62818],[4.06256,50.63064],[4.06114,50.63026],[4.05962,50.63094],[4.05872,50.63077],[4.05717,50.62985],[4.05687,50.62884],[4.0538,50.62809],[4.05187,50.62652],[4.05082,50.62648],[4.03941,50.62805],[4.03715,50.6291],[4.03527,50.63112],[4.03005,50.63227],[4.02509,50.63178],[4.02303,50.63069],[4.02061,50.63118],[4.01776,50.63112],[4.01123,50.62839],[4.00907,50.62588],[4.0113,50.62588],[4.01501,50.62464],[4.01276,50.62],[4.00801,50.61938],[4.00282,50.62107],[3.99793,50.61906],[3.99405,50.6194],[3.99078,50.61816],[3.9901,50.61682],[3.99059,50.61524],[3.99175,50.61275],[3.99366,50.61045],[3.98724,50.61039],[3.98278,50.60809],[3.97119,50.60801],[3.96815,50.60698],[3.96362,50.60616],[3.96128,50.60702],[3.96025,50.60886],[3.9551,50.61129],[3.96308,50.61502],[3.96817,50.61803],[3.96446,50.61946],[3.95265,50.61753],[3.95323,50.61713],[3.95274,50.6164],[3.95008,50.61579],[3.94875,50.6147],[3.94705,50.61455],[3.94626,50.61496],[3.92592,50.60584],[3.92362,50.61077],[3.92813,50.6147],[3.92871,50.6162],[3.92712,50.61719],[3.92783,50.61822],[3.92549,50.61921],[3.9212,50.62021],[3.92025,50.61949],[3.92038,50.61895],[3.91793,50.61691],[3.9166,50.61715],[3.91266,50.61646],[3.90508,50.62399],[3.90583,50.62479],[3.90497,50.62526],[3.89834,50.6235],[3.89165,50.62028],[3.88849,50.61953],[3.88429,50.61922],[3.87708,50.615],[3.87779,50.61266],[3.87729,50.61034],[3.87985,50.60601],[3.88279,50.60423],[3.88369,50.60404],[3.88498,50.60492],[3.88646,50.60519],[3.8904,50.60292],[3.89407,50.60172],[3.89545,50.59781],[3.89345,50.58835],[3.89568,50.58811],[3.89431,50.58509],[3.89545,50.58449],[3.89253,50.5809],[3.89407,50.57659],[3.89124,50.57421],[3.88566,50.57088],[3.88328,50.56713],[3.88386,50.56683],[3.8833,50.56303],[3.88116,50.5587],[3.8795,50.55749],[3.87629,50.55363],[3.8759,50.55192],[3.87375,50.55273],[3.87062,50.55303],[3.8677,50.5541],[3.865,50.55449],[3.86225,50.55389],[3.86084,50.55428],[3.85697,50.55415],[3.85191,50.55247],[3.85242,50.55222],[3.82865,50.53707],[3.82612,50.53823],[3.82354,50.53565],[3.81687,50.53898],[3.81683,50.53996],[3.8147,50.54155],[3.81073,50.54303],[3.80878,50.54333],[3.80717,50.54436],[3.80118,50.54475],[3.80105,50.54314],[3.79891,50.54067],[3.78582,50.54552],[3.7882,50.54962],[3.77707,50.55185],[3.7632,50.56086],[3.76159,50.56176],[3.75885,50.56209],[3.75698,50.56449],[3.75541,50.5643],[3.75406,50.56483],[3.75533,50.56588],[3.75415,50.56711],[3.74827,50.56927],[3.73718,50.57118],[3.73179,50.57367],[3.72381,50.5793],[3.71246,50.58378],[3.6995,50.5867],[3.6863,50.58751],[3.68703,50.59219],[3.68379,50.59625],[3.68353,50.59998],[3.68471,50.60189],[3.6825,50.60273],[3.68066,50.60174],[3.67345,50.60556],[3.66982,50.60565],[3.66304,50.60989],[3.66302,50.61133],[3.668,50.61333],[3.66441,50.61749],[3.66381,50.6174],[3.66377,50.61828],[3.65755,50.62479],[3.66467,50.62972],[3.66469,50.63039],[3.6634,50.63114],[3.66735,50.6324],[3.66926,50.63474],[3.66688,50.63612],[3.6645,50.63987],[3.66362,50.64023],[3.65888,50.63938],[3.65731,50.63942],[3.65705,50.64028],[3.65321,50.6447],[3.64969,50.6456],[3.64836,50.64672],[3.63905,50.64584],[3.63673,50.64813],[3.63338,50.64751],[3.63248,50.64796],[3.63066,50.64809],[3.62484,50.64693],[3.62311,50.64989],[3.62062,50.65189],[3.61884,50.65146],[3.60858,50.64596],[3.60643,50.64528],[3.60648,50.64487],[3.60345,50.64328],[3.60079,50.64262],[3.59849,50.643],[3.5959,50.64285],[3.58931,50.64077],[3.58659,50.63899],[3.5818,50.63732],[3.57545,50.6421],[3.57212,50.64757],[3.57006,50.64764],[3.56948,50.64993],[3.5674,50.65204],[3.56584,50.65294],[3.56324,50.65229],[3.56238,50.65131],[3.56058,50.65077],[3.55539,50.64661],[3.55303,50.64562],[3.54916,50.64476],[3.54419,50.64165],[3.54517,50.63996],[3.548,50.6376],[3.54631,50.63547],[3.54307,50.63455],[3.5417,50.63457],[3.53781,50.63693],[3.53462,50.63706],[3.53176,50.63421],[3.52816,50.63309],[3.52567,50.63045],[3.52384,50.63088],[3.52326,50.63039],[3.5206,50.62991],[3.51844,50.63242],[3.51605,50.63221],[3.51513,50.63264],[3.51535,50.63318],[3.51513,50.63264],[3.51262,50.63343],[3.51101,50.63343],[3.50968,50.63453],[3.50814,50.63425],[3.507,50.63303],[3.50316,50.63421],[3.50236,50.63485],[3.50226,50.6359],[3.499,50.63678],[3.49803,50.63633],[3.49777,50.63487],[3.4982,50.63335],[3.49927,50.63247],[3.49721,50.63034],[3.49749,50.62985],[3.497,50.62906],[3.49412,50.62674],[3.49172,50.62586],[3.48887,50.62363],[3.48962,50.62251],[3.48548,50.62097],[3.48603,50.62],[3.47915,50.62052],[3.47807,50.61989],[3.47277,50.61959],[3.4717,50.61895],[3.46936,50.61869],[3.46887,50.6194],[3.46752,50.61966],[3.46724,50.6217],[3.46801,50.62296],[3.47005,50.62395],[3.47076,50.62554],[3.47825,50.62376],[3.48099,50.62382],[3.48498,50.62474],[3.48513,50.62854],[3.4847,50.6297],[3.47818,50.6326],[3.47372,50.63103],[3.47252,50.63333],[3.47498,50.63566],[3.47419,50.64103],[3.47149,50.64292],[3.469,50.64393],[3.47181,50.64569],[3.48039,50.6492],[3.48423,50.65272],[3.48404,50.65489],[3.48507,50.65669],[3.4843,50.65777],[3.48299,50.65824],[3.48056,50.65699],[3.47968,50.65757],[3.47857,50.65729],[3.47707,50.65826],[3.47606,50.65815],[3.4741,50.65901],[3.4702,50.65995],[3.46735,50.66019],[3.46578,50.66107],[3.46541,50.66229],[3.46372,50.66375],[3.46477,50.66519],[3.4652,50.66832],[3.4626,50.66888],[3.45835,50.66886],[3.45636,50.66785],[3.45454,50.66922],[3.45647,50.67298],[3.45951,50.67476],[3.45447,50.67744],[3.45438,50.67901],[3.45286,50.67955],[3.45426,50.68077],[3.44235,50.6877],[3.43091,50.69148],[3.42857,50.6948],[3.42177,50.69806],[3.41419,50.69341],[3.41166,50.69502],[3.40379,50.69826],[3.40239,50.69821],[3.39941,50.69982],[3.39847,50.69911],[3.39656,50.69927],[3.38763,50.70289],[3.38379,50.69755],[3.38804,50.69602],[3.38677,50.69427],[3.39184,50.69287],[3.39008,50.68914],[3.37746,50.69152],[3.37222,50.69293],[3.37036,50.69399],[3.36169,50.69731],[3.3624,50.69978],[3.36049,50.70049],[3.35896,50.7004],[3.35562,50.69933],[3.35422,50.69954],[3.35186,50.70105],[3.34993,50.70036],[3.34864,50.70038],[3.34662,50.70266],[3.34459,50.70369],[3.34253,50.7056],[3.34285,50.70733],[3.34004,50.70965],[3.33469,50.71216],[3.33448,50.71306],[3.33712,50.71375],[3.33862,50.71283],[3.34493,50.71459],[3.35212,50.71506],[3.35463,50.71437],[3.3568,50.7175],[3.35712,50.71815],[3.35619,50.71817],[3.34963,50.72115],[3.34622,50.72626],[3.34506,50.72686],[3.34684,50.72832],[3.34765,50.73064],[3.34692,50.73207],[3.34733,50.73383],[3.34489,50.73516],[3.34761,50.73815],[3.34364,50.73913],[3.34169,50.74074],[3.33881,50.7416],[3.3407,50.74381],[3.33705,50.74645],[3.33424,50.74737],[3.33107,50.75048],[3.33045,50.75008],[3.33094,50.74922],[3.32699,50.74849],[3.32716,50.74774],[3.32291,50.74606],[3.32167,50.7466],[3.32075,50.74636],[3.32444,50.74239],[3.31871,50.74083],[3.3153,50.74426],[3.31244,50.74838],[3.30937,50.74802],[3.30648,50.75171],[3.305,50.75448],[3.30113,50.75325],[3.29903,50.75999],[3.29721,50.76201],[3.29543,50.76308],[3.29605,50.76411],[3.298,50.76557],[3.29596,50.76892],[3.29474,50.76969],[3.29367,50.77115],[3.29304,50.7728],[3.29369,50.77336],[3.29294,50.77426],[3.29302,50.77602],[3.29184,50.77748],[3.28401,50.77739],[3.28034,50.7778],[3.27991,50.77935],[3.27566,50.78228],[3.27448,50.78552],[3.2694,50.78392],[3.26899,50.7848],[3.26345,50.78252],[3.26234,50.78276],[3.2612,50.78533],[3.2579,50.78542],[3.25511,50.78505],[3.25099,50.78381],[3.24807,50.78535],[3.24412,50.78076],[3.24333,50.77823],[3.24043,50.77883],[3.23891,50.77789],[3.2379,50.77608],[3.23249,50.77756],[3.23228,50.77621],[3.23283,50.7751],[3.23223,50.77402],[3.22751,50.77441],[3.22736,50.77394],[3.22653,50.77398],[3.22056,50.77199],[3.22013,50.77241],[3.21666,50.77143],[3.21745,50.76917],[3.21691,50.76885],[3.21552,50.7699],[3.21322,50.77074],[3.21271,50.77248],[3.21093,50.77308],[3.21206,50.77362],[3.20745,50.77892],[3.20698,50.78119],[3.20472,50.78228],[3.20387,50.78608],[3.20249,50.78765],[3.20286,50.78937],[3.20078,50.7899],[3.19736,50.79471],[3.18958,50.79467],[3.18919,50.79679],[3.18794,50.79795],[3.18893,50.80057],[3.18842,50.80261],[3.18479,50.80911],[3.17758,50.80741],[3.17299,50.80928],[3.1667,50.81773],[3.16273,50.82213],[3.16151,50.82449],[3.1608,50.82411],[3.15544,50.82363],[3.15007,50.82938],[3.14808,50.83044],[3.14584,50.83357],[3.14436,50.83773],[3.13522,50.83556],[3.13162,50.83565],[3.1311,50.8349],[3.12323,50.83329],[3.12323,50.83494],[3.12216,50.83666],[3.12027,50.83664],[3.11701,50.83735],[3.11456,50.83707],[3.11162,50.83666],[3.11175,50.83616],[3.10495,50.83445],[3.1037,50.83606],[3.09669,50.83498],[3.09619,50.83582],[3.09445,50.83503],[3.0933,50.83825],[3.08718,50.83254],[3.08621,50.83329],[3.08619,50.83413],[3.08525,50.83419],[3.08372,50.83599],[3.08068,50.83554],[3.0801,50.83644],[3.08025,50.8376],[3.07765,50.84106],[3.07428,50.84127],[3.07083,50.84071],[3.06903,50.84121],[3.06448,50.84069],[3.063,50.83996],[3.06044,50.842],[3.05896,50.84265],[3.05244,50.84415],[3.05008,50.84543],[3.04508,50.84677],[3.04336,50.84803],[3.03862,50.84569],[3.03772,50.84486],[3.03429,50.84346],[3.02886,50.84722],[3.02461,50.84792],[3.01334,50.84153],[3.01165,50.83921],[3.01425,50.82771],[3.0157,50.8261],[3.01781,50.82192],[3.01397,50.82267],[3.01176,50.82177],[3.00515,50.82108],[3.00435,50.82029],[3.00461,50.81941],[3.00167,50.81675],[2.98122,50.81288],[2.98227,50.81175],[2.98073,50.81145],[2.97781,50.81168],[2.96938,50.80795],[2.96305,50.806],[2.96056,50.80394],[2.9588,50.8046],[2.9518,50.80447],[2.95088,50.80417],[2.94949,50.80454],[2.93779,50.80542],[2.92172,50.80464],[2.91938,50.80673],[2.91784,50.80612],[2.9155,50.80657],[2.91395,50.80827],[2.909,50.80638],[2.90726,50.80692],[2.90438,50.80634],[2.90262,50.80801],[2.90063,50.80765],[2.89634,50.80891],[2.89325,50.80902],[2.88923,50.81213],[2.88546,50.81406],[2.87835,50.81681],[2.87576,50.81655],[2.87205,50.81913],[2.86917,50.82209],[2.86393,50.82368],[2.85578,50.82968],[2.85168,50.83114],[2.84715,50.83492],[2.8399,50.83921],[2.83825,50.83855],[2.83164,50.83795],[2.82924,50.8393],[2.82145,50.84159],[2.81853,50.84322],[2.81544,50.84569],[2.81241,50.84451],[2.80611,50.83874],[2.80372,50.83951],[2.79911,50.84391],[2.79578,50.84782],[2.79456,50.84998],[2.79164,50.85194],[2.78956,50.85464],[2.78802,50.85576],[2.78639,50.85606],[2.78072,50.85958],[2.78617,50.86599],[2.78576,50.86663],[2.78933,50.86951],[2.79046,50.87157],[2.7942,50.87389],[2.79029,50.87627],[2.78692,50.88146],[2.78675,50.88217],[2.78739,50.88258],[2.7836,50.88689],[2.77937,50.88949],[2.77383,50.89202],[2.76594,50.88762],[2.75373,50.88269],[2.75128,50.88447],[2.7509,50.88556],[2.74847,50.88693],[2.74731,50.88854],[2.74733,50.88934],[2.74414,50.89241],[2.7419,50.89268],[2.73545,50.8918],[2.7339,50.89204],[2.72997,50.89116],[2.72339,50.8967],[2.72049,50.89504],[2.72004,50.89554],[2.72068,50.89517],[2.71701,50.89251],[2.71182,50.89322],[2.71062,50.89294],[2.70929,50.89161],[2.70766,50.89118],[2.69897,50.88657],[2.69605,50.88927],[2.69616,50.88998],[2.6953,50.89082],[2.69038,50.89123],[2.68721,50.89447],[2.68429,50.8988],[2.67987,50.90155],[2.67581,50.90775],[2.6732,50.91011],[2.66895,50.91614],[2.66848,50.91736],[2.66893,50.91908],[2.67028,50.92024],[2.67137,50.92049],[2.67157,50.92172],[2.66768,50.92425],[2.6659,50.92384],[2.66459,50.9256],[2.65959,50.92376],[2.65567,50.9215],[2.65637,50.91627],[2.65376,50.91633],[2.65206,50.91678],[2.64957,50.92313],[2.64777,50.92547],[2.63927,50.9229],[2.63807,50.92345],[2.63369,50.92099],[2.63037,50.91835],[2.62545,50.91837],[2.62039,50.92159],[2.61691,50.92513],[2.61696,50.92959],[2.61606,50.9326],[2.6164,50.93429],[2.61445,50.93753],[2.61563,50.93882],[2.61623,50.94058],[2.61724,50.95208],[2.62161,50.95472],[2.62318,50.95468],[2.62635,50.95532],[2.62657,50.95577],[2.62627,50.95676],[2.62462,50.95796],[2.62193,50.96146],[2.62095,50.96405],[2.62125,50.9647],[2.61934,50.96641],[2.61942,50.9674],[2.61766,50.96869],[2.61835,50.97658],[2.61938,50.9806],[2.61818,50.98161],[2.61994,50.98454],[2.62039,50.98682],[2.6147,50.98909],[2.61264,50.99047],[2.60955,50.99133],[2.60391,50.99549],[2.59893,50.99755],[2.5949,51.00102],[2.59329,51.00128],[2.58687,51.00426],[2.58797,51.00811],[2.58782,51.01137],[2.5884,51.01116],[2.58136,51.01742],[2.57812,51.0225],[2.5738,51.02137]]}},{"type":"Feature","properties":{"name":"TET_B-02-E_20240507","country":"BE","lengthKm":127.9},"geometry":{"type":"LineString","coordinates":[[6.13637,50.13024],[6.13725,50.13092],[6.13675,50.13235],[6.13762,50.13521],[6.13539,50.13599],[6.1349,50.13796],[6.13422,50.13858],[6.13309,50.13875],[6.13269,50.13988],[6.13304,50.14049],[6.13565,50.14029],[6.13885,50.14127],[6.13993,50.14302],[6.13821,50.14427],[6.13838,50.14613],[6.13756,50.14753],[6.13745,50.1501],[6.13662,50.15072],[6.13286,50.15183],[6.13172,50.15264],[6.1311,50.15425],[6.13202,50.15551],[6.13366,50.15624],[6.13744,50.15718],[6.14093,50.15686],[6.14316,50.15798],[6.14386,50.15928],[6.14335,50.16051],[6.14356,50.16331],[6.14008,50.16652],[6.1393,50.16824],[6.13964,50.16946],[6.14249,50.17056],[6.14438,50.17202],[6.14316,50.17488],[6.1444,50.17613],[6.14376,50.17782],[6.14258,50.17716],[6.14071,50.17925],[6.1406,50.18273],[6.13693,50.18622],[6.13915,50.1881],[6.14093,50.18841],[6.14263,50.18931],[6.14531,50.19216],[6.14677,50.19285],[6.15123,50.19419],[6.1543,50.19392],[6.1553,50.1934],[6.15487,50.19402],[6.15161,50.19505],[6.14957,50.19619],[6.14924,50.19716],[6.15209,50.19712],[6.15717,50.19929],[6.15996,50.20172],[6.16168,50.20237],[6.16324,50.20203],[6.16376,50.20266],[6.16623,50.20303],[6.1692,50.20474],[6.17119,50.20697],[6.17125,50.20885],[6.17021,50.21083],[6.17213,50.21111],[6.17381,50.2125],[6.17653,50.21289],[6.17909,50.21384],[6.17946,50.21603],[6.18017,50.21678],[6.17955,50.21732],[6.17914,50.21899],[6.18205,50.22303],[6.1831,50.22376],[6.1832,50.2246],[6.18531,50.22453],[6.18546,50.22522],[6.18708,50.22604],[6.18988,50.22864],[6.19002,50.22967],[6.19316,50.23105],[6.19173,50.23138],[6.18948,50.23122],[6.18805,50.23182],[6.1882,50.23243],[6.19003,50.23393],[6.19017,50.2349],[6.18728,50.23651],[6.18489,50.23669],[6.18366,50.2377],[6.18231,50.24124],[6.18292,50.24295],[6.1805,50.24466],[6.18077,50.24616],[6.18037,50.2473],[6.17512,50.24792],[6.17311,50.24977],[6.16805,50.25098],[6.16747,50.25167],[6.16772,50.25313],[6.1672,50.25417],[6.16536,50.25507],[6.16267,50.25473],[6.15864,50.25335],[6.15463,50.25034],[6.15283,50.24972],[6.15028,50.24989],[6.1479,50.25065],[6.14677,50.25209],[6.14413,50.25125],[6.1385,50.25173],[6.13577,50.25039],[6.13232,50.24742],[6.13043,50.24647],[6.12799,50.24555],[6.125,50.24522],[6.12349,50.25037],[6.12311,50.25525],[6.11926,50.25772],[6.11351,50.26048],[6.11093,50.26209],[6.11107,50.26237],[6.10791,50.26297],[6.10147,50.26623],[6.09817,50.26661],[6.09667,50.26639],[6.09391,50.26715],[6.08939,50.26767],[6.08638,50.26749],[6.0859,50.26815],[6.08078,50.26934],[6.07934,50.27018],[6.0784,50.27021],[6.07745,50.27166],[6.07556,50.27307],[6.07383,50.2732],[6.07095,50.27478],[6.06556,50.27655],[6.05677,50.2815],[6.05404,50.28095],[6.04958,50.28152],[6.05006,50.28271],[6.03856,50.28424],[6.03465,50.28172],[6.0309,50.28612],[6.02794,50.28713],[6.02658,50.28808],[6.02439,50.29155],[6.02358,50.29207],[6.02268,50.29453],[6.02078,50.29728],[6.01548,50.30092],[6.01534,50.30183],[6.01364,50.30213],[6.01376,50.30367],[6.01274,50.30797],[6.01301,50.31071],[6.01246,50.31199],[5.9971,50.31292],[5.98551,50.31252],[5.96851,50.30813],[5.96756,50.3088],[5.96791,50.3101],[5.96667,50.31076],[5.96394,50.31384],[5.96131,50.31224],[5.95932,50.31279],[5.96029,50.31434],[5.96396,50.31726],[5.96405,50.3207],[5.95895,50.32294],[5.9564,50.3229],[5.94948,50.32088],[5.93719,50.31884],[5.93036,50.31916],[5.92839,50.31873],[5.91955,50.32095],[5.92222,50.32355],[5.92215,50.32554],[5.91966,50.32644],[5.91653,50.32835],[5.90958,50.33034],[5.90963,50.3311],[5.90849,50.33145],[5.90814,50.33219],[5.9062,50.33327],[5.90569,50.33442],[5.9047,50.33504],[5.90459,50.33679],[5.90313,50.33787],[5.90369,50.34038],[5.89981,50.34221],[5.89887,50.34551],[5.89702,50.34621],[5.89228,50.34657],[5.89086,50.34754],[5.89034,50.34872],[5.89036,50.35281],[5.88731,50.35782],[5.88893,50.36157],[5.88833,50.36272],[5.88689,50.36373],[5.88575,50.3638],[5.88202,50.36156],[5.87785,50.36078],[5.87544,50.36127],[5.87375,50.36249],[5.87479,50.36581],[5.87144,50.36777],[5.8716,50.37025],[5.87105,50.3722],[5.87202,50.37243],[5.87319,50.37527],[5.87942,50.38148],[5.88014,50.38282],[5.88151,50.39029],[5.88098,50.39157],[5.87812,50.39377],[5.87935,50.39593],[5.87904,50.39716],[5.87802,50.39824],[5.87488,50.39942],[5.87045,50.39911],[5.86898,50.39942],[5.86322,50.40294],[5.86308,50.40395],[5.86089,50.40682],[5.86114,50.40873],[5.86042,50.4138],[5.85982,50.41434],[5.86369,50.41584],[5.86538,50.41589],[5.86707,50.41743],[5.86483,50.41959],[5.86298,50.42032],[5.86057,50.42063],[5.86,50.42117],[5.85989,50.42255],[5.85897,50.42318],[5.85986,50.42431],[5.85849,50.42881],[5.85969,50.42902],[5.86414,50.42675],[5.8661,50.42654],[5.87088,50.42892],[5.87226,50.4303],[5.87327,50.43223],[5.8711,50.43197],[5.87015,50.43459],[5.8691,50.43504],[5.86992,50.43656],[5.8708,50.4418],[5.87366,50.44601],[5.87995,50.44981],[5.88154,50.45379],[5.88247,50.4581],[5.88107,50.4591],[5.87855,50.45909],[5.87001,50.4602],[5.87287,50.46512],[5.87246,50.46633],[5.89783,50.48505],[5.89776,50.48576],[5.89573,50.48833],[5.89582,50.49273],[5.89494,50.49475],[5.90065,50.49604],[5.90259,50.4957],[5.9039,50.49824],[5.90344,50.49906],[5.9035,50.50173],[5.90431,50.50294],[5.90657,50.50471],[5.91029,50.50558],[5.905,50.50883],[5.91084,50.51266],[5.91436,50.51767],[5.91543,50.51807],[5.91483,50.51876],[5.91147,50.52047],[5.90967,50.52204],[5.91232,50.52361],[5.91297,50.5254],[5.91456,50.52733],[5.91509,50.52955],[5.91878,50.53188],[5.92124,50.53239],[5.92403,50.53385],[5.92405,50.53805],[5.92235,50.54006],[5.92345,50.54164],[5.92209,50.54426],[5.9225,50.5453],[5.92885,50.54961],[5.93339,50.55507],[5.93536,50.55606],[5.93946,50.55762],[5.94778,50.55785],[5.95106,50.55891],[5.95326,50.55921],[5.94789,50.56104],[5.94724,50.56243],[5.95049,50.5649],[5.95209,50.56529],[5.9534,50.56694],[5.95607,50.56904],[5.95991,50.57035],[5.9595,50.57186],[5.96137,50.57259],[5.96609,50.57273],[5.96876,50.57454],[5.96782,50.5757],[5.96511,50.58239],[5.97001,50.58806],[5.96545,50.5835],[5.96446,50.58366],[5.96382,50.5845],[5.96324,50.58699],[5.96413,50.58809],[5.96827,50.59022],[5.97039,50.59201],[5.97536,50.59415],[5.97608,50.59543],[5.97172,50.60238],[5.96979,50.60242],[5.96612,50.60423],[5.96197,50.60745],[5.95538,50.60905],[5.95053,50.60897],[5.94831,50.60959],[5.94534,50.61141],[5.94195,50.62024],[5.94227,50.62146],[5.94,50.62288],[5.93764,50.62298],[5.93786,50.62504],[5.9359,50.62413],[5.93441,50.62287],[5.92956,50.62291],[5.92655,50.6224],[5.92583,50.62261],[5.92503,50.62478],[5.91984,50.62445],[5.9189,50.62945],[5.91924,50.63234],[5.91784,50.63265],[5.91414,50.63517],[5.90811,50.6376],[5.90527,50.63932],[5.90129,50.63973],[5.89963,50.64024],[5.89906,50.64005],[5.89403,50.64387],[5.89279,50.64397],[5.89217,50.64523],[5.88942,50.64744],[5.88311,50.65143],[5.88317,50.65714],[5.88455,50.65906],[5.87702,50.66292],[5.87293,50.66632],[5.8844,50.67363],[5.88421,50.67586],[5.88626,50.67682],[5.88987,50.68023],[5.89069,50.68291],[5.89366,50.68831],[5.89538,50.68928],[5.89619,50.69112],[5.89907,50.69151],[5.89831,50.69256],[5.89444,50.69431],[5.89411,50.69509],[5.89092,50.69651],[5.88731,50.70022],[5.88516,50.70096],[5.88054,50.70104],[5.88497,50.70526],[5.88932,50.70816],[5.88554,50.70977],[5.8847,50.70963],[5.88261,50.71007],[5.88402,50.71242],[5.88397,50.71398],[5.88468,50.71505],[5.88739,50.7175],[5.8894,50.71811],[5.89161,50.71969],[5.88896,50.72519],[5.88567,50.72943],[5.88583,50.73016],[5.88633,50.73094],[5.89474,50.73639],[5.8924,50.7385],[5.88663,50.74031],[5.88829,50.74257],[5.88246,50.74769],[5.88369,50.74846],[5.88614,50.74907],[5.88655,50.74958],[5.88848,50.74728],[5.89144,50.74705],[5.89077,50.74774],[5.89299,50.74727],[5.89378,50.74611],[5.89507,50.74555],[5.89992,50.74775],[5.90414,50.75072],[5.90475,50.75051],[5.90494,50.749],[5.90555,50.74876],[5.9086,50.74975],[5.922,50.75109],[5.92622,50.75196],[5.93239,50.75133],[5.93511,50.75054],[5.93634,50.74914],[5.94207,50.75091],[5.94378,50.75061],[5.94541,50.75129],[5.94817,50.75139],[5.96376,50.75392],[5.96822,50.75398],[5.97349,50.752],[5.97427,50.75045],[5.97678,50.74873],[5.98012,50.74921],[5.99026,50.74671],[5.99139,50.7469],[5.99376,50.74617],[5.99557,50.74686],[5.99691,50.74643],[6.00094,50.748],[6.01004,50.75057],[6.0138,50.75094],[6.01802,50.75278],[6.01905,50.7516],[6.01973,50.75263],[6.01744,50.75394],[6.01934,50.75398],[6.02126,50.75349],[6.02087,50.75451]]}},{"type":"Feature","properties":{"name":"TET_B-03-SE&MID_20240507","country":"BE","lengthKm":226.5},"geometry":{"type":"LineString","coordinates":[[5.73908,49.83364],[5.7385,49.83418],[5.73825,49.83587],[5.7395,49.83843],[5.74269,49.84055],[5.74502,49.83999],[5.74662,49.84039],[5.7471,49.8412],[5.74675,49.84379],[5.74786,49.84652],[5.74942,49.84753],[5.75253,49.84786],[5.74602,49.8521],[5.74559,49.8538],[5.74827,49.85525],[5.75401,49.85678],[5.75666,49.85682],[5.75721,49.85725],[5.75679,49.85854],[5.75435,49.8616],[5.75617,49.86581],[5.75282,49.86781],[5.75161,49.86909],[5.74965,49.86971],[5.75045,49.86977],[5.7513,49.87061],[5.75286,49.87377],[5.75198,49.87628],[5.75062,49.87806],[5.75153,49.87902],[5.75074,49.8817],[5.74955,49.8827],[5.7386,49.8835],[5.72989,49.88661],[5.72916,49.88799],[5.72283,49.88936],[5.71452,49.88856],[5.70975,49.88869],[5.70209,49.88735],[5.69778,49.8852],[5.69364,49.88372],[5.68876,49.8795],[5.6871,49.87927],[5.68549,49.8802],[5.68397,49.87993],[5.682,49.87809],[5.67722,49.87566],[5.67276,49.87793],[5.67105,49.8784],[5.6657,49.87693],[5.66362,49.87591],[5.6629,49.87622],[5.66266,49.87789],[5.65866,49.8784],[5.65982,49.88004],[5.65902,49.88046],[5.65579,49.88089],[5.65596,49.88165],[5.65238,49.88264],[5.6438,49.88291],[5.63925,49.88346],[5.63605,49.88258],[5.6342,49.88357],[5.63263,49.88348],[5.62955,49.88215],[5.62023,49.87711],[5.61861,49.87561],[5.61893,49.87551],[5.61816,49.87544],[5.61502,49.87314],[5.61343,49.87289],[5.61221,49.87376],[5.61303,49.87566],[5.61114,49.87625],[5.60929,49.87838],[5.60783,49.87879],[5.60492,49.8784],[5.59972,49.87979],[5.59732,49.8789],[5.59376,49.879],[5.58924,49.87825],[5.58446,49.87885],[5.58161,49.87959],[5.57564,49.88011],[5.57296,49.87972],[5.57017,49.87728],[5.56724,49.87648],[5.56412,49.87795],[5.5628,49.87982],[5.55971,49.88041],[5.56118,49.88435],[5.5605,49.88681],[5.56389,49.88789],[5.56543,49.88988],[5.56719,49.89098],[5.57065,49.89433],[5.56976,49.89735],[5.5674,49.89738],[5.56458,49.89932],[5.56598,49.90069],[5.56517,49.90266],[5.56797,49.90278],[5.57179,49.9046],[5.57019,49.90743],[5.57033,49.91052],[5.56944,49.91101],[5.56719,49.91054],[5.56292,49.91119],[5.56039,49.91285],[5.55853,49.91317],[5.55413,49.91527],[5.55018,49.91772],[5.5434,49.92028],[5.54235,49.91785],[5.53961,49.91633],[5.53625,49.91659],[5.52634,49.91642],[5.52091,49.91517],[5.51059,49.91529],[5.50683,49.91583],[5.49341,49.91432],[5.48705,49.91486],[5.48262,49.91621],[5.47727,49.9162],[5.47234,49.91758],[5.46936,49.91977],[5.46004,49.91992],[5.45755,49.92319],[5.45826,49.92365],[5.45592,49.92595],[5.45221,49.9271],[5.44982,49.9293],[5.44864,49.92916],[5.44778,49.92969],[5.4444,49.92907],[5.44279,49.92935],[5.44078,49.93183],[5.43901,49.93317],[5.43256,49.93622],[5.42731,49.93369],[5.42343,49.9332],[5.41981,49.93197],[5.41687,49.93217],[5.4148,49.93282],[5.41008,49.93314],[5.40444,49.93447],[5.39839,49.93532],[5.39666,49.93677],[5.40025,49.9394],[5.40863,49.9475],[5.40786,49.95081],[5.40539,49.95225],[5.40488,49.95694],[5.40065,49.96294],[5.39822,49.96879],[5.39573,49.97211],[5.3963,49.97391],[5.39738,49.97509],[5.3954,49.97669],[5.39385,49.97877],[5.39164,49.97998],[5.39042,49.98125],[5.38974,49.98131],[5.38935,49.98209],[5.38522,49.98382],[5.3827,49.98535],[5.38028,49.98716],[5.38,49.98827],[5.37863,49.98865],[5.37606,49.99018],[5.36651,49.99334],[5.35644,49.99736],[5.35336,49.99905],[5.35186,50.00084],[5.3517,50.00336],[5.34805,50.0059],[5.34598,50.00859],[5.34324,50.00921],[5.34267,50.01106],[5.34409,50.01262],[5.34317,50.01398],[5.33624,50.01641],[5.33306,50.01816],[5.3284,50.01764],[5.32547,50.01976],[5.31965,50.01802],[5.31683,50.01802],[5.31331,50.02036],[5.30901,50.02116],[5.30099,50.02118],[5.29719,50.02242],[5.29391,50.0204],[5.29412,50.01931],[5.29344,50.01904],[5.29058,50.02147],[5.28399,50.02359],[5.28235,50.02358],[5.28071,50.0221],[5.27595,50.0217],[5.27407,50.02121],[5.27004,50.02124],[5.26808,50.0205],[5.26677,50.01876],[5.26588,50.01865],[5.26525,50.02121],[5.26321,50.02277],[5.26182,50.02626],[5.25711,50.02747],[5.25385,50.02897],[5.25172,50.03049],[5.25217,50.03276],[5.25166,50.03443],[5.25251,50.03593],[5.25222,50.03742],[5.25267,50.03893],[5.2607,50.03915],[5.26444,50.03988],[5.26406,50.0407],[5.2627,50.04162],[5.2596,50.04204],[5.26142,50.04279],[5.26283,50.04401],[5.26603,50.04913],[5.26552,50.05043],[5.26581,50.0511],[5.26411,50.05285],[5.26247,50.05302],[5.26049,50.05383],[5.25543,50.05331],[5.25485,50.05358],[5.25794,50.05592],[5.25891,50.05487],[5.26351,50.05619],[5.26662,50.05905],[5.27084,50.06135],[5.27989,50.06274],[5.28243,50.06402],[5.28373,50.06694],[5.28845,50.06952],[5.29298,50.07034],[5.29464,50.07117],[5.29969,50.07156],[5.30101,50.07202],[5.30249,50.07327],[5.30796,50.07494],[5.31082,50.07493],[5.31768,50.07624],[5.321,50.07893],[5.32534,50.08079],[5.32492,50.08299],[5.32685,50.08756],[5.32644,50.08858],[5.32332,50.08944],[5.32344,50.08993],[5.32581,50.09061],[5.32624,50.0911],[5.32582,50.09174],[5.32227,50.09273],[5.32178,50.09515],[5.31912,50.0961],[5.31567,50.09642],[5.31333,50.09704],[5.31333,50.09895],[5.31428,50.10193],[5.31746,50.10426],[5.31237,50.10719],[5.30958,50.1076],[5.31056,50.10974],[5.31229,50.11097],[5.31255,50.11193],[5.31202,50.11253],[5.30877,50.11231],[5.30178,50.11286],[5.30073,50.11261],[5.29611,50.11358],[5.29613,50.11126],[5.29304,50.11041],[5.28804,50.11067],[5.28457,50.11028],[5.28288,50.11285],[5.28333,50.11225],[5.2833,50.11392],[5.28678,50.11667],[5.28708,50.11797],[5.28661,50.1194],[5.2876,50.12113],[5.28625,50.12156],[5.28544,50.1224],[5.28537,50.12426],[5.28311,50.12517],[5.28278,50.12579],[5.27795,50.12887],[5.2756,50.13139],[5.27271,50.13104],[5.26874,50.12936],[5.25867,50.12379],[5.25347,50.12341],[5.24847,50.12103],[5.24783,50.11926],[5.245,50.11584],[5.23651,50.10839],[5.23164,50.1105],[5.22958,50.11086],[5.22698,50.11055],[5.22369,50.10938],[5.21613,50.10897],[5.2081,50.10954],[5.2057,50.11071],[5.19867,50.10967],[5.1974,50.10909],[5.19694,50.10698],[5.19364,50.10649],[5.1895,50.10822],[5.17898,50.11043],[5.17134,50.1116],[5.16855,50.11157],[5.16491,50.11326],[5.16312,50.11367],[5.16021,50.11534],[5.15911,50.11767],[5.15688,50.12047],[5.1563,50.1229],[5.15698,50.12387],[5.15644,50.12506],[5.15686,50.12665],[5.15644,50.12783],[5.15018,50.13163],[5.14956,50.13374],[5.14872,50.13367],[5.14604,50.13815],[5.1417,50.1384],[5.1395,50.13625],[5.13826,50.13589],[5.13642,50.13265],[5.13381,50.13118],[5.12776,50.12877],[5.1231,50.1258],[5.12369,50.12289],[5.11702,50.12293],[5.11315,50.12138],[5.10604,50.1174],[5.09641,50.11489],[5.0954,50.11544],[5.09373,50.11487],[5.09237,50.11529],[5.08776,50.11501],[5.07713,50.12064],[5.07867,50.1236],[5.08169,50.12692],[5.08092,50.12705],[5.07947,50.12661],[5.07729,50.12548],[5.07775,50.12689],[5.07648,50.12783],[5.06539,50.13038],[5.05314,50.13187],[5.05226,50.13231],[5.04901,50.13592],[5.04443,50.13374],[5.03885,50.13202],[5.03557,50.13137],[5.03348,50.13202],[5.02943,50.14489],[5.02563,50.14779],[5.024,50.14966],[5.02271,50.15016],[5.0221,50.15119],[5.0259,50.15483],[5.02772,50.15848],[5.02619,50.16444],[5.02675,50.16792],[5.02313,50.16703],[5.02007,50.1678],[5.01879,50.16704],[5.01701,50.16695],[5.01533,50.16787],[5.01268,50.16851],[5.01289,50.17156],[5.01243,50.17239],[5.0133,50.1738],[5.01265,50.17562],[5.01313,50.1785],[5.01269,50.17977],[5.01291,50.18276],[5.01139,50.1848],[5.00954,50.18592],[5.00744,50.18596],[5.00512,50.18849],[5.0091,50.19125],[5.01354,50.19171],[5.01996,50.19342],[5.02326,50.19364],[5.02296,50.1928],[5.02446,50.19301],[5.02612,50.19175],[5.02768,50.19381],[5.02888,50.19458],[5.02925,50.19355],[5.03288,50.19349],[5.03865,50.1943],[5.03659,50.19514],[5.02715,50.20413],[5.0229,50.20602],[5.02341,50.2069],[5.02644,50.20778],[5.02768,50.20883],[5.02736,50.21104],[5.02884,50.21301],[5.02822,50.21325],[5.0264,50.21256],[5.02558,50.21282],[5.01891,50.22157],[5.01311,50.21981],[5.01363,50.21917],[5.00667,50.21633],[5.00578,50.21696],[5.00421,50.21684],[5.00385,50.21803],[5.00614,50.22033],[5.00535,50.22147],[5.0056,50.22241],[5.00069,50.21977],[4.98994,50.21743],[4.9864,50.22059],[4.98616,50.22165],[4.9829,50.22194],[4.9797,50.22404],[4.98071,50.22561],[4.98146,50.22873],[4.98254,50.22984],[4.98529,50.23031],[4.98657,50.23174],[4.99209,50.23529],[4.9899,50.23813],[4.98973,50.23901],[4.98814,50.23896],[4.98689,50.24054],[4.9867,50.24417],[4.98737,50.24486],[4.98979,50.24552],[4.98987,50.24704],[4.98907,50.24718],[4.98926,50.24997],[4.98799,50.25097],[4.98448,50.25154],[4.98378,50.25354],[4.98491,50.25568],[4.98332,50.25656],[4.98108,50.2567],[4.98194,50.25876],[4.98129,50.25962],[4.98061,50.26311],[4.98086,50.26476],[4.98,50.2672],[4.98309,50.26838],[4.98584,50.27028],[4.9871,50.2721],[4.98688,50.27408],[4.98559,50.27262],[4.98399,50.27177],[4.97925,50.27197],[4.97704,50.27275],[4.97288,50.27299],[4.9714,50.27198],[4.96948,50.27194],[4.96567,50.27258],[4.96272,50.27229],[4.96183,50.27354],[4.96099,50.27382],[4.95919,50.27371],[4.95723,50.27284],[4.95415,50.2731],[4.95358,50.27366],[4.95413,50.27498],[4.95342,50.27547],[4.95241,50.27541],[4.95036,50.27434],[4.94874,50.27415],[4.94721,50.27473],[4.9462,50.27471],[4.94588,50.27557],[4.94514,50.27586],[4.94418,50.27529],[4.94168,50.27567],[4.94061,50.27496],[4.93816,50.27468],[4.93029,50.27496],[4.9271,50.27289],[4.92176,50.27357],[4.91934,50.27351],[4.91862,50.27313],[4.91735,50.27041],[4.91512,50.27035],[4.91017,50.26938],[4.9074,50.26932],[4.9062,50.2697],[4.90989,50.26986],[4.91673,50.27119],[4.91729,50.27389],[4.91925,50.27487],[4.919,50.2791],[4.91984,50.28306],[4.9187,50.2853],[4.92205,50.29072],[4.92395,50.29158],[4.92334,50.29347],[4.92512,50.29565],[4.92312,50.29538],[4.92013,50.29599],[4.91671,50.29579],[4.91678,50.29763],[4.91605,50.29901],[4.92049,50.30488],[4.92172,50.31007],[4.9199,50.31043],[4.91889,50.31154],[4.91657,50.31213],[4.91453,50.31434],[4.91383,50.3174],[4.91309,50.318],[4.91348,50.31896],[4.91201,50.31968],[4.91202,50.3205],[4.91096,50.32073],[4.91052,50.3217],[4.91064,50.32347],[4.90935,50.32643],[4.90958,50.33133],[4.90699,50.33186],[4.90372,50.33373],[4.90248,50.33339],[4.90181,50.33376],[4.90053,50.3323],[4.90031,50.33303],[4.89992,50.33301],[4.8985,50.33166],[4.89684,50.33138],[4.89651,50.33196],[4.89962,50.33613],[4.90219,50.33697],[4.90638,50.33725],[4.90718,50.33777],[4.90716,50.3383],[4.90929,50.33892],[4.91673,50.3379],[4.91923,50.33717],[4.92503,50.3382],[4.92696,50.33908],[4.92783,50.34233],[4.93156,50.34435],[4.93214,50.34593],[4.93586,50.34736],[4.93668,50.34723],[4.93731,50.34624],[4.93892,50.3459],[4.94228,50.34629],[4.94984,50.34603],[4.95427,50.34772],[4.95577,50.34905],[4.96088,50.34982],[4.96138,50.35123],[4.95971,50.35052],[4.95559,50.35035],[4.95314,50.34935],[4.948,50.34964],[4.94339,50.35096],[4.93763,50.35448],[4.93612,50.36121],[4.93882,50.36226],[4.94045,50.36245],[4.93847,50.3633],[4.93386,50.36403],[4.93212,50.36503],[4.93289,50.36675],[4.9345,50.36846],[4.93383,50.37336],[4.92486,50.37294],[4.91866,50.37352],[4.91514,50.37536],[4.9116,50.37611],[4.91866,50.37648],[4.91791,50.37843],[4.91818,50.37912],[4.91737,50.37961],[4.91082,50.381],[4.90902,50.38088],[4.90849,50.37879],[4.9055,50.37785],[4.90475,50.37691],[4.89967,50.37834],[4.89834,50.37817],[4.89801,50.37894],[4.89705,50.37937],[4.89675,50.3807],[4.89462,50.38212],[4.89447,50.38347],[4.89325,50.3847],[4.89321,50.38729],[4.89175,50.38929],[4.88173,50.3904],[4.88312,50.3966],[4.88413,50.398],[4.88359,50.39821],[4.87969,50.39781],[4.87896,50.39819],[4.87851,50.39931],[4.88014,50.40414],[4.88057,50.41171],[4.87793,50.41096],[4.8751,50.41128],[4.87102,50.40937],[4.87031,50.40838],[4.86772,50.40667],[4.86254,50.40989],[4.86139,50.41132],[4.85634,50.40976],[4.85639,50.40941],[4.8586,50.40916],[4.8583,50.40847],[4.84684,50.40553],[4.83991,50.40819],[4.84081,50.41014],[4.83834,50.40823],[4.82971,50.40575],[4.82965,50.40854],[4.82879,50.41023],[4.82218,50.41716],[4.83044,50.42579],[4.83325,50.428],[4.83268,50.43008],[4.83553,50.4377],[4.83654,50.43898],[4.83527,50.4384],[4.83089,50.43924],[4.82248,50.43905],[4.82014,50.43849],[4.8198,50.43958],[4.81856,50.4401],[4.81474,50.44006],[4.80169,50.44145],[4.79948,50.44111],[4.79721,50.43982],[4.7962,50.43969],[4.79463,50.44087],[4.79375,50.44379],[4.7921,50.44194],[4.78978,50.44081],[4.7877,50.44059],[4.78274,50.44137],[4.77064,50.44422],[4.768,50.44437],[4.76762,50.44772],[4.76915,50.45009],[4.76916,50.45111],[4.76764,50.4519],[4.76582,50.45192],[4.76385,50.45331],[4.75701,50.45356],[4.7538,50.4574],[4.75195,50.459],[4.75057,50.45957],[4.74808,50.45975],[4.74592,50.45948],[4.73997,50.45785],[4.73526,50.45605],[4.73347,50.45605],[4.73381,50.45691],[4.73292,50.45802],[4.73358,50.4593],[4.73286,50.46028],[4.73067,50.46172],[4.72709,50.46252],[4.72541,50.47057],[4.71966,50.46978],[4.72011,50.47145],[4.71887,50.47465],[4.71808,50.4751],[4.71969,50.47584],[4.72063,50.47577],[4.72065,50.47817],[4.72169,50.48058],[4.72307,50.48201],[4.72303,50.48282],[4.72484,50.48644],[4.72504,50.48944],[4.72268,50.48945],[4.71675,50.49042],[4.70775,50.49043],[4.6904,50.49198],[4.68783,50.49276],[4.68477,50.49293],[4.67891,50.49248],[4.67549,50.49187],[4.67379,50.49118],[4.67477,50.48873],[4.67215,50.48706],[4.67402,50.48734],[4.67414,50.48706],[4.67279,50.48641],[4.67117,50.48638],[4.67208,50.4887],[4.67143,50.48979],[4.67022,50.49036],[4.67,50.49192],[4.67064,50.49333],[4.6694,50.49437],[4.66898,50.49571],[4.66983,50.4982],[4.66884,50.50052],[4.66954,50.50193],[4.66941,50.50422],[4.66775,50.50457],[4.66264,50.50345],[4.65713,50.50315],[4.65615,50.50378],[4.65515,50.50712],[4.65316,50.50729],[4.65354,50.50826],[4.65594,50.50966],[4.65626,50.51773],[4.65736,50.52037],[4.66417,50.51983],[4.66114,50.52241],[4.65995,50.52407],[4.66386,50.5249],[4.66813,50.52708],[4.68326,50.53302],[4.68345,50.53429],[4.68781,50.53622],[4.68651,50.53635],[4.68385,50.53569],[4.68011,50.54147],[4.66591,50.54076],[4.66515,50.53985],[4.66336,50.53947],[4.66282,50.5388],[4.6628,50.53925],[4.66014,50.54132],[4.65305,50.54386],[4.64746,50.54053],[4.64629,50.54131],[4.64503,50.54073],[4.63802,50.5437],[4.63563,50.54532],[4.62968,50.5473],[4.62791,50.54888],[4.62772,50.54984],[4.62595,50.55085],[4.62635,50.55158],[4.62529,50.55488],[4.6213,50.55385],[4.61675,50.5554],[4.61153,50.55601],[4.60649,50.55745],[4.60433,50.55449],[4.60349,50.55626],[4.6019,50.55625],[4.60129,50.55568],[4.59933,50.55617],[4.598,50.55674],[4.59566,50.55869],[4.59253,50.5594],[4.5922,50.56443],[4.58989,50.56333],[4.58914,50.56248],[4.58743,50.56282],[4.58503,50.56246],[4.58127,50.56119],[4.58,50.5635],[4.58137,50.56812],[4.57932,50.57231],[4.57776,50.57417],[4.57202,50.57871],[4.56949,50.57984],[4.56875,50.58175],[4.5694,50.57991],[4.56875,50.58171],[4.56719,50.58188],[4.56523,50.57949],[4.5622,50.57732],[4.56083,50.5768],[4.55883,50.57785],[4.55666,50.577],[4.55455,50.57423],[4.55251,50.57289]]}},{"type":"Feature","properties":{"name":"TET_B-04-S_20240507","country":"BE","lengthKm":66.1},"geometry":{"type":"LineString","coordinates":[[3.43223,50.50266],[3.43203,50.50369],[3.42797,50.50646],[3.42373,50.50831],[3.41956,50.50961],[3.42091,50.51006],[3.42247,50.51006],[3.42023,50.51241],[3.41949,50.51479],[3.42342,50.51603],[3.43197,50.51523],[3.43407,50.51579],[3.43784,50.5185],[3.43701,50.5201],[3.44235,50.52433],[3.44438,50.52417],[3.44534,50.52489],[3.44781,50.5249],[3.45106,50.52602],[3.45239,50.52699],[3.45369,50.52723],[3.45489,50.52652],[3.46082,50.52576],[3.46519,50.52645],[3.46683,50.52747],[3.46827,50.52614],[3.47024,50.52517],[3.46718,50.52232],[3.46837,50.5222],[3.46853,50.52177],[3.4669,50.51964],[3.46593,50.51611],[3.46634,50.51636],[3.46771,50.51622],[3.47004,50.51512],[3.47556,50.51347],[3.47874,50.51508],[3.48238,50.5176],[3.48367,50.51746],[3.48672,50.51577],[3.48344,50.51269],[3.48062,50.51199],[3.4801,50.51133],[3.48199,50.51146],[3.48375,50.5109],[3.48676,50.51072],[3.48901,50.51141],[3.4934,50.51036],[3.49511,50.51139],[3.49578,50.51271],[3.49955,50.51332],[3.5003,50.51374],[3.49986,50.51694],[3.50348,50.51705],[3.50736,50.51899],[3.51159,50.51965],[3.51236,50.52325],[3.514,50.52535],[3.51166,50.52578],[3.51095,50.52652],[3.51397,50.52684],[3.51621,50.5284],[3.51915,50.52952],[3.51972,50.52999],[3.51855,50.53069],[3.52093,50.53134],[3.52199,50.53002],[3.52467,50.53088],[3.52326,50.53498],[3.52483,50.53646],[3.52308,50.53759],[3.52258,50.5388],[3.5197,50.541],[3.51464,50.54309],[3.5126,50.54533],[3.50844,50.54659],[3.51429,50.55337],[3.51406,50.55446],[3.51254,50.55579],[3.51212,50.5576],[3.52645,50.55697],[3.52883,50.55751],[3.52396,50.56197],[3.52387,50.56258],[3.52463,50.56315],[3.52376,50.5636],[3.52593,50.5689],[3.52333,50.56983],[3.52463,50.57061],[3.5277,50.57579],[3.53348,50.57962],[3.53267,50.5804],[3.53268,50.58253],[3.52742,50.58348],[3.52368,50.585],[3.53052,50.59053],[3.53199,50.59028],[3.53221,50.59152],[3.5256,50.59221],[3.52666,50.59438],[3.5147,50.59534],[3.51735,50.59713],[3.51084,50.5976],[3.5045,50.59933],[3.50106,50.59884],[3.49585,50.59931],[3.49529,50.59901],[3.49383,50.5998],[3.50025,50.60599],[3.49528,50.60755],[3.50074,50.60925],[3.50351,50.60819],[3.50786,50.60989],[3.50813,50.61192],[3.50897,50.6126],[3.51211,50.61336],[3.51203,50.61491],[3.51472,50.61458],[3.51818,50.6136],[3.51935,50.61291],[3.52243,50.61451],[3.52439,50.61235],[3.52583,50.6131],[3.52859,50.61285],[3.52999,50.61316],[3.53463,50.61188],[3.53852,50.61027],[3.54088,50.60734],[3.54116,50.60554],[3.54289,50.60452],[3.54311,50.60358],[3.54431,50.60334],[3.54532,50.60431],[3.54626,50.60816],[3.54909,50.61091],[3.55118,50.61128],[3.55469,50.61105],[3.55883,50.6129],[3.55635,50.61522],[3.55769,50.61585],[3.56088,50.61629],[3.5651,50.61473],[3.57007,50.61358],[3.57475,50.61337],[3.57268,50.61005],[3.56982,50.60902],[3.57173,50.60769],[3.57363,50.60742],[3.57775,50.60586],[3.58103,50.60195],[3.58079,50.60068],[3.57963,50.59993],[3.57456,50.59898],[3.57474,50.59676],[3.57625,50.59448],[3.57871,50.59439],[3.58349,50.59506],[3.58409,50.59399],[3.60105,50.59624],[3.60152,50.59595],[3.59854,50.59526],[3.59828,50.59489],[3.60322,50.5952],[3.6068,50.59276],[3.60395,50.59145],[3.60206,50.58972],[3.59923,50.58935],[3.59809,50.58885],[3.59609,50.58635],[3.59318,50.58459],[3.59461,50.58246],[3.59973,50.57857],[3.59901,50.57745],[3.60788,50.57511],[3.6058,50.5725],[3.6033,50.57089],[3.60331,50.56966],[3.60187,50.56901],[3.59767,50.56576],[3.59364,50.56416],[3.59259,50.5617],[3.59448,50.55639],[3.5921,50.55608],[3.59095,50.5554],[3.59738,50.55147],[3.60055,50.5531],[3.60214,50.55309],[3.6031,50.55367],[3.60684,50.55139],[3.60623,50.55026],[3.6068,50.55012],[3.60966,50.55033],[3.61121,50.55194],[3.61562,50.55166],[3.62054,50.55273],[3.62422,50.55457],[3.62554,50.55544],[3.62582,50.55617],[3.62652,50.55635],[3.62927,50.54985],[3.63434,50.55074],[3.63623,50.55151],[3.6379,50.55408],[3.64393,50.55204],[3.6414,50.54858],[3.63692,50.54544],[3.63799,50.5448],[3.64392,50.54863],[3.64642,50.54927],[3.64707,50.5499],[3.6522,50.54815],[3.65289,50.55331],[3.65177,50.55931],[3.65203,50.56146],[3.65363,50.56406],[3.65357,50.56513],[3.66412,50.56645],[3.6692,50.56472],[3.6736,50.56208],[3.67509,50.56208],[3.67686,50.56278],[3.67888,50.56489],[3.68041,50.56803],[3.68034,50.56984],[3.68171,50.57302],[3.68412,50.5756],[3.68535,50.57849],[3.68756,50.58153],[3.69085,50.58515],[3.69157,50.58718]]}},{"type":"Feature","properties":{"name":"TET_B-05_20240507","country":"BE","lengthKm":82.7},"geometry":{"type":"LineString","coordinates":[[5.55964,49.88042],[5.55658,49.88245],[5.55163,49.88147],[5.55076,49.88184],[5.54905,49.8812],[5.54736,49.88169],[5.54165,49.88208],[5.53844,49.88014],[5.53534,49.87946],[5.53275,49.8795],[5.53009,49.87784],[5.53009,49.87739],[5.52751,49.87793],[5.52419,49.87644],[5.52161,49.87581],[5.51208,49.87526],[5.50209,49.87145],[5.4992,49.86876],[5.49669,49.86797],[5.5002,49.86519],[5.50049,49.86386],[5.50245,49.86187],[5.50351,49.85781],[5.50456,49.85596],[5.50579,49.85494],[5.50689,49.85265],[5.50733,49.85102],[5.5066,49.84808],[5.50694,49.84618],[5.50853,49.84505],[5.50682,49.84353],[5.50413,49.83932],[5.50136,49.83658],[5.49897,49.83595],[5.49962,49.8349],[5.49885,49.83406],[5.49663,49.834],[5.49484,49.83493],[5.48948,49.83572],[5.48652,49.8354],[5.48434,49.83558],[5.47834,49.83328],[5.47952,49.83182],[5.47909,49.8311],[5.47475,49.82793],[5.47394,49.82129],[5.47549,49.8188],[5.47412,49.81784],[5.47132,49.81768],[5.47041,49.8173],[5.47184,49.81645],[5.47526,49.81299],[5.47753,49.81266],[5.48122,49.80994],[5.4809,49.80899],[5.48232,49.80488],[5.4833,49.80424],[5.48616,49.80395],[5.48827,49.80201],[5.4843,49.79892],[5.47622,49.7943],[5.4755,49.79271],[5.47958,49.78878],[5.47795,49.78724],[5.47777,49.78493],[5.47638,49.78292],[5.47805,49.77883],[5.47694,49.77796],[5.47621,49.77605],[5.4754,49.77536],[5.46941,49.7732],[5.47584,49.77568],[5.47688,49.7779],[5.47809,49.77885],[5.47694,49.78076],[5.4764,49.78301],[5.47775,49.78488],[5.47793,49.78722],[5.47953,49.78904],[5.47795,49.78724],[5.47775,49.78488],[5.47638,49.78298],[5.47712,49.78034],[5.47808,49.77889],[5.47687,49.77787],[5.47606,49.77588],[5.47515,49.77524],[5.46929,49.77317],[5.46391,49.77204],[5.46101,49.77096],[5.45399,49.77049],[5.44959,49.76955],[5.44587,49.76923],[5.4422,49.76743],[5.43579,49.76698],[5.43373,49.76716],[5.43087,49.76934],[5.42803,49.77037],[5.42712,49.77006],[5.42616,49.76825],[5.42473,49.76746],[5.42208,49.76717],[5.41906,49.76605],[5.41556,49.7656],[5.40502,49.76713],[5.39912,49.76496],[5.39918,49.76393],[5.3947,49.76317],[5.39325,49.76453],[5.39219,49.76467],[5.38158,49.76379],[5.37491,49.76264],[5.36628,49.76184],[5.36081,49.75702],[5.353,49.74471],[5.35219,49.74066],[5.3512,49.74015],[5.34908,49.74018],[5.34948,49.73939],[5.34871,49.73858],[5.34609,49.73952],[5.34527,49.74026],[5.34311,49.74079],[5.34106,49.73895],[5.33943,49.73665],[5.33787,49.7296],[5.33875,49.72879],[5.34032,49.7254],[5.34584,49.72014],[5.34663,49.71866],[5.34852,49.71322],[5.34709,49.70904],[5.34511,49.70605],[5.34237,49.70369],[5.34255,49.7029],[5.34182,49.70242],[5.34157,49.70114],[5.3391,49.69949],[5.33095,49.69794],[5.32729,49.69822],[5.32266,49.69936],[5.32031,49.69143],[5.31663,49.69294],[5.31658,49.69226],[5.31889,49.68928],[5.3277,49.68118],[5.32864,49.67876],[5.33395,49.67449],[5.33384,49.67248],[5.33496,49.6725],[5.33693,49.67395],[5.33981,49.67428],[5.34831,49.67833],[5.35507,49.68025],[5.36027,49.68228],[5.36248,49.68028],[5.36745,49.67916],[5.36385,49.67452],[5.36408,49.67356],[5.36573,49.6719],[5.36604,49.66735],[5.36319,49.66409],[5.36311,49.66266],[5.36451,49.65896],[5.36116,49.65489],[5.35945,49.654],[5.36005,49.64958],[5.35966,49.64771],[5.35619,49.64606],[5.35638,49.64534],[5.35454,49.64431],[5.35204,49.64021],[5.35009,49.63841],[5.34801,49.63842],[5.34582,49.63459],[5.34801,49.63842],[5.35009,49.63841],[5.35204,49.64021],[5.35454,49.64431],[5.35638,49.64534],[5.35619,49.64606],[5.35957,49.64758],[5.36005,49.64958],[5.35945,49.654],[5.36116,49.65489],[5.36456,49.65907],[5.36311,49.66266],[5.36319,49.66409],[5.3658,49.66677],[5.36615,49.66886],[5.36561,49.67218],[5.36382,49.67432],[5.36745,49.67916],[5.36248,49.68028],[5.36027,49.68228],[5.35914,49.6819],[5.36027,49.68228],[5.36248,49.68028],[5.36122,49.67912],[5.36745,49.67916],[5.36382,49.67432],[5.36561,49.67218],[5.36615,49.66886],[5.3658,49.66677],[5.36319,49.66409],[5.36311,49.66266],[5.36456,49.65907],[5.36116,49.65489],[5.35945,49.654],[5.36005,49.64958],[5.35957,49.64758],[5.35619,49.64606],[5.35638,49.64534],[5.35454,49.64431],[5.35204,49.64021],[5.34995,49.63832],[5.34801,49.63842],[5.34593,49.6347],[5.34409,49.63402],[5.34414,49.63261],[5.34547,49.63063],[5.34281,49.62902],[5.34203,49.62802],[5.34176,49.62625],[5.34235,49.62199],[5.3395,49.61903],[5.33793,49.61844],[5.34065,49.61638],[5.33647,49.61558],[5.33342,49.61573],[5.33024,49.61673],[5.32645,49.61601],[5.32362,49.61443],[5.31695,49.60715],[5.31479,49.60635],[5.31125,49.60394],[5.30977,49.60109],[5.30632,49.60004],[5.30248,49.60458],[5.2997,49.60414],[5.29913,49.60296],[5.29471,49.59862],[5.28861,49.59634],[5.28433,49.59587],[5.28301,49.59375],[5.28204,49.5931],[5.27629,49.5922],[5.27767,49.58962],[5.26863,49.58672],[5.26385,49.5843],[5.26435,49.58441],[5.2657,49.58359],[5.26871,49.5806],[5.27353,49.57739],[5.27535,49.57588],[5.27726,49.57278],[5.27941,49.5714],[5.27389,49.57117],[5.27305,49.57082],[5.27148,49.56643],[5.26516,49.56414],[5.26176,49.56252],[5.25797,49.56002]]}},{"type":"Feature","properties":{"name":"TET_B-06_20240507","country":"BE","lengthKm":260.9},"geometry":{"type":"LineString","coordinates":[[5.12578,51.3491],[5.1059,51.34178],[5.10534,51.3413],[5.10553,51.33957],[5.10282,51.33801],[5.10303,51.33898],[5.102,51.33993],[5.09503,51.34192],[5.09198,51.33997],[5.08731,51.33868],[5.08839,51.33679],[5.08725,51.33541],[5.08739,51.33493],[5.08593,51.33428],[5.08689,51.3337],[5.08122,51.33194],[5.07624,51.32857],[5.07397,51.33615],[5.0641,51.33059],[5.06947,51.32637],[5.0686,51.32599],[5.06903,51.32547],[5.06807,51.32399],[5.06869,51.32295],[5.05681,51.32298],[5.05662,51.31919],[5.05432,51.32003],[5.05148,51.32002],[5.05604,51.31431],[5.05427,51.31407],[5.04608,51.31084],[5.04,51.30957],[5.03666,51.30834],[5.03949,51.30467],[5.03811,51.30403],[5.03697,51.30211],[5.03575,51.30167],[5.03406,51.30173],[5.03508,51.30051],[5.03311,51.30022],[5.03225,51.29943],[5.02891,51.30026],[5.02818,51.29945],[5.02838,51.29762],[5.03418,51.29551],[5.03966,51.29133],[5.0352,51.29389],[5.03363,51.29284],[5.01498,51.28874],[5.00968,51.2888],[5.0053,51.28792],[5.00875,51.28515],[5.00994,51.28343],[5.00513,51.27784],[5.00237,51.26744],[5.00337,51.26486],[5.00623,51.26262],[5.00848,51.25886],[5.01026,51.25803],[5.01037,51.25678],[5.01647,51.25533],[5.02201,51.25223],[5.0261,51.24897],[5.02845,51.24786],[5.03054,51.24971],[5.03269,51.24985],[5.03486,51.24843],[5.03847,51.2487],[5.03901,51.24646],[5.03726,51.24563],[5.03807,51.24431],[5.03726,51.24353],[5.03786,51.24266],[5.04569,51.2437],[5.05005,51.24147],[5.05018,51.2411],[5.04896,51.24081],[5.04951,51.23592],[5.04787,51.23362],[5.00872,51.23498],[5.00669,51.23545],[5.00625,51.23603],[5.00112,51.23471],[4.99389,51.23176],[4.99272,51.23272],[4.98774,51.23176],[4.98023,51.22657],[4.97838,51.22702],[4.97694,51.22896],[4.97243,51.22528],[4.95926,51.22033],[4.96168,51.21924],[4.95567,51.21713],[4.95506,51.21778],[4.94033,51.21261],[4.93717,51.21625],[4.93948,51.21711],[4.93643,51.22028],[4.93321,51.22053],[4.92639,51.22374],[4.92099,51.22463],[4.90806,51.22393],[4.90479,51.22444],[4.90135,51.23227],[4.9006,51.23265],[4.89615,51.23214],[4.89153,51.23248],[4.88925,51.23164],[4.88262,51.23038],[4.87802,51.22611],[4.87744,51.22771],[4.87558,51.23021],[4.87496,51.2303],[4.87186,51.2285],[4.86861,51.22766],[4.86446,51.22553],[4.86143,51.22264],[4.86042,51.22269],[4.85775,51.22414],[4.85684,51.22588],[4.86073,51.22613],[4.86248,51.22766],[4.8659,51.22885],[4.86743,51.23013],[4.86915,51.23335],[4.86512,51.23503],[4.86945,51.23929],[4.86591,51.24273],[4.86894,51.24463],[4.86668,51.24702],[4.86406,51.25115],[4.86389,51.25582],[4.86032,51.25978],[4.85934,51.26154],[4.85798,51.26223],[4.85081,51.2608],[4.84923,51.25987],[4.84844,51.2583],[4.84553,51.25731],[4.84242,51.25791],[4.84283,51.25879],[4.84177,51.26045],[4.84225,51.26189],[4.84423,51.26295],[4.84477,51.26397],[4.84299,51.26417],[4.84267,51.26792],[4.84114,51.26907],[4.84129,51.27025],[4.84267,51.2715],[4.84421,51.27184],[4.84739,51.27406],[4.85066,51.27475],[4.84948,51.27779],[4.84808,51.27888],[4.84513,51.2788],[4.84204,51.28071],[4.84108,51.28026],[4.84018,51.28048],[4.83753,51.28181],[4.83712,51.28267],[4.83472,51.28331],[4.83272,51.28235],[4.83199,51.28012],[4.82938,51.27751],[4.82687,51.27385],[4.82391,51.26808],[4.81827,51.26766],[4.81645,51.26476],[4.81975,51.2622],[4.81916,51.26101],[4.8195,51.25953],[4.81561,51.25912],[4.8122,51.25939],[4.8103,51.25402],[4.80642,51.25491],[4.80195,51.25449],[4.79344,51.25077],[4.79553,51.24845],[4.79461,51.24781],[4.79476,51.24641],[4.79133,51.24509],[4.78907,51.24168],[4.78768,51.24209],[4.78907,51.24168],[4.78755,51.23862],[4.79089,51.23584],[4.79359,51.23494],[4.79462,51.23322],[4.79457,51.23136],[4.79632,51.23055],[4.79695,51.23085],[4.79849,51.23064],[4.79949,51.2297],[4.79888,51.22945],[4.79924,51.22922],[4.79605,51.22924],[4.79311,51.22828],[4.79474,51.22502],[4.79637,51.22328],[4.79804,51.22264],[4.79206,51.22145],[4.78639,51.21878],[4.78423,51.21919],[4.78192,51.21863],[4.77948,51.22424],[4.77227,51.2215],[4.77144,51.22236],[4.76992,51.22095],[4.77028,51.22008],[4.75849,51.21788],[4.75907,51.21626],[4.75568,51.21581],[4.75635,51.21404],[4.75827,51.21149],[4.75599,51.20986],[4.7532,51.21115],[4.74778,51.21002],[4.74399,51.20798],[4.74124,51.20702],[4.74149,51.20642],[4.74009,51.20606],[4.73793,51.20449],[4.73299,51.20658],[4.729,51.20611],[4.72722,51.20695],[4.72485,51.20684],[4.72361,51.2088],[4.72128,51.20901],[4.71902,51.20969],[4.71675,51.20951],[4.71192,51.20747],[4.7094,51.20758],[4.70903,51.20803],[4.70497,51.20792],[4.69846,51.20534],[4.69622,51.20684],[4.69655,51.20727],[4.69477,51.20897],[4.69292,51.20858],[4.6921,51.20947],[4.68817,51.2084],[4.68753,51.20868],[4.68633,51.20856],[4.6855,51.20723],[4.68579,51.20517],[4.68812,51.20344],[4.68501,51.19977],[4.68345,51.19873],[4.6834,51.19762],[4.68027,51.19617],[4.67897,51.19436],[4.67424,51.19301],[4.67261,51.19169],[4.66951,51.19166],[4.66013,51.19454],[4.65861,51.19456],[4.65739,51.1939],[4.65557,51.1906],[4.65463,51.18978],[4.65204,51.18915],[4.65044,51.18796],[4.64887,51.18752],[4.64907,51.18708],[4.64572,51.18588],[4.63926,51.18599],[4.63601,51.18528],[4.63356,51.18561],[4.62949,51.18518],[4.62894,51.1853],[4.62866,51.18622],[4.62292,51.18768],[4.61872,51.18784],[4.61672,51.18861],[4.61035,51.18809],[4.60537,51.18873],[4.60221,51.18851],[4.59519,51.18934],[4.59095,51.18849],[4.59109,51.19011],[4.59046,51.19199],[4.59018,51.1926],[4.58884,51.19233],[4.58757,51.19599],[4.58434,51.19449],[4.58242,51.1943],[4.58068,51.19356],[4.57752,51.1948],[4.57186,51.19425],[4.57036,51.19323],[4.57057,51.19039],[4.57291,51.1893],[4.57415,51.18915],[4.57479,51.18762],[4.57452,51.18713],[4.57846,51.18641],[4.58121,51.17806],[4.5825,51.17764],[4.57219,51.17424],[4.56767,51.17341],[4.56798,51.1685],[4.5652,51.16736],[4.56513,51.16422],[4.55896,51.16366],[4.55704,51.1621],[4.55535,51.16186],[4.55267,51.16286],[4.54978,51.16317],[4.5411,51.16258],[4.54003,51.16339],[4.52598,51.16229],[4.52535,51.16016],[4.52113,51.16107],[4.51342,51.16052],[4.50425,51.15809],[4.50496,51.15508],[4.503,51.153],[4.50485,51.15008],[4.50659,51.14895],[4.51024,51.14772],[4.51032,51.14556],[4.51355,51.1403],[4.51357,51.1389],[4.51513,51.13801],[4.51664,51.13592],[4.52043,51.13533],[4.52417,51.13364],[4.52714,51.13288],[4.53053,51.13106],[4.53148,51.13129],[4.53403,51.13018],[4.5324,51.12878],[4.52982,51.12326],[4.52639,51.12095],[4.52435,51.11849],[4.52402,51.1178],[4.52499,51.11713],[4.52282,51.11604],[4.51692,51.11163],[4.51422,51.11044],[4.51231,51.11041],[4.5077,51.11174],[4.50605,51.11316],[4.50432,51.11335],[4.503,51.1127],[4.50286,51.1109],[4.50197,51.10975],[4.50265,51.10874],[4.49938,51.10807],[4.4975,51.10676],[4.49534,51.10625],[4.49264,51.10771],[4.49139,51.10898],[4.48888,51.10992],[4.48594,51.11033],[4.47991,51.1126],[4.47525,51.1175],[4.46919,51.11982],[4.46321,51.11402],[4.4647,51.11292],[4.46733,51.11221],[4.46269,51.11052],[4.46293,51.10857],[4.46386,51.1075],[4.45884,51.10735],[4.4531,51.10653],[4.44356,51.109],[4.44158,51.109],[4.44048,51.1085],[4.43565,51.10436],[4.43052,51.10144],[4.4276,51.10035],[4.42193,51.10106],[4.41664,51.10076],[4.41253,51.10122],[4.40791,51.10001],[4.40537,51.10016],[4.40177,51.09951],[4.40008,51.09537],[4.39666,51.0935],[4.39516,51.09206],[4.3917,51.09223],[4.39114,51.08966],[4.38804,51.08644],[4.38563,51.08595],[4.38506,51.08455],[4.37501,51.08561],[4.37363,51.08608],[4.37358,51.08447],[4.37278,51.08445],[4.37047,51.08538],[4.3687,51.08385],[4.36748,51.08384],[4.36255,51.08508],[4.36321,51.0859],[4.36114,51.08673],[4.36233,51.08765],[4.36124,51.08541],[4.35958,51.08361],[4.35965,51.08296],[4.35911,51.08296],[4.35785,51.0816],[4.35567,51.0805],[4.35234,51.08295],[4.34836,51.08204],[4.34606,51.08413],[4.33629,51.08835],[4.33438,51.08859],[4.33102,51.08795],[4.32079,51.08142],[4.31387,51.08191],[4.30872,51.08025],[4.30702,51.07811],[4.30673,51.07506],[4.30613,51.07424],[4.29785,51.07269],[4.29853,51.07034],[4.30025,51.06865],[4.30197,51.0677],[4.30147,51.06674],[4.30212,51.06451],[4.30408,51.06084],[4.30632,51.05832],[4.307,51.05325],[4.30965,51.05149],[4.30457,51.04971],[4.30338,51.04796],[4.30126,51.04791],[4.29821,51.04727],[4.29781,51.04615],[4.29617,51.04508],[4.2949,51.04623],[4.29335,51.04575],[4.29187,51.0463],[4.28963,51.04639],[4.28912,51.04451],[4.28965,51.04432],[4.29011,51.04287],[4.28902,51.04272],[4.2887,51.04203],[4.28756,51.04149],[4.28833,51.03989],[4.28585,51.03949],[4.28526,51.0402],[4.28334,51.03963],[4.27609,51.04033],[4.27293,51.0398],[4.27349,51.03775],[4.2627,51.03226],[4.25829,51.03275],[4.25604,51.03187],[4.25501,51.03219],[4.25099,51.0316],[4.24471,51.03137],[4.24261,51.03089],[4.24,51.02934],[4.23894,51.02958],[4.23644,51.02894],[4.23516,51.0276],[4.23367,51.02735],[4.23048,51.02721],[4.22861,51.02782],[4.22611,51.02799],[4.22207,51.0275],[4.21776,51.02845],[4.21563,51.02468],[4.21493,51.0223],[4.21384,51.0212],[4.21532,51.01979],[4.21066,51.01912],[4.20991,51.01794],[4.20793,51.01853],[4.20337,51.0187],[4.20192,51.01679],[4.20175,51.01357],[4.19686,51.01209],[4.19021,51.01095],[4.18721,51.01001],[4.18187,51.00962],[4.18127,51.00818],[4.18158,51.00507],[4.18115,51.00354],[4.17922,51.00184],[4.17283,50.99858],[4.16914,50.99753],[4.16883,50.99613],[4.16505,50.99548],[4.16055,50.99345],[4.15708,50.99282],[4.15566,50.99174],[4.15523,50.99111],[4.15645,50.98968],[4.15472,50.9883],[4.15296,50.98569],[4.15478,50.98547],[4.15399,50.98411],[4.15468,50.98349],[4.15467,50.98257],[4.15632,50.98116],[4.15588,50.97883],[4.15703,50.97427],[4.15513,50.9712],[4.1532,50.97066],[4.14985,50.97179],[4.14869,50.97147],[4.14525,50.97614],[4.14396,50.97648],[4.14159,50.97638],[4.14038,50.97543],[4.13854,50.97495],[4.13521,50.97553],[4.13369,50.97509],[4.13228,50.97516],[4.1285,50.97393],[4.13037,50.97182],[4.13736,50.96654],[4.13891,50.96588],[4.13963,50.96462],[4.13977,50.96368],[4.13467,50.9622],[4.1324,50.96219],[4.1314,50.96304],[4.13004,50.96281],[4.12737,50.96433],[4.12772,50.96474],[4.12722,50.96612],[4.12525,50.96976],[4.1219,50.96714],[4.12033,50.96875],[4.11962,50.97064],[4.11868,50.97125],[4.11546,50.96971],[4.11433,50.97048],[4.11116,50.97152],[4.10462,50.96904],[4.1017,50.9674],[4.09999,50.96847],[4.09956,50.97134],[4.09872,50.97211],[4.09337,50.9708],[4.0906,50.97618],[4.08578,50.97874],[4.08328,50.98071],[4.08209,50.98061],[4.08109,50.97983],[4.07988,50.97995],[4.07365,50.98384],[4.07136,50.98397],[4.07084,50.98202],[4.06966,50.98083],[4.05826,50.98379],[4.05661,50.98386],[4.05453,50.98508],[4.05101,50.98383],[4.05104,50.98422],[4.04733,50.9864],[4.03908,50.98971],[4.04226,50.99147],[4.04296,50.99238],[4.04155,50.99341],[4.03798,50.99779],[4.03415,50.99604],[4.03134,50.99585],[4.0281,50.99448],[4.0252,50.99212],[4.02064,50.99233],[4.01812,50.99409],[4.01625,50.99282],[4.01518,50.99385],[4.0118,50.99268],[4.00997,50.99432],[4.00844,50.99372],[4.00701,50.99418],[4.0044,50.99343],[4.00279,50.99188],[4.00194,50.99185],[4.00003,50.9905],[3.99884,50.9913],[3.99587,50.99012],[3.99436,50.98993],[3.99294,50.99222],[3.99318,50.99437],[3.99448,50.99757],[3.99104,50.99809],[3.99157,51.0018],[4.00423,51.00252],[4.01283,51.00417],[4.01165,51.00625],[4.00966,51.00759],[4.01051,51.00567],[4.01572,51.00696],[4.02136,51.01075],[4.02913,51.01403],[4.0333,51.01645],[4.03705,51.01784],[4.0378,51.01958],[4.04076,51.02204],[4.03967,51.02591],[4.03888,51.02561],[4.0371,51.02336],[4.03365,51.02422],[4.02909,51.02374],[4.02435,51.02493],[4.02566,51.02612],[4.02235,51.0272],[4.02148,51.02787],[4.01985,51.02715],[4.01919,51.02793],[4.02194,51.02901],[4.02613,51.03211],[4.02776,51.03241],[4.02796,51.03278],[4.02555,51.03469],[4.02024,51.03706],[4.01828,51.03891],[4.01396,51.04068],[4.01353,51.04151],[4.00999,51.04379],[4.00857,51.04355],[4.00662,51.04615],[4.0032,51.04887],[4.0027,51.05004],[3.99924,51.05102],[3.99621,51.05301],[3.9959,51.0552],[3.98593,51.05499],[3.98024,51.05374],[3.97363,51.05011],[3.96536,51.04714],[3.96266,51.04672],[3.96344,51.04592],[3.96275,51.04561],[3.96296,51.04505],[3.96056,51.04431],[3.96052,51.04286],[3.95816,51.04219],[3.95933,51.03975],[3.96047,51.03892],[3.96286,51.03967],[3.96601,51.03834],[3.96318,51.0332],[3.96152,51.02859],[3.95953,51.02871],[3.95845,51.02751],[3.95707,51.02776],[3.95546,51.02667],[3.95686,51.02563],[3.95676,51.02516],[3.95891,51.02458],[3.95896,51.02328],[3.95971,51.02224],[3.95843,51.02131],[3.9574,51.02156],[3.95877,51.01953],[3.95712,51.01829],[3.95759,51.01744],[3.95626,51.01619],[3.95697,51.01558],[3.95625,51.01491],[3.95662,51.01445],[3.95533,51.01358],[3.95311,51.01316],[3.95126,51.0135],[3.94817,51.01769],[3.94598,51.01807],[3.94459,51.01893],[3.94248,51.01948],[3.93706,51.01934],[3.93466,51.01762],[3.93267,51.01855],[3.93046,51.01497],[3.93053,51.01395],[3.92446,51.0176],[3.92083,51.01766],[3.91586,51.01722],[3.90398,51.01423],[3.89927,51.0136],[3.89741,51.01387],[3.89511,51.01317],[3.89383,51.0144],[3.89711,51.01561],[3.90139,51.01923],[3.90304,51.02421],[3.90657,51.02779],[3.90578,51.02855],[3.90458,51.02777],[3.89945,51.02727],[3.8963,51.02629],[3.89376,51.02701],[3.89178,51.02466],[3.88878,51.02499],[3.88526,51.02639],[3.88372,51.0276],[3.88302,51.03443],[3.87632,51.03289],[3.87415,51.03363],[3.87329,51.03485],[3.87361,51.03528],[3.86891,51.03539],[3.86577,51.03631],[3.86431,51.03725],[3.86434,51.03824],[3.86544,51.03896],[3.86565,51.04222],[3.86779,51.04525],[3.86229,51.04677],[3.86752,51.05441],[3.86963,51.05966],[3.86686,51.06284],[3.86465,51.06261],[3.86436,51.063],[3.86406,51.06487],[3.86494,51.06614],[3.86648,51.06693],[3.8662,51.06732],[3.8645,51.06851],[3.86151,51.0687],[3.85805,51.06591],[3.85374,51.06034],[3.85208,51.05901],[3.85018,51.05766],[3.84615,51.05701],[3.84404,51.05769],[3.83984,51.05792],[3.84128,51.05856],[3.84265,51.06144],[3.84245,51.06264],[3.8445,51.06367],[3.84218,51.06775],[3.8405,51.06729],[3.83859,51.06951],[3.83348,51.06775],[3.8308,51.07089],[3.83679,51.07288],[3.83515,51.07824],[3.86761,51.08506],[3.90733,51.09201],[3.90802,51.09228],[3.90508,51.0981],[3.89374,51.09763],[3.87705,51.09406],[3.87502,51.09852],[3.87157,51.101],[3.86888,51.10565],[3.86161,51.10305],[3.85495,51.10174],[3.82238,51.09347],[3.8191,51.09977],[3.81944,51.10158],[3.81883,51.10273],[3.81577,51.10537],[3.80875,51.10957],[3.80574,51.10614],[3.8041,51.105],[3.79659,51.10188],[3.79355,51.10122],[3.79279,51.10118],[3.79214,51.10835],[3.78498,51.10873],[3.77245,51.10719],[3.7674,51.10721],[3.76944,51.11],[3.7724,51.10965],[3.77284,51.10888],[3.77755,51.10938],[3.7788,51.11007],[3.78014,51.10949],[3.78233,51.11026],[3.78309,51.10967],[3.78666,51.11058],[3.78696,51.11007],[3.78907,51.10987],[3.79008,51.1104],[3.79079,51.11016],[3.79073,51.1108],[3.79117,51.11087],[3.79284,51.11062],[3.79384,51.11105],[3.79463,51.1103],[3.79655,51.11137],[3.7976,51.11143],[3.79795,51.11111],[3.79992,51.11137],[3.80011,51.11559],[3.79638,51.1155],[3.7962,51.11697],[3.79428,51.11887],[3.79318,51.12171],[3.79894,51.12211],[3.80468,51.1243],[3.8094,51.12545],[3.80667,51.12675],[3.80268,51.13007],[3.80163,51.13406],[3.80769,51.13566],[3.80799,51.13539],[3.80984,51.13567],[3.81049,51.13515],[3.81238,51.1356],[3.81725,51.13573],[3.8207,51.13628],[3.82774,51.1384],[3.82914,51.13767],[3.83029,51.13638],[3.83309,51.1387],[3.83397,51.14038],[3.83891,51.14127],[3.8388,51.14267],[3.84175,51.14319],[3.8443,51.14258],[3.84838,51.14226],[3.84974,51.14242],[3.85112,51.14339],[3.85379,51.14386],[3.85202,51.14596],[3.8524,51.14617],[3.86133,51.14749],[3.86351,51.14439],[3.86618,51.14414],[3.86474,51.14724],[3.86361,51.15385],[3.86781,51.15465],[3.89191,51.15731],[3.88714,51.16433],[3.88407,51.17098],[3.8941,51.17147],[3.89244,51.17684],[3.89036,51.1793],[3.8909,51.18446],[3.88912,51.18465],[3.88925,51.18557],[3.88294,51.18501],[3.8821,51.18632],[3.88386,51.18886],[3.88402,51.19083],[3.88573,51.19224],[3.88611,51.19646],[3.88683,51.19806],[3.88054,51.19825],[3.88028,51.20012],[3.87765,51.20026],[3.87572,51.20417],[3.87969,51.20613],[3.87773,51.20806],[3.87884,51.20878],[3.88234,51.20977],[3.88648,51.21176],[3.88778,51.2129],[3.89004,51.21346],[3.89344,51.2186],[3.89616,51.21965],[3.90078,51.22071],[3.90828,51.22435],[3.91389,51.22355],[3.91665,51.222],[3.91898,51.22172],[3.92445,51.22203],[3.93162,51.22377],[3.93041,51.22511],[3.92755,51.22689],[3.92702,51.22942],[3.92747,51.23052],[3.92511,51.23327],[3.91882,51.23687],[3.92018,51.2437],[3.91918,51.24503]]}},{"type":"Feature","properties":{"name":"TET_B-07_20240507","country":"BE","lengthKm":52.4},"geometry":{"type":"LineString","coordinates":[[4.83709,51.28269],[4.83483,51.28332],[4.83272,51.28235],[4.83085,51.28341],[4.82889,51.28293],[4.82328,51.28461],[4.81485,51.28631],[4.81027,51.28834],[4.80313,51.28915],[4.79772,51.28876],[4.79525,51.28893],[4.79237,51.28963],[4.79012,51.29064],[4.78763,51.29108],[4.78815,51.29267],[4.78696,51.29399],[4.781,51.29449],[4.78108,51.29528],[4.77664,51.29531],[4.76981,51.29671],[4.75572,51.2983],[4.75054,51.29964],[4.752,51.30412],[4.75366,51.30709],[4.75149,51.30843],[4.74972,51.30793],[4.74733,51.31139],[4.74418,51.31275],[4.7456,51.31533],[4.74692,51.31614],[4.74758,51.31803],[4.73902,51.3183],[4.73981,51.32114],[4.72488,51.3242],[4.72263,51.32143],[4.71549,51.31811],[4.71419,51.31791],[4.71267,51.31649],[4.70805,51.31634],[4.70419,51.31691],[4.70225,51.31666],[4.70092,51.31916],[4.69625,51.32132],[4.68705,51.33575],[4.68496,51.33536],[4.68496,51.33499],[4.68024,51.33479],[4.67607,51.33806],[4.67645,51.33834],[4.67066,51.34718],[4.67009,51.34779],[4.66732,51.34872],[4.65996,51.36183],[4.65338,51.36734],[4.65583,51.36875],[4.65502,51.36935],[4.65441,51.37214],[4.65498,51.37239],[4.65607,51.37179],[4.65649,51.36999],[4.6599,51.36824],[4.66344,51.36577],[4.66763,51.36834],[4.6644,51.37234],[4.66088,51.37795],[4.65442,51.38169],[4.65378,51.3829],[4.6462,51.38256],[4.64606,51.38177],[4.63194,51.38167],[4.62834,51.38209],[4.62673,51.38181],[4.62458,51.38061],[4.6246,51.38145],[4.62054,51.38433],[4.61209,51.37955],[4.61067,51.38308],[4.6063,51.38402],[4.60579,51.38635],[4.60456,51.38594],[4.60224,51.3859],[4.59961,51.38858],[4.60863,51.38975],[4.60983,51.39089],[4.612,51.39172],[4.61226,51.39375],[4.6154,51.39695],[4.61259,51.39922],[4.61383,51.40254],[4.61225,51.40595],[4.61062,51.40681],[4.60443,51.40589],[4.60267,51.40742],[4.59018,51.40751],[4.58842,51.41172],[4.58642,51.41357],[4.57893,51.41783],[4.5796,51.41834],[4.5721,51.4221],[4.57102,51.42999],[4.5698,51.42985],[4.56653,51.42839],[4.55841,51.42697],[4.5409,51.42261],[4.53694,51.42028],[4.53402,51.42201],[4.53048,51.41931],[4.53871,51.41413],[4.53401,51.41089],[4.52768,51.41422],[4.52628,51.41564],[4.52207,51.4244],[4.52873,51.4263],[4.52777,51.42942],[4.52394,51.4293],[4.52345,51.42956],[4.52322,51.43032],[4.52469,51.43182],[4.52547,51.43349],[4.52475,51.43532],[4.52239,51.43646],[4.52381,51.43781],[4.52483,51.43985],[4.52722,51.4417],[4.52561,51.44778],[4.52572,51.45083],[4.53173,51.46194],[4.5312,51.46597],[4.53059,51.46701],[4.52357,51.46639],[4.516,51.46802],[4.51261,51.46837],[4.50745,51.46795],[4.50252,51.46938],[4.50153,51.46891],[4.50064,51.47149],[4.49644,51.47829]]}}]}