{"type":"FeatureCollection","features":[{"type":"Feature","properties":{"name":"TET_D-01_20260525","country":"DE","lengthKm":482.9},"geometry":{"type":"LineString","coordinates":[[11.22468,54.50146],[11.22399,54.5012],[11.22258,54.49882],[11.21822,54.48951],[11.19657,54.4621],[11.19221,54.45775],[11.18743,54.45419],[11.18239,54.45125],[11.16891,54.44515],[11.16202,54.44133],[11.13851,54.42964],[11.13093,54.4246],[11.12516,54.41932],[11.12027,54.41361],[11.1046,54.39035],[11.10168,54.38747],[11.09722,54.38419],[11.08915,54.38007],[11.08008,54.37674],[11.0348,54.36516],[11.02757,54.36402],[11.02171,54.36355],[11.01409,54.36327],[11.0121,54.36389],[11.00997,54.36404],[11.00937,54.36035],[11.01053,54.35818],[11.0118,54.3534],[11.01869,54.34821],[11.02351,54.34568],[11.02508,54.34402],[11.02632,54.34001],[11.02564,54.3351],[11.01927,54.32405],[11.01465,54.32372],[11.01341,54.32456],[11.00092,54.32261],[10.99699,54.32308],[10.99465,54.32299],[10.98875,54.32091],[10.98586,54.3207],[10.98661,54.31565],[10.98661,54.30999],[10.98332,54.30598],[10.98532,54.30306],[10.98225,54.30201],[10.98131,54.29823],[10.98187,54.29658],[10.9815,54.29398],[10.97929,54.29308],[10.97202,54.29167],[10.9712,54.29113],[10.97109,54.28982],[10.96916,54.2892],[10.96641,54.2893],[10.96155,54.28864],[10.94431,54.28776],[10.93884,54.28684],[10.9323,54.28976],[10.92904,54.29064],[10.91665,54.29098],[10.90947,54.29203],[10.90393,54.29203],[10.89488,54.28993],[10.8887,54.29064],[10.88657,54.2901],[10.88516,54.2884],[10.88275,54.28709],[10.88202,54.28591],[10.88048,54.2869],[10.8788,54.2854],[10.87883,54.28416],[10.88005,54.28315],[10.88026,54.28081],[10.88209,54.27858],[10.88031,54.27334],[10.87181,54.27283],[10.86966,54.27212],[10.86719,54.26916],[10.86734,54.26628],[10.86595,54.26437],[10.86024,54.26416],[10.85187,54.26186],[10.849,54.26242],[10.84705,54.26238],[10.84623,54.26087],[10.84267,54.25899],[10.84072,54.25504],[10.83711,54.25139],[10.83353,54.24879],[10.83121,54.24624],[10.83113,54.2454],[10.82926,54.24506],[10.82806,54.24412],[10.82743,54.24439],[10.82191,54.24457],[10.81956,54.24435],[10.82027,54.24169],[10.81932,54.23909],[10.8155,54.23701],[10.8134,54.23461],[10.81089,54.23326],[10.8101,54.23051],[10.8061,54.23047],[10.79883,54.22903],[10.79299,54.2271],[10.7919,54.22622],[10.79081,54.22354],[10.78909,54.2221],[10.78574,54.22165],[10.78355,54.22036],[10.78201,54.22034],[10.78074,54.22083],[10.77748,54.21965],[10.77448,54.21953],[10.77546,54.22255],[10.77349,54.22446],[10.7727,54.22686],[10.77469,54.22721],[10.77866,54.22957],[10.77628,54.23336],[10.77703,54.23508],[10.7763,54.23665],[10.77684,54.23897],[10.77563,54.24517],[10.778,54.24806],[10.77928,54.24817],[10.78033,54.24944],[10.7763,54.25102],[10.76594,54.25374],[10.76104,54.25605],[10.75866,54.25665],[10.75677,54.2568],[10.75027,54.2562],[10.74405,54.2592],[10.74145,54.25933],[10.73834,54.25881],[10.73828,54.25802],[10.73386,54.25495],[10.73049,54.25165],[10.73044,54.24937],[10.72735,54.24695],[10.72482,54.24607],[10.71931,54.24497],[10.71369,54.24497],[10.71111,54.24553],[10.70828,54.24564],[10.70648,54.24504],[10.70257,54.245],[10.70079,54.24401],[10.69714,54.24336],[10.69601,54.24229],[10.68599,54.23821],[10.68038,54.23665],[10.67695,54.23611],[10.67684,54.23736],[10.67517,54.23948],[10.67195,54.24036],[10.66989,54.24236],[10.6694,54.24399],[10.6709,54.24557],[10.66991,54.24892],[10.66545,54.24873],[10.66116,54.24744],[10.65618,54.24879],[10.65279,54.24882],[10.65099,54.24832],[10.64899,54.2486],[10.64678,54.24819],[10.64502,54.24851],[10.64382,54.2495],[10.64313,54.25118],[10.64798,54.25663],[10.64622,54.25759],[10.64556,54.25974],[10.64683,54.26124],[10.64644,54.26304],[10.6491,54.26366],[10.65002,54.26605],[10.6509,54.26671],[10.65064,54.26877],[10.64685,54.27413],[10.64835,54.27551],[10.65054,54.27615],[10.65041,54.27697],[10.64968,54.27911],[10.64401,54.28682],[10.64217,54.2877],[10.64243,54.28849],[10.63741,54.2907],[10.63539,54.29096],[10.63144,54.29055],[10.62661,54.28853],[10.61987,54.28763],[10.61502,54.28802],[10.60812,54.29001],[10.60434,54.29053],[10.59593,54.29038],[10.58797,54.28817],[10.58097,54.28827],[10.58059,54.28858],[10.58121,54.28883],[10.58271,54.28911],[10.58361,54.28823],[10.58112,54.28551],[10.58071,54.28431],[10.57089,54.28089],[10.56921,54.27553],[10.567,54.27381],[10.56518,54.27315],[10.55754,54.27212],[10.54821,54.26841],[10.54231,54.26448],[10.53484,54.25534],[10.53104,54.25338],[10.52741,54.25238],[10.52462,54.24931],[10.52164,54.24783],[10.53357,54.24497],[10.53705,54.24356],[10.53857,54.2421],[10.541,54.24133],[10.54196,54.23669],[10.54383,54.2348],[10.54726,54.23328],[10.55344,54.22686],[10.55456,54.21976],[10.55576,54.21916],[10.55619,54.21832],[10.55469,54.21425],[10.55024,54.21365],[10.54962,54.21238],[10.54797,54.21135],[10.54449,54.21053],[10.54381,54.20888],[10.54233,54.20742],[10.5373,54.20639],[10.53376,54.20365],[10.53085,54.20313],[10.52542,54.20504],[10.52297,54.20521],[10.52177,54.20498],[10.51819,54.20302],[10.51997,54.20283],[10.52406,54.19957],[10.52308,54.19678],[10.52304,54.18989],[10.5263,54.1886],[10.52793,54.18725],[10.52838,54.18582],[10.53063,54.18487],[10.5319,54.18376],[10.54005,54.18167],[10.54048,54.18037],[10.53988,54.17876],[10.54196,54.1773],[10.54436,54.1764],[10.54544,54.1717],[10.54235,54.17129],[10.53769,54.17152],[10.53544,54.17232],[10.53003,54.1727],[10.52803,54.17348],[10.526,54.17345],[10.5219,54.17427],[10.51724,54.17354],[10.51287,54.17376],[10.51025,54.17345],[10.50647,54.17408],[10.50304,54.17592],[10.50005,54.17691],[10.49553,54.17556],[10.49523,54.17444],[10.49439,54.17399],[10.49463,54.1727],[10.49394,54.17118],[10.49435,54.16723],[10.49143,54.16367],[10.48776,54.16153],[10.48576,54.15947],[10.48617,54.15749],[10.48896,54.1579],[10.49518,54.15766],[10.49609,54.1565],[10.49859,54.15582],[10.50029,54.15247],[10.50014,54.14869],[10.4925,54.14822],[10.48898,54.14743],[10.48716,54.14653],[10.48943,54.14326],[10.49051,54.14286],[10.49048,54.14127],[10.49566,54.14161],[10.49935,54.1396],[10.50686,54.13932],[10.51261,54.13713],[10.51053,54.13513],[10.50973,54.13335],[10.50499,54.13363],[10.50396,54.13146],[10.50136,54.13024],[10.49941,54.12857],[10.50237,54.12477],[10.50166,54.12078],[10.499,54.12056],[10.49853,54.11822],[10.49956,54.11511],[10.49845,54.11267],[10.49859,54.11129],[10.49945,54.11058],[10.50267,54.10964],[10.50718,54.11112],[10.51379,54.11112],[10.52514,54.11455],[10.52879,54.1138],[10.53355,54.1141],[10.53904,54.11181],[10.54153,54.11116],[10.54363,54.11189],[10.54531,54.11164],[10.53608,54.10674],[10.541,54.1023],[10.54379,54.10058],[10.54752,54.09651],[10.54823,54.0949],[10.54803,54.09112],[10.54911,54.09078],[10.55026,54.08904],[10.54878,54.08767],[10.54803,54.08601],[10.54409,54.08499],[10.54158,54.08477],[10.5407,54.08426],[10.54185,54.08136],[10.54031,54.07911],[10.54005,54.07511],[10.53834,54.0735],[10.53652,54.06934],[10.53423,54.06746],[10.53389,54.05977],[10.53273,54.05915],[10.53222,54.05795],[10.52964,54.05775],[10.52825,54.05651],[10.52497,54.05546],[10.51885,54.05589],[10.51681,54.05673],[10.50978,54.0564],[10.50701,54.05668],[10.50005,54.05625],[10.49832,54.05578],[10.49351,54.05291],[10.48997,54.05216],[10.48096,54.05334],[10.46855,54.05211],[10.46098,54.0519],[10.4607,54.04797],[10.45772,54.04394],[10.45695,54.04164],[10.46785,54.04025],[10.46875,54.04115],[10.47536,54.04321],[10.48027,54.04334],[10.47883,54.03692],[10.4836,54.03756],[10.48488,54.03634],[10.48785,54.03651],[10.49069,54.0342],[10.49083,54.03381],[10.48911,54.03302],[10.47797,54.02924],[10.47639,54.02928],[10.47237,54.02771],[10.47244,54.02673],[10.47064,54.0243],[10.47036,54.02239],[10.4719,54.02027],[10.4719,54.01772],[10.47461,54.01516],[10.47173,54.01465],[10.46806,54.01325],[10.46377,54.0187],[10.45986,54.01879],[10.45787,54.01937],[10.45304,54.01898],[10.4504,54.0192],[10.44426,54.02072],[10.44075,54.02074],[10.44098,54.02281],[10.43911,54.0236],[10.43909,54.02462],[10.43733,54.02593],[10.43774,54.02859],[10.43682,54.02945],[10.43564,54.03224],[10.43302,54.03177],[10.42695,54.02995],[10.42328,54.0269],[10.42124,54.02613],[10.41639,54.02535],[10.41397,54.02404],[10.40768,54.02334],[10.40379,54.02104],[10.40043,54.0213],[10.39931,54.02087],[10.39633,54.02093],[10.39399,54.01963],[10.39212,54.01761],[10.3903,54.01731],[10.38785,54.01621],[10.38229,54.01132],[10.37693,54.01023],[10.37371,54.00735],[10.37043,54.00521],[10.36358,54.00413],[10.35507,54.00061],[10.35122,53.99963],[10.34809,53.99766],[10.34777,53.99574],[10.3456,53.99373],[10.34481,53.99377],[10.3435,53.99265],[10.3418,53.98948],[10.34047,53.98961],[10.33116,53.99278],[10.32393,53.99349],[10.3196,53.99289],[10.3158,53.99306],[10.31732,54.00295],[10.32316,54.01207],[10.3209,54.01606],[10.31065,54.02568],[10.30891,54.02797],[10.3088,54.02967],[10.30923,54.03246],[10.31086,54.03527],[10.31228,54.03647],[10.31739,54.03885],[10.31799,54.03954],[10.31751,54.04623],[10.31814,54.04791],[10.31824,54.05254],[10.31711,54.05735],[10.31786,54.06325],[10.31736,54.06496],[10.31359,54.06428],[10.31144,54.06301],[10.30646,54.06327],[10.29395,54.06791],[10.29234,54.06805],[10.28722,54.06717],[10.28762,54.06902],[10.28546,54.07134],[10.27365,54.06881],[10.26617,54.06851],[10.25949,54.06743],[10.25647,54.07411],[10.24175,54.07239],[10.2269,54.07355],[10.20963,54.07209],[10.19574,54.0725],[10.18705,54.07166],[10.1786,54.07209],[10.17519,54.07192],[10.12566,54.06089],[10.1189,54.06016],[10.11238,54.06093],[10.0788,54.06821],[10.04953,54.06939],[10.04234,54.07084],[10.03468,54.07153],[10.02642,54.07325],[10.01629,54.07284],[9.99934,54.07018],[9.99859,54.06758],[9.99543,54.06507],[9.98657,54.06278],[9.98451,54.06306],[9.98147,54.05956],[9.90443,53.96751],[9.90377,53.9656],[9.90475,53.96092],[9.90186,53.96038],[9.90149,53.95952],[9.8999,53.95935],[9.89799,53.96021],[9.89557,53.96036],[9.89257,53.95894],[9.88915,53.95793],[9.87937,53.95665],[9.85092,53.9624],[9.85362,53.95216],[9.85248,53.95221],[9.85199,53.95087],[9.83643,53.94954],[9.83542,53.94873],[9.8307,53.94808],[9.82478,53.94575],[9.82605,53.93425],[9.82465,53.93352],[9.82465,53.93118],[9.82079,53.93049],[9.81942,53.92991],[9.81616,53.93066],[9.81086,53.93264],[9.80669,53.93337],[9.80433,53.9327],[9.80401,53.93116],[9.79678,53.93302],[9.7835,53.93255],[9.78328,53.93113],[9.77697,53.93427],[9.7617,53.93905],[9.75805,53.93467],[9.74968,53.9368],[9.74957,53.93489],[9.7468,53.93135],[9.74844,53.93085],[9.75065,53.93077],[9.74979,53.92107],[9.74859,53.91862],[9.74835,53.91399],[9.74455,53.90944],[9.74359,53.90392],[9.74187,53.90129],[9.74163,53.89865],[9.73616,53.89455],[9.73728,53.89094],[9.73693,53.88815],[9.73876,53.88348],[9.73886,53.88099],[9.73751,53.87897],[9.73372,53.87635],[9.73528,53.87552],[9.74009,53.86992],[9.73884,53.86962],[9.73846,53.86554],[9.73902,53.86414],[9.74062,53.86331],[9.74204,53.85912],[9.74052,53.85944],[9.73925,53.85569],[9.73477,53.85633],[9.7305,53.85333],[9.72548,53.8529],[9.72284,53.85159],[9.72241,53.85191],[9.71925,53.85024],[9.71657,53.84771],[9.71245,53.84558],[9.71058,53.84688],[9.70683,53.84447],[9.70339,53.84448],[9.7038,53.84328],[9.70299,53.8426],[9.70191,53.8427],[9.70037,53.84474],[9.69917,53.84522],[9.69016,53.84399],[9.68391,53.84545],[9.6829,53.84704],[9.67938,53.84756],[9.67846,53.84925],[9.67642,53.8509],[9.67035,53.85013],[9.66205,53.84687],[9.65344,53.84457],[9.64147,53.84299],[9.63711,53.84311],[9.63046,53.84427],[9.62763,53.8441],[9.6252,53.84445],[9.61905,53.84372],[9.61508,53.84376],[9.60776,53.84449],[9.59851,53.84359],[9.58875,53.84417],[9.57609,53.84408],[9.57499,53.84369],[9.5689,53.8435],[9.56126,53.84185],[9.55695,53.84181],[9.54156,53.84198],[9.53866,53.8426],[9.53785,53.84206],[9.53665,53.842],[9.50661,53.84208],[9.50659,53.84243],[9.49332,53.84266],[9.49021,53.84346],[9.48592,53.84346],[9.48345,53.84247],[9.48116,53.83908],[9.47925,53.83741],[9.47725,53.83239],[9.47639,53.83153],[9.47041,53.82872],[9.45356,53.82447],[9.44882,53.82157],[9.44897,53.82007],[9.45835,53.81155],[9.45927,53.81009],[9.45861,53.80923],[9.45088,53.80567],[9.44599,53.80805],[9.44168,53.80762],[9.4391,53.80906],[9.42676,53.81211],[9.41689,53.80569],[9.41578,53.80352],[9.41273,53.80185],[9.41046,53.79938],[9.40599,53.7981],[9.40398,53.79694],[9.40204,53.79282],[9.39906,53.79355],[9.39086,53.79988],[9.38883,53.80097],[9.38698,53.80121],[9.38338,53.80009],[9.38127,53.79878],[9.37202,53.78928],[9.36919,53.78861],[9.35767,53.78936],[9.34902,53.78818],[9.344,53.78795],[9.32703,53.78342],[9.32572,53.78336],[9.32531,53.78087],[9.32149,53.77745],[9.31413,53.78681],[9.29969,53.77793],[9.29594,53.77767],[9.29044,53.77297],[9.2783,53.76473],[9.28398,53.74505],[9.27416,53.74344],[9.26755,53.74145],[9.24319,53.72922],[9.24085,53.72726],[9.24038,53.72265],[9.23867,53.72083],[9.20403,53.70259],[9.19918,53.70128],[9.18993,53.7001],[9.18624,53.69909],[9.188,53.6977],[9.18446,53.69553],[9.1826,53.69366],[9.173,53.68679],[9.16511,53.68355],[9.16888,53.6812],[9.16695,53.68002],[9.16333,53.67928],[9.16112,53.67707],[9.15938,53.67418],[9.15835,53.67394],[9.15824,53.67192],[9.15655,53.66954],[9.15206,53.66969],[9.14886,53.66911],[9.14605,53.66905],[9.13348,53.66444],[9.13239,53.66338],[9.12981,53.65864],[9.12945,53.65418],[9.13191,53.65401],[9.13249,53.65302],[9.13436,53.65238],[9.13595,53.64785],[9.13492,53.648],[9.13498,53.64656],[9.13363,53.646],[9.13063,53.64547],[9.12904,53.64557],[9.12824,53.64508],[9.12666,53.64521],[9.12593,53.63931],[9.12342,53.63588],[9.12106,53.63429],[9.11882,53.63377],[9.11603,53.63397],[9.1123,53.63313],[9.0973,53.63495],[9.09674,53.63397],[9.09204,53.63051],[9.08956,53.6265],[9.06891,53.61352],[9.05025,53.60534],[9.04675,53.60118],[9.04548,53.60039],[9.03164,53.60101],[9.01772,53.60637],[9.01553,53.60423],[9.01405,53.5906],[9.0237,53.5877],[9.02188,53.58333],[9.02761,53.58476],[9.02688,53.58322],[9.0307,53.57107],[9.02636,53.5712],[9.00508,53.56884],[9.00016,53.56133],[8.99918,53.56082],[8.98051,53.5618],[8.97667,53.56429],[8.97212,53.56558],[8.96186,53.56522],[8.96053,53.55953],[8.95643,53.55713],[8.95023,53.55696],[8.93643,53.55176],[8.92792,53.55093],[8.90369,53.54663],[8.90032,53.54698],[8.89657,53.54582],[8.89878,53.54339],[8.90292,53.54215],[8.89897,53.53951],[8.90639,53.53719],[8.90472,53.53395],[8.90691,53.52674],[8.90532,53.52543],[8.90483,53.5241],[8.89951,53.52385],[8.89051,53.52275],[8.8815,53.52443],[8.87788,53.52627],[8.87708,53.52732],[8.87187,53.52213],[8.86592,53.51818],[8.86125,53.51114],[8.85309,53.50299],[8.85283,53.49659],[8.85964,53.48973],[8.86045,53.48636],[8.86034,53.48537],[8.85507,53.47919],[8.83859,53.47857],[8.83653,53.47619],[8.82874,53.47471],[8.81273,53.47479],[8.7975,53.47383],[8.79589,53.47222],[8.78589,53.4693],[8.78494,53.472],[8.77838,53.4707],[8.77031,53.47172],[8.76911,53.47112],[8.76861,53.46883],[8.76636,53.46838],[8.76642,53.46606],[8.76488,53.46552],[8.75222,53.46546],[8.74548,53.46692],[8.68295,53.48344],[8.67126,53.47773],[8.66409,53.47627],[8.65645,53.47413],[8.65328,53.47396],[8.65098,53.47134],[8.64847,53.46977],[8.64304,53.46741],[8.63987,53.46494],[8.63665,53.46316],[8.62991,53.46052],[8.62712,53.45876],[8.62161,53.45675],[8.61468,53.45621],[8.60903,53.45424],[8.61354,53.4472],[8.61332,53.44677],[8.61156,53.44737],[8.60667,53.44812],[8.60427,53.44789],[8.60109,53.44842],[8.59918,53.44825],[8.59187,53.44615],[8.5865,53.44312],[8.58064,53.44061],[8.57294,53.43935],[8.56781,53.43701],[8.55738,53.43402],[8.55316,53.43353],[8.54861,53.43379],[8.53436,53.43713],[8.52597,53.43774],[8.47125,53.4369],[8.44658,53.43394],[8.44295,53.43415],[8.44222,53.43321],[8.4434,53.43211],[8.44389,53.42907],[8.44786,53.42229],[8.44919,53.41879],[8.45012,53.41486],[8.44887,53.41229],[8.44132,53.40793],[8.43752,53.40448],[8.41872,53.40342],[8.42066,53.3983],[8.42551,53.39323],[8.40733,53.38963],[8.37388,53.38414],[8.37727,53.37639],[8.36888,53.37465],[8.36476,53.35656],[8.3639,53.35],[8.36321,53.34922],[8.36377,53.34882],[8.36339,53.34774],[8.35598,53.3462],[8.35232,53.34624],[8.34633,53.34555],[8.34131,53.3456],[8.33946,53.34624],[8.32547,53.34598],[8.32193,53.34534],[8.31639,53.34349],[8.29828,53.34167],[8.30453,53.3297],[8.30086,53.32877],[8.30275,53.32058],[8.2988,53.31517],[8.30646,53.30114],[8.27747,53.30103],[8.27112,53.30199],[8.26663,53.3041],[8.26238,53.29867],[8.26998,53.28455],[8.26099,53.27949],[8.25517,53.27678],[8.25273,53.27595],[8.2476,53.27509],[8.24208,53.2726],[8.23627,53.27161],[8.2349,53.27077],[8.23346,53.2717],[8.2329,53.27142],[8.21164,53.27182],[8.21286,53.27007],[8.21249,53.26798],[8.20857,53.26627],[8.20612,53.26348],[8.20677,53.26232],[8.20159,53.25809],[8.19717,53.25352],[8.19529,53.25041],[8.19095,53.24889],[8.18795,53.24709],[8.1811,53.24404],[8.1817,53.24361],[8.18042,53.24346],[8.1817,53.24361],[8.1811,53.24404],[8.17623,53.24322],[8.16589,53.24073],[8.16284,53.24043],[8.15846,53.24088],[8.15164,53.24337],[8.14284,53.24477],[8.13969,53.24569],[8.13718,53.24575],[8.13319,53.24483],[8.13072,53.24548],[8.12711,53.24781],[8.11943,53.2511],[8.11787,53.25241],[8.11669,53.25526],[8.11544,53.25539],[8.11334,53.2544],[8.11209,53.25425],[8.1089,53.25223],[8.10795,53.24848],[8.09855,53.24039],[8.09564,53.23854],[8.08233,53.24475],[8.08909,53.24912],[8.09158,53.2499],[8.08986,53.25264],[8.07963,53.25234],[8.06896,53.25123],[8.06092,53.24406],[8.05483,53.24586],[8.03749,53.24966],[8.0304,53.25363],[8.0245,53.25543],[8.02053,53.25595],[8.0192,53.25663],[8.0183,53.25788],[8.01592,53.25796],[8.01229,53.26133],[8.00989,53.26217],[8.00345,53.26571],[7.99951,53.26689],[7.9971,53.26826],[7.9933,53.26882],[7.98828,53.26861],[7.98491,53.26923],[7.98118,53.27221],[7.97816,53.27663],[7.97644,53.27786],[7.97468,53.27779],[7.97271,53.27874],[7.96942,53.27957],[7.96616,53.27833],[7.96438,53.27867],[7.9585,53.27483],[7.95494,53.27444],[7.94779,53.27144],[7.9447,53.27099],[7.9417,53.27101],[7.93887,53.27474],[7.92938,53.27612],[7.92833,53.27693],[7.92556,53.282],[7.92269,53.2817],[7.91975,53.28298],[7.91691,53.28065],[7.90921,53.27775],[7.90044,53.27298],[7.89801,53.27406],[7.89657,53.27526],[7.89151,53.27567],[7.88705,53.27786],[7.88325,53.27663],[7.87733,53.27695],[7.8687,53.2714],[7.86443,53.27133],[7.85035,53.26747],[7.846,53.26717],[7.84387,53.26537],[7.84374,53.2635],[7.84462,53.26264],[7.84342,53.26159],[7.83802,53.25921],[7.8334,53.25897],[7.83029,53.2582],[7.81394,53.24889],[7.80057,53.24871],[7.79961,53.24827],[7.8018,53.23601],[7.80347,53.23451],[7.79871,53.23164],[7.79199,53.22893],[7.79293,53.22801],[7.79147,53.22756],[7.79102,53.22681],[7.78774,53.22475],[7.78474,53.22179],[7.78454,53.22114],[7.78579,53.21927],[7.78539,53.21903],[7.78579,53.21927],[7.7865,53.21812],[7.77703,53.21696],[7.77321,53.21576],[7.76905,53.21576],[7.7621,53.21657],[7.76103,53.21237],[7.75796,53.21069],[7.75736,53.20981],[7.75708,53.20328],[7.76027,53.19739],[7.7597,53.19494],[7.75332,53.19531],[7.75339,53.19589],[7.74684,53.19593],[7.74285,53.19668],[7.74131,53.19398],[7.73575,53.19393],[7.73579,53.19451],[7.72442,53.19451],[7.72015,53.19636],[7.71481,53.19782],[7.70545,53.19704],[7.69863,53.19795],[7.69013,53.19619],[7.68852,53.19803],[7.68631,53.20428],[7.68373,53.20726],[7.68183,53.21052],[7.67979,53.21076],[7.67444,53.2102],[7.6732,53.21067],[7.67075,53.21037],[7.67017,53.21091],[7.67075,53.21037],[7.66974,53.20998],[7.66593,53.21028],[7.65736,53.21357],[7.6482,53.21612],[7.64369,53.21689],[7.64254,53.21601],[7.6402,53.21709],[7.63666,53.21732],[7.63797,53.21966],[7.63689,53.22136],[7.63037,53.22234],[7.62204,53.22651],[7.61655,53.22702],[7.60941,53.22571],[7.60361,53.22299],[7.5975,53.2188],[7.59372,53.21779],[7.57951,53.2184],[7.57718,53.21902],[7.57447,53.22046],[7.57061,53.22052],[7.5661,53.2211],[7.56473,53.22003],[7.56046,53.21855],[7.55578,53.21861],[7.54864,53.2173],[7.54359,53.21494],[7.5419,53.21479],[7.53881,53.21333],[7.53583,53.21342],[7.53441,53.21385],[7.53016,53.21365],[7.52862,53.21297],[7.52707,53.21387],[7.52548,53.21406],[7.52364,53.2149],[7.5219,53.21767],[7.51883,53.21947],[7.51553,53.22224],[7.51141,53.22694],[7.50201,53.22603],[7.49658,53.22161],[7.48386,53.21958],[7.48205,53.22378],[7.47648,53.23221],[7.47489,53.2367],[7.46416,53.23925],[7.46085,53.23968],[7.44538,53.23929],[7.44139,53.23848],[7.43907,53.23745],[7.43639,53.23453],[7.43592,53.23252],[7.43626,53.21945],[7.43556,53.21799],[7.43433,53.21728],[7.43212,53.21691],[7.42341,53.21852],[7.42064,53.21833],[7.41511,53.21473],[7.40494,53.20904],[7.40343,53.20747],[7.39775,53.19668],[7.39646,53.19526],[7.37889,53.18458],[7.37348,53.17887],[7.36689,53.17443],[7.35464,53.17039],[7.34966,53.1672],[7.34683,53.16681],[7.34146,53.16743],[7.30256,53.1767],[7.29861,53.17387],[7.29733,53.17393],[7.29348,53.17089],[7.29106,53.16979],[7.28795,53.16921],[7.28303,53.17014],[7.28037,53.16997],[7.2737,53.16688],[7.26471,53.15831],[7.26419,53.15615],[7.2663,53.14574],[7.25267,53.13922],[7.24162,53.13531],[7.23514,53.13574],[7.20832,53.1346],[7.19813,53.13241],[7.19351,53.12525],[7.19154,53.1231],[7.19079,53.1231],[7.18201,53.12651]]}},{"type":"Feature","properties":{"name":"TET_D-02_20260728","country":"DE","lengthKm":694.2},"geometry":{"type":"LineString","coordinates":[[14.29262,53.04798],[14.29138,53.05164],[14.28825,53.05496],[14.28862,53.05569],[14.29113,53.0568],[14.27976,53.06516],[14.27942,53.06603],[14.29034,53.08441],[14.28659,53.08691],[14.28772,53.08964],[14.2863,53.09327],[14.28677,53.09411],[14.28841,53.09466],[14.28045,53.09446],[14.27586,53.09475],[14.27309,53.09551],[14.27338,53.09643],[14.27257,53.09701],[14.27191,53.10015],[14.26869,53.10442],[14.2703,53.10543],[14.26885,53.10579],[14.26688,53.10719],[14.26446,53.10957],[14.26449,53.11036],[14.26778,53.11258],[14.26835,53.11354],[14.26792,53.11536],[14.26889,53.1162],[14.27168,53.11714],[14.27264,53.11787],[14.27248,53.11879],[14.27192,53.11953],[14.26572,53.12226],[14.24801,53.12827],[14.24831,53.1289],[14.25109,53.13046],[14.25604,53.1342],[14.25699,53.13994],[14.25761,53.14079],[14.24683,53.1541],[14.24174,53.1591],[14.23535,53.16345],[14.23544,53.1641],[14.25479,53.17565],[14.25227,53.17671],[14.25169,53.17749],[14.25207,53.17939],[14.25673,53.18298],[14.26931,53.18668],[14.27232,53.1861],[14.27595,53.18422],[14.27837,53.18686],[14.2767,53.19051],[14.27688,53.19731],[14.2795,53.20278],[14.27958,53.2045],[14.27173,53.20511],[14.23155,53.20635],[14.21921,53.20847],[14.21351,53.20953],[14.20962,53.21121],[14.20248,53.21297],[14.18649,53.22146],[14.18491,53.22308],[14.18582,53.22371],[14.19532,53.22836],[14.20898,53.2364],[14.21396,53.24111],[14.21126,53.24215],[14.19316,53.24509],[14.16276,53.24811],[14.15965,53.25007],[14.15708,53.25098],[14.15428,53.24863],[14.15318,53.2469],[14.14738,53.24104],[14.14718,53.24012],[14.1493,53.22671],[14.14822,53.21396],[14.15247,53.20595],[14.15545,53.19254],[14.15276,53.18226],[14.15299,53.17949],[14.15344,53.17876],[14.16356,53.17389],[14.17255,53.16556],[14.17281,53.16471],[14.17571,53.16378],[14.17628,53.16296],[14.16959,53.1546],[14.16497,53.14728],[14.16442,53.14539],[14.16468,53.14458],[14.16602,53.14405],[14.16649,53.14138],[14.16245,53.13826],[14.16004,53.13365],[14.1562,53.12847],[14.14969,53.12161],[14.1485,53.12093],[14.13192,53.11539],[14.12718,53.11281],[14.12188,53.11092],[14.11896,53.11059],[14.11144,53.10887],[14.10033,53.10841],[14.08784,53.10546],[14.07791,53.10494],[14.07716,53.1042],[14.0769,53.10118],[14.07739,53.09817],[14.07579,53.09446],[14.07592,53.08985],[14.06521,53.0893],[14.06222,53.08976],[14.0596,53.09068],[14.05827,53.0912],[14.05626,53.09293],[14.04647,53.09579],[14.04379,53.09699],[14.04126,53.09933],[14.03774,53.10132],[14.036,53.1038],[14.03374,53.10506],[14.03194,53.10535],[14.01429,53.11654],[14.01561,53.11918],[14.01384,53.12046],[14.01392,53.12236],[14.01454,53.12432],[14.0164,53.12703],[14.01732,53.13097],[14.01123,53.14197],[14.00183,53.1485],[13.99147,53.15455],[13.99092,53.15539],[13.99074,53.1583],[13.99007,53.15914],[13.98248,53.16293],[13.98169,53.16368],[13.98208,53.16509],[13.98081,53.16703],[13.9806,53.1711],[13.9821,53.18095],[13.98418,53.18348],[13.98917,53.18546],[13.9907,53.18559],[14.00537,53.18197],[14.01147,53.18136],[14.01448,53.18152],[14.01769,53.18094],[14.02886,53.18108],[14.03285,53.18219],[14.03764,53.18272],[14.03709,53.18656],[14.03924,53.192],[14.04171,53.19539],[14.04589,53.21063],[14.04275,53.22004],[14.03918,53.2241],[14.04097,53.22754],[14.03724,53.23272],[14.03954,53.23634],[14.03912,53.2368],[14.02967,53.23561],[14.02374,53.23681],[14.01474,53.23559],[14.01244,53.2342],[14.00934,53.2346],[14.00587,53.2345],[14.00005,53.23599],[13.99716,53.23624],[13.9877,53.23566],[13.98564,53.23601],[13.98362,53.23718],[13.97859,53.23648],[13.97333,53.23404],[13.96944,53.22791],[13.96955,53.2252],[13.96725,53.22402],[13.96328,53.22354],[13.9594,53.2208],[13.95745,53.21822],[13.95521,53.21268],[13.9521,53.20939],[13.94749,53.20924],[13.9457,53.20967],[13.93575,53.21695],[13.93109,53.21936],[13.92225,53.22192],[13.9112,53.22368],[13.89729,53.22266],[13.89576,53.22214],[13.89419,53.22217],[13.89153,53.22328],[13.88384,53.22176],[13.88144,53.22083],[13.87936,53.21928],[13.87978,53.21747],[13.87943,53.21548],[13.8769,53.21297],[13.87675,53.21201],[13.87068,53.21136],[13.8661,53.21012],[13.85879,53.21182],[13.85383,53.21428],[13.85341,53.21505],[13.85408,53.21599],[13.85754,53.21773],[13.85623,53.21846],[13.85701,53.22041],[13.85654,53.22125],[13.8441,53.22085],[13.8431,53.22133],[13.84302,53.22806],[13.83993,53.22809],[13.83526,53.22748],[13.82411,53.23404],[13.81377,53.23867],[13.80706,53.2427],[13.8039,53.24289],[13.80286,53.24328],[13.80388,53.24512],[13.80327,53.24785],[13.80222,53.2485],[13.79017,53.2526],[13.78535,53.25275],[13.78389,53.25252],[13.77666,53.24858],[13.77372,53.24785],[13.76841,53.24722],[13.76715,53.24671],[13.76645,53.24584],[13.76698,53.24498],[13.76823,53.24433],[13.7686,53.24129],[13.76968,53.23937],[13.77161,53.23777],[13.77753,53.23439],[13.78005,53.23099],[13.77995,53.23033],[13.78915,53.23166],[13.79765,53.2314],[13.79711,53.22893],[13.7952,53.22625],[13.79387,53.22488],[13.79194,53.22382],[13.78979,53.22076],[13.78716,53.21558],[13.7872,53.21458],[13.7808,53.21284],[13.77389,53.21325],[13.76621,53.21183],[13.76368,53.21179],[13.75915,53.20958],[13.75681,53.20795],[13.74887,53.20529],[13.74581,53.20539],[13.73894,53.20483],[13.73327,53.20357],[13.73027,53.20168],[13.72845,53.20132],[13.72411,53.20084],[13.71931,53.20104],[13.71733,53.20054],[13.71272,53.20082],[13.71079,53.20244],[13.70301,53.20506],[13.69168,53.21186],[13.69397,53.21651],[13.70698,53.22834],[13.71,53.23054],[13.72351,53.23544],[13.73062,53.23913],[13.73869,53.2408],[13.74176,53.24179],[13.74703,53.24526],[13.75258,53.25144],[13.75242,53.25221],[13.74882,53.25438],[13.73749,53.2578],[13.73168,53.2592],[13.73012,53.25925],[13.7246,53.25726],[13.71461,53.25449],[13.71184,53.25259],[13.70688,53.25029],[13.70236,53.24984],[13.69859,53.24839],[13.69541,53.24591],[13.69289,53.24575],[13.68952,53.24405],[13.68774,53.24031],[13.686,53.2388],[13.68035,53.22957],[13.67262,53.22244],[13.6698,53.22355],[13.66178,53.22274],[13.66068,53.22666],[13.6492,53.23655],[13.64723,53.24038],[13.64289,53.24233],[13.64137,53.24254],[13.64151,53.24451],[13.64446,53.24987],[13.64878,53.25294],[13.65318,53.25781],[13.65724,53.26078],[13.66298,53.26417],[13.66793,53.26591],[13.66967,53.2661],[13.68007,53.26558],[13.67414,53.26572],[13.67929,53.26567],[13.68311,53.26507],[13.68365,53.26593],[13.68479,53.26627],[13.68586,53.26722],[13.68604,53.26895],[13.69065,53.2721],[13.69269,53.27186],[13.69355,53.27138],[13.69457,53.27175],[13.69448,53.27273],[13.69726,53.27383],[13.70361,53.27753],[13.71405,53.29069],[13.71573,53.2922],[13.71764,53.29385],[13.71882,53.29433],[13.72046,53.29423],[13.72191,53.2947],[13.72473,53.29717],[13.72819,53.29923],[13.72791,53.30029],[13.72487,53.30384],[13.71793,53.30786],[13.71568,53.31146],[13.71014,53.31639],[13.70562,53.32159],[13.70225,53.32693],[13.70251,53.32777],[13.70672,53.33093],[13.70175,53.33278],[13.69878,53.33516],[13.6879,53.35418],[13.68305,53.35227],[13.68104,53.35359],[13.67377,53.35591],[13.66286,53.36339],[13.65387,53.364],[13.64921,53.36337],[13.64094,53.36617],[13.63781,53.366],[13.63514,53.36686],[13.63436,53.3665],[13.63306,53.36087],[13.6333,53.35992],[13.63089,53.35519],[13.63021,53.35063],[13.62901,53.35024],[13.62552,53.35025],[13.62081,53.35098],[13.61128,53.35101],[13.60188,53.35016],[13.59709,53.35002],[13.59581,53.35053],[13.58646,53.34955],[13.58206,53.35077],[13.57573,53.35085],[13.56546,53.34813],[13.56181,53.34639],[13.55552,53.34239],[13.55166,53.34226],[13.55082,53.34152],[13.54626,53.34049],[13.53501,53.33646],[13.53004,53.33411],[13.52936,53.33326],[13.52923,53.3312],[13.52857,53.33079],[13.52217,53.33122],[13.51638,53.33281],[13.50935,53.33705],[13.50664,53.33779],[13.50237,53.33768],[13.50384,53.33757],[13.50099,53.33684],[13.49986,53.33611],[13.49785,53.3346],[13.49502,53.33115],[13.49193,53.33075],[13.49057,53.33111],[13.49075,53.33314],[13.48894,53.33596],[13.48386,53.33962],[13.47383,53.34061],[13.47252,53.34097],[13.47033,53.34251],[13.46754,53.34334],[13.4613,53.34341],[13.46005,53.34392],[13.45874,53.34386],[13.45711,53.34221],[13.45436,53.34124],[13.44936,53.33748],[13.44821,53.33564],[13.44714,53.3349],[13.44433,53.3339],[13.44022,53.33505],[13.44023,53.33561],[13.43954,53.3356],[13.43815,53.33516],[13.43408,53.33112],[13.43285,53.33092],[13.4307,53.33235],[13.42923,53.33508],[13.42886,53.33701],[13.42666,53.33837],[13.42641,53.33923],[13.42672,53.34323],[13.42985,53.34546],[13.43006,53.34646],[13.43025,53.3495],[13.4287,53.35107],[13.4288,53.35312],[13.43179,53.35646],[13.43645,53.36045],[13.44244,53.36347],[13.4433,53.36429],[13.44337,53.36808],[13.44465,53.36983],[13.44434,53.37254],[13.44331,53.37333],[13.43909,53.37447],[13.43454,53.3748],[13.42893,53.37645],[13.42358,53.37591],[13.41433,53.37708],[13.40859,53.379],[13.40795,53.37973],[13.40878,53.38207],[13.41419,53.38849],[13.41649,53.38974],[13.42266,53.39516],[13.42372,53.39734],[13.42688,53.39833],[13.4355,53.3999],[13.44316,53.4031],[13.44357,53.40377],[13.44315,53.4054],[13.44493,53.41024],[13.45221,53.4215],[13.45753,53.42809],[13.49064,53.43735],[13.49406,53.43662],[13.49765,53.43476],[13.50302,53.43432],[13.51037,53.43575],[13.51313,53.4354],[13.51372,53.43398],[13.51544,53.43384],[13.51581,53.43771],[13.51537,53.44233],[13.50864,53.44775],[13.50482,53.44651],[13.48216,53.4426],[13.46519,53.43725],[13.4639,53.43733],[13.46289,53.43801],[13.46405,53.43983],[13.46411,53.44252],[13.46257,53.44224],[13.46105,53.44241],[13.45459,53.44673],[13.45328,53.44841],[13.45235,53.45116],[13.45008,53.4535],[13.45153,53.45606],[13.44917,53.45714],[13.44897,53.45799],[13.45088,53.46055],[13.4505,53.46155],[13.45213,53.46325],[13.45319,53.46391],[13.45635,53.4646],[13.46026,53.46748],[13.46312,53.46822],[13.46249,53.47087],[13.4591,53.47065],[13.45786,53.47089],[13.45739,53.47375],[13.45543,53.47747],[13.45227,53.47974],[13.44357,53.48397],[13.44346,53.48579],[13.43547,53.48703],[13.43069,53.48726],[13.41827,53.4906],[13.41358,53.49021],[13.40558,53.4906],[13.39092,53.49498],[13.37823,53.49504],[13.37687,53.49553],[13.37531,53.4954],[13.36751,53.49673],[13.36083,53.49625],[13.35108,53.49683],[13.34943,53.49673],[13.34153,53.49464],[13.33681,53.49499],[13.33385,53.49433],[13.33077,53.49467],[13.32774,53.49415],[13.32629,53.49446],[13.3232,53.49395],[13.31875,53.49448],[13.31417,53.4945],[13.3084,53.49602],[13.30465,53.49761],[13.30325,53.4974],[13.30191,53.49465],[13.29976,53.49324],[13.29535,53.49182],[13.29117,53.48861],[13.28872,53.48744],[13.28418,53.48609],[13.27095,53.48657],[13.26875,53.48423],[13.26572,53.48406],[13.26402,53.48244],[13.25187,53.47776],[13.24537,53.47477],[13.23274,53.47306],[13.22975,53.47283],[13.2266,53.47323],[13.22564,53.47267],[13.22677,53.47088],[13.22428,53.46528],[13.2184,53.45952],[13.21793,53.45856],[13.21724,53.45464],[13.21967,53.44987],[13.21952,53.44912],[13.21813,53.44865],[13.218,53.44814],[13.21949,53.44844],[13.22092,53.44819],[13.22007,53.44947],[13.22107,53.45016],[13.22805,53.45254],[13.23417,53.45263],[13.23737,53.45228],[13.23891,53.45265],[13.2472,53.45582],[13.24869,53.45561],[13.25164,53.45649],[13.25414,53.45885],[13.2608,53.45648],[13.26416,53.45463],[13.26479,53.45391],[13.26486,53.45187],[13.26421,53.44879],[13.26705,53.44082],[13.26378,53.43528],[13.26355,53.43142],[13.26426,53.42449],[13.26102,53.41742],[13.26328,53.41607],[13.26419,53.41409],[13.26372,53.4103],[13.26457,53.40964],[13.26403,53.40876],[13.26454,53.40692],[13.26411,53.40295],[13.26573,53.40116],[13.26903,53.39905],[13.277,53.39573],[13.29429,53.39301],[13.30594,53.39164],[13.31178,53.39018],[13.30673,53.38435],[13.30489,53.38134],[13.30161,53.37905],[13.3011,53.37813],[13.30116,53.37719],[13.30395,53.37472],[13.30802,53.373],[13.31258,53.3704],[13.31329,53.36857],[13.31297,53.36487],[13.31194,53.36438],[13.30728,53.364],[13.30192,53.36198],[13.29458,53.3581],[13.28442,53.35546],[13.28102,53.35357],[13.27475,53.35415],[13.27191,53.35486],[13.26718,53.35877],[13.26093,53.36171],[13.25963,53.36167],[13.25055,53.35941],[13.24384,53.35678],[13.24101,53.35453],[13.23482,53.35343],[13.23146,53.3537],[13.22857,53.35457],[13.22402,53.35889],[13.21119,53.36417],[13.19264,53.36709],[13.18522,53.36533],[13.17726,53.36488],[13.16603,53.36058],[13.14592,53.35851],[13.10178,53.34555],[13.08767,53.3446],[13.08299,53.34461],[13.07843,53.3507],[13.07863,53.35151],[13.08119,53.35276],[13.08418,53.3533],[13.08783,53.35628],[13.08865,53.3571],[13.08868,53.3581],[13.08737,53.35989],[13.09314,53.36081],[13.08959,53.36966],[13.08641,53.37171],[13.08042,53.37353],[13.07882,53.37529],[13.07913,53.3772],[13.0987,53.39322],[13.10481,53.40003],[13.11191,53.40187],[13.12652,53.41269],[13.12091,53.41868],[13.12082,53.4195],[13.12287,53.42209],[13.12357,53.42389],[13.12634,53.42471],[13.12737,53.4266],[13.12816,53.43542],[13.13006,53.4399],[13.12932,53.44285],[13.13236,53.44829],[13.13537,53.45046],[13.13587,53.45413],[13.1298,53.45728],[13.12826,53.46089],[13.12416,53.46371],[13.12028,53.46531],[13.11696,53.46734],[13.11547,53.47006],[13.11429,53.47067],[13.11378,53.47149],[13.11522,53.47421],[13.11121,53.48128],[13.10761,53.48314],[13.10186,53.48501],[13.10046,53.48494],[13.09857,53.4875],[13.09722,53.49909],[13.09758,53.50074],[13.09404,53.5039],[13.09159,53.50482],[13.09098,53.50562],[13.08618,53.50535],[13.08321,53.50456],[13.08192,53.50399],[13.07638,53.49937],[13.07511,53.49885],[13.07341,53.49881],[13.07228,53.49627],[13.06934,53.49604],[13.06596,53.4939],[13.06164,53.49258],[13.0537,53.49145],[13.05183,53.4902],[13.04966,53.49156],[13.04633,53.49536],[13.03103,53.49435],[13.02093,53.49923],[13.02236,53.50227],[13.01988,53.51111],[13.01838,53.51372],[13.02597,53.51995],[13.02663,53.52759],[13.02868,53.53004],[13.03331,53.5339],[13.03367,53.53475],[13.033,53.5385],[13.03436,53.54696],[13.046,53.55345],[13.04813,53.55596],[13.05384,53.55783],[13.05693,53.55993],[13.05695,53.56926],[13.05448,53.57497],[13.05559,53.57674],[13.05377,53.5783],[13.0526,53.58019],[13.05046,53.58163],[13.04926,53.58227],[13.04461,53.58318],[13.04221,53.58432],[13.0414,53.58815],[13.03942,53.58975],[13.03564,53.59172],[13.03576,53.59233],[13.04075,53.59283],[13.04678,53.59234],[13.04938,53.59343],[13.0528,53.59369],[13.05899,53.59343],[13.0617,53.59909],[13.06296,53.59963],[13.06615,53.60003],[13.06648,53.60061],[13.06421,53.60549],[13.06275,53.61203],[13.06123,53.61377],[13.06113,53.61564],[13.05984,53.61615],[13.0595,53.61706],[13.0591,53.61896],[13.06022,53.61961],[13.06045,53.62043],[13.05941,53.62503],[13.07099,53.62449],[13.07193,53.62512],[13.07301,53.63163],[13.07215,53.63218],[13.06746,53.63206],[13.06785,53.64262],[13.06313,53.65546],[13.06297,53.6601],[13.0575,53.67295],[13.05004,53.68447],[13.04646,53.6876],[13.04876,53.69106],[13.04985,53.69176],[13.05298,53.6927],[13.05301,53.69352],[13.04789,53.69594],[13.04825,53.70537],[13.04998,53.71202],[13.05285,53.71535],[13.059,53.71796],[13.05985,53.72442],[13.0666,53.73179],[13.06838,53.73734],[13.06752,53.74105],[13.07022,53.74217],[13.07177,53.74386],[13.07782,53.74493],[13.07941,53.74856],[13.09324,53.75562],[13.09733,53.75885],[13.09786,53.75973],[13.10695,53.76143],[13.11439,53.76364],[13.11839,53.76547],[13.12231,53.7685],[13.12624,53.77001],[13.12535,53.77471],[13.13214,53.77477],[13.14523,53.77561],[13.15006,53.7755],[13.15136,53.77509],[13.15452,53.77295],[13.16101,53.77251],[13.16338,53.77823],[13.16757,53.78246],[13.16906,53.78526],[13.16877,53.7872],[13.16786,53.78799],[13.15885,53.79045],[13.15275,53.79152],[13.14019,53.79257],[13.13214,53.79188],[13.11741,53.79221],[13.11581,53.79243],[13.1087,53.79481],[13.10573,53.79529],[13.10397,53.79513],[13.09814,53.79337],[13.09602,53.79181],[13.07445,53.78457],[13.07345,53.78398],[13.07341,53.78306],[13.07188,53.78136],[13.06093,53.7815],[13.05352,53.77973],[13.04856,53.77766],[13.04492,53.77481],[13.04412,53.77403],[13.04531,53.77282],[13.04054,53.7711],[13.03781,53.77167],[13.03688,53.77235],[13.03483,53.77243],[13.03503,53.77132],[13.03412,53.77044],[13.03207,53.77079],[13.02578,53.76786],[13.02375,53.76637],[13.02459,53.76546],[13.02555,53.76163],[13.02654,53.75386],[13.02284,53.74937],[13.02182,53.74306],[13.02209,53.74015],[13.01974,53.73678],[13.01299,53.7293],[13.01116,53.72651],[13.01003,53.72273],[13.00786,53.72011],[13.00645,53.71735],[13.00719,53.71147],[12.96968,53.71068],[12.95836,53.71129],[12.95612,53.71255],[12.9543,53.71531],[12.95301,53.7159],[12.94368,53.71966],[12.9388,53.72031],[12.92678,53.72522],[12.9199,53.72731],[12.91228,53.70696],[12.9082,53.6989],[12.90528,53.69967],[12.89593,53.70103],[12.86336,53.71073],[12.85209,53.71201],[12.85084,53.70729],[12.84448,53.70712],[12.84058,53.70759],[12.83323,53.70952],[12.82855,53.70959],[12.82747,53.70987],[12.82705,53.71073],[12.8257,53.71105],[12.81939,53.71009],[12.8081,53.70994],[12.7993,53.70772],[12.79458,53.70738],[12.79086,53.71279],[12.78985,53.71556],[12.78035,53.71734],[12.7685,53.72054],[12.76704,53.72028],[12.75725,53.72036],[12.73783,53.71726],[12.73376,53.71557],[12.72918,53.71296],[12.72238,53.70833],[12.72218,53.70718],[12.72353,53.70412],[12.72051,53.7047],[12.70916,53.70353],[12.70379,53.70375],[12.69007,53.71305],[12.69179,53.71434],[12.68647,53.71841],[12.68222,53.72249],[12.67543,53.72643],[12.66855,53.72895],[12.66231,53.7279],[12.66003,53.72631],[12.65502,53.72396],[12.65195,53.72355],[12.64766,53.72377],[12.64353,53.72535],[12.62466,53.72727],[12.62277,53.72873],[12.61812,53.72861],[12.61402,53.72736],[12.61258,53.72871],[12.61108,53.72918],[12.60776,53.7327],[12.60004,53.73459],[12.59748,53.73574],[12.59636,53.73757],[12.5965,53.74257],[12.59607,53.74348],[12.59318,53.74587],[12.58922,53.7475],[12.58551,53.75304],[12.57548,53.75654],[12.56821,53.7603],[12.56632,53.76052],[12.56742,53.76467],[12.56954,53.76595],[12.57005,53.76711],[12.57332,53.77022],[12.57205,53.77082],[12.56808,53.77514],[12.5625,53.7776],[12.5598,53.77823],[12.54952,53.77825],[12.51019,53.77533],[12.50105,53.7725],[12.50229,53.7711],[12.50259,53.76615],[12.50165,53.76175],[12.50019,53.76031],[12.49995,53.7587],[12.49622,53.75473],[12.49148,53.75188],[12.49094,53.7493],[12.493,53.74823],[12.48693,53.74173],[12.48508,53.73879],[12.48397,53.73439],[12.47038,53.72394],[12.47019,53.72512],[12.46732,53.72722],[12.46564,53.72772],[12.45929,53.72806],[12.45365,53.72969],[12.44674,53.73076],[12.43886,53.73141],[12.43562,53.73306],[12.43174,53.73377],[12.4264,53.73602],[12.42337,53.73681],[12.41708,53.73683],[12.41172,53.73801],[12.40893,53.73913],[12.40474,53.73988],[12.40226,53.74085],[12.40183,53.74269],[12.40065,53.74372],[12.39254,53.74668],[12.39073,53.74834],[12.38805,53.74943],[12.3755,53.73832],[12.37331,53.73565],[12.38934,53.72842],[12.38934,53.72666],[12.38771,53.72357],[12.38777,53.72233],[12.39256,53.71872],[12.39264,53.71527],[12.39638,53.713],[12.39685,53.71207],[12.39601,53.71151],[12.39784,53.70935],[12.39668,53.70832],[12.39013,53.70587],[12.38884,53.70448],[12.38578,53.70315],[12.3844,53.70018],[12.38005,53.69797],[12.37601,53.69843],[12.37391,53.69525],[12.36968,53.69139],[12.3708,53.68712],[12.37101,53.6825],[12.36267,53.68246],[12.35737,53.66832],[12.35258,53.66708],[12.34951,53.66675],[12.34807,53.66587],[12.34872,53.66551],[12.3499,53.65944],[12.34771,53.65658],[12.34114,53.65266],[12.33687,53.65113],[12.33454,53.64922],[12.33587,53.64242],[12.32913,53.64253],[12.3275,53.64225],[12.32503,53.64274],[12.32076,53.64279],[12.31842,53.63927],[12.32069,53.63841],[12.32617,53.63467],[12.32576,53.63118],[12.32898,53.62804],[12.33228,53.62352],[12.33095,53.61785],[12.32971,53.61723],[12.32876,53.61732],[12.32743,53.61624],[12.32157,53.61373],[12.31797,53.6133],[12.31585,53.61124],[12.31196,53.60959],[12.30793,53.60532],[12.30046,53.60339],[12.29791,53.60221],[12.29501,53.60002],[12.29394,53.59841],[12.29286,53.59539],[12.29389,53.59397],[12.29327,53.59236],[12.2893,53.59139],[12.28595,53.58893],[12.28374,53.58948],[12.27954,53.59148],[12.27027,53.59242],[12.26834,53.59206],[12.26529,53.59073],[12.26203,53.59021],[12.26115,53.59268],[12.25894,53.59603],[12.25881,53.59998],[12.25149,53.61558],[12.24843,53.61609],[12.24553,53.61523],[12.24368,53.61313],[12.23295,53.61109],[12.22851,53.61092],[12.22411,53.61146],[12.20916,53.61129],[12.20255,53.61365],[12.19733,53.61674],[12.16817,53.61907],[12.14792,53.61858],[12.12886,53.61614],[12.12788,53.61556],[12.12713,53.6142],[12.12401,53.61403],[12.11826,53.61457],[12.10807,53.61794],[12.10447,53.6174],[12.1012,53.61774],[12.09771,53.6162],[12.09485,53.61774],[12.08425,53.61946],[12.0797,53.62105],[12.07724,53.62416],[12.06932,53.62191],[12.06531,53.62006],[12.06093,53.61959],[12.05117,53.61635],[12.042,53.61504],[12.02563,53.61579],[12.02409,53.61523],[12.01312,53.61511],[12.00531,53.61609],[11.99806,53.61538],[11.99179,53.61227],[11.98992,53.61178],[11.98409,53.61219],[11.97611,53.61622],[11.97306,53.62038],[11.971,53.62146],[11.96836,53.62444],[11.96383,53.62757],[11.95922,53.62974],[11.95926,53.63019],[11.95534,53.63292],[11.95201,53.63779],[11.94761,53.63944],[11.95516,53.64714],[11.95347,53.6518],[11.94757,53.65577],[11.94789,53.65658],[11.94607,53.65826],[11.94186,53.66143],[11.91748,53.6645],[11.91156,53.66426],[11.90931,53.66203],[11.9054,53.6609],[11.89843,53.66135],[11.89354,53.65828],[11.89184,53.65781],[11.87414,53.65697],[11.86674,53.65699],[11.85811,53.65484],[11.85455,53.65581],[11.84897,53.65892],[11.84283,53.6604],[11.82522,53.65929],[11.81348,53.65579],[11.81077,53.65304],[11.80333,53.65021],[11.79597,53.6465],[11.79292,53.64435],[11.78848,53.64289],[11.78024,53.63768],[11.7617,53.63598],[11.75378,53.6345],[11.74434,53.6394],[11.74381,53.64008],[11.73087,53.64311],[11.70741,53.64676],[11.70701,53.64723],[11.70383,53.64824],[11.70134,53.64794],[11.70171,53.64944],[11.70003,53.65231],[11.70053,53.65643],[11.70012,53.65948],[11.70074,53.66165],[11.70205,53.66424],[11.70437,53.66583],[11.70426,53.66729],[11.70555,53.66911],[11.70726,53.67038],[11.70795,53.67306],[11.71098,53.67564],[11.71256,53.68001],[11.71231,53.68497],[11.70834,53.68482],[11.70261,53.68688],[11.69945,53.68622],[11.69726,53.68677],[11.69441,53.68592],[11.69211,53.6857],[11.66943,53.68898],[11.66621,53.68834],[11.65843,53.68551],[11.65248,53.68506],[11.64306,53.686],[11.65233,53.66231],[11.6522,53.65948],[11.64971,53.65727],[11.64883,53.65491],[11.64594,53.65206],[11.64658,53.64929],[11.64184,53.65118],[11.63559,53.65126],[11.6272,53.65388],[11.62444,53.65422],[11.61079,53.65879],[11.59974,53.65993],[11.5944,53.6609],[11.59141,53.6619],[11.58828,53.66182],[11.58719,53.6624],[11.58319,53.6624],[11.58083,53.66188],[11.57526,53.65995],[11.57081,53.65922],[11.56918,53.65804],[11.56549,53.65832],[11.54745,53.65744],[11.53781,53.65298],[11.5365,53.65133],[11.53526,53.64787],[11.53268,53.64515],[11.5294,53.64283],[11.52595,53.64208],[11.52399,53.64111],[11.52322,53.63927],[11.52281,53.63236],[11.52026,53.6324],[11.51833,53.63189],[11.51337,53.63242],[11.51595,53.62339],[11.51468,53.61635],[11.51485,53.61229],[11.51371,53.60912],[11.50934,53.60607],[11.50605,53.60146],[11.50575,53.60019],[11.49975,53.59826],[11.49603,53.5953],[11.49221,53.59562],[11.47181,53.60004],[11.45919,53.59976],[11.45582,53.59998],[11.45348,53.60054],[11.44945,53.60223],[11.43906,53.60408],[11.43014,53.6068],[11.42501,53.6077],[11.42231,53.61008],[11.41874,53.61223],[11.41074,53.61541],[11.40728,53.61931],[11.4102,53.62124],[11.4107,53.62262],[11.41353,53.62596],[11.41608,53.62624],[11.41709,53.62558],[11.42042,53.62676],[11.42615,53.64536],[11.42327,53.64637],[11.40748,53.64661],[11.40505,53.65326],[11.40321,53.67611],[11.40274,53.67735],[11.39563,53.68658],[11.39578,53.69085],[11.39143,53.6925],[11.38978,53.6921],[11.38827,53.69119],[11.38782,53.68971],[11.38499,53.69199],[11.3825,53.69531],[11.37617,53.69946],[11.3743,53.70222],[11.37252,53.70325],[11.36755,53.70478],[11.36469,53.70606],[11.36145,53.70881],[11.35931,53.70834],[11.35926,53.7096],[11.36046,53.71106],[11.35961,53.71355],[11.35514,53.71838],[11.35469,53.72677],[11.3492,53.72761],[11.34135,53.72984],[11.33508,53.73046],[11.33564,53.74145],[11.33926,53.74456],[11.34027,53.74658],[11.34184,53.74709],[11.34079,53.74949],[11.34092,53.75093],[11.34733,53.75977],[11.35235,53.76108],[11.35064,53.76582],[11.35094,53.77095],[11.3545,53.7734],[11.35287,53.77507],[11.34199,53.77715],[11.33583,53.77752],[11.33439,53.77728],[11.33049,53.77784],[11.3292,53.77842],[11.32841,53.7796],[11.32815,53.78286],[11.32731,53.78393],[11.34085,53.79269],[11.33671,53.79357],[11.33416,53.79606],[11.33111,53.79629],[11.32712,53.79765],[11.32349,53.79702],[11.32201,53.79814],[11.32296,53.79923],[11.32229,53.80031],[11.32259,53.80084],[11.32019,53.80241],[11.3186,53.80771],[11.31952,53.80966],[11.31673,53.8105],[11.31697,53.81144],[11.31523,53.81176],[11.31304,53.81041],[11.31216,53.80919],[11.3045,53.80432],[11.29925,53.799],[11.2956,53.79616],[11.29231,53.79623],[11.28903,53.79552],[11.28796,53.79567],[11.28401,53.797],[11.27674,53.80168],[11.26661,53.80327],[11.25727,53.80567],[11.24395,53.80574],[11.24254,53.805],[11.24344,53.80382],[11.24298,53.80344],[11.23444,53.80016],[11.23283,53.79868],[11.2291,53.79769],[11.2209,53.79449],[11.21582,53.79788],[11.21535,53.79928],[11.20876,53.80342],[11.20711,53.80378],[11.20668,53.80453],[11.20374,53.80576],[11.20393,53.80852],[11.20301,53.80985],[11.20251,53.81408],[11.19867,53.81706],[11.19548,53.81788],[11.19423,53.81938],[11.18595,53.81357],[11.18056,53.8091],[11.17219,53.80713],[11.17144,53.80668],[11.16962,53.80833],[11.1631,53.80887],[11.15908,53.80654],[11.15793,53.80631],[11.14783,53.80618],[11.14596,53.80533],[11.14421,53.80533],[11.13449,53.81097],[11.1253,53.81299],[11.12306,53.81183],[11.12039,53.81173],[11.11078,53.80785],[11.10452,53.80604],[11.10182,53.80491],[11.10058,53.80339],[11.09878,53.80271],[11.0956,53.80279],[11.08781,53.80192],[11.08543,53.80204],[11.08273,53.80142],[11.07679,53.79828],[11.07012,53.7929],[11.0675,53.79147],[11.06379,53.79044],[11.06128,53.78911],[11.05549,53.78891],[11.05383,53.7885],[11.0533,53.78788],[11.05353,53.7861],[11.05508,53.78241],[11.0551,53.78102],[11.0531,53.78076],[11.0518,53.78155],[11.04922,53.78138],[11.04463,53.78195],[11.04414,53.78247],[11.04364,53.78722],[11.04195,53.78904],[11.0254,53.79636],[11.0168,53.79885],[11.01422,53.79333],[11.00824,53.79136],[10.99676,53.79209],[10.98858,53.79608],[10.97925,53.78906],[10.97566,53.78149],[10.97287,53.78014],[10.97219,53.77939],[10.97004,53.77992],[10.96792,53.77921],[10.96133,53.78769],[10.96146,53.79449],[10.96011,53.79949],[10.96034,53.80093],[10.95914,53.80368],[10.95826,53.80443],[10.95605,53.80447],[10.95624,53.80578],[10.95479,53.80627],[10.9453,53.81297],[10.93698,53.82009],[10.93168,53.81756],[10.92801,53.81737],[10.9259,53.81582],[10.92753,53.80646],[10.92309,53.80408],[10.91432,53.80374],[10.91249,53.80316],[10.90771,53.80256],[10.90567,53.80554],[10.90397,53.81262],[10.90264,53.81303],[10.89861,53.8123],[10.89709,53.81277],[10.89567,53.80992],[10.89425,53.81009],[10.89312,53.80904],[10.88464,53.80878],[10.88181,53.80561],[10.87773,53.807],[10.87539,53.80726],[10.87108,53.80415],[10.86773,53.80243],[10.85825,53.80217],[10.85838,53.7993],[10.85636,53.79677],[10.84735,53.80234],[10.84527,53.80408],[10.83973,53.80582],[10.83745,53.80707],[10.83722,53.80621],[10.83649,53.80597],[10.83263,53.80584],[10.83104,53.80468],[10.83016,53.80269],[10.82739,53.80252],[10.82606,53.80155],[10.82387,53.80157],[10.82359,53.80262],[10.82134,53.8037],[10.81252,53.8049],[10.80889,53.80694],[10.79486,53.80831],[10.79295,53.8093],[10.79512,53.81067],[10.79641,53.81342],[10.79623,53.81432],[10.79269,53.81518],[10.79038,53.81503],[10.78845,53.81584],[10.79121,53.81636],[10.796,53.81925],[10.80527,53.82378],[10.81055,53.82161],[10.8137,53.82093],[10.81874,53.82118],[10.82327,53.82286],[10.82492,53.82301],[10.82675,53.82262],[10.82763,53.82333],[10.82694,53.82603],[10.82632,53.82653],[10.82233,53.82679],[10.81454,53.82799],[10.81072,53.82794],[10.81007,53.82985],[10.811,53.8311],[10.81087,53.8317],[10.80619,53.83284],[10.79907,53.83236],[10.79945,53.83309],[10.79823,53.84281],[10.79962,53.84472],[10.80838,53.84964],[10.8102,53.85429],[10.81239,53.85657],[10.82559,53.86494],[10.83183,53.87077],[10.82647,53.87182],[10.81902,53.87502],[10.81907,53.87642],[10.81696,53.87914],[10.82046,53.88122],[10.82188,53.88378],[10.81975,53.88339],[10.81585,53.8817],[10.81241,53.88386],[10.80529,53.88414],[10.79887,53.88811],[10.78143,53.88815],[10.77031,53.88996],[10.76896,53.88957],[10.75186,53.89493],[10.74802,53.89777],[10.74553,53.89751],[10.74486,53.89631],[10.7457,53.89618],[10.75293,53.89783],[10.76671,53.89933],[10.77566,53.9018],[10.77877,53.90358],[10.77922,53.90465],[10.77819,53.90483],[10.77727,53.90337],[10.779,53.90287],[10.78072,53.90459],[10.78016,53.90648],[10.78132,53.90753],[10.79205,53.91156],[10.7972,53.91311],[10.79829,53.91191],[10.80117,53.91375],[10.79748,53.91453],[10.79057,53.91695],[10.78746,53.91747],[10.78832,53.91927],[10.79014,53.92045],[10.78624,53.92746],[10.78475,53.92905],[10.78321,53.93583],[10.78154,53.93639],[10.77838,53.93409],[10.7739,53.93195],[10.76774,53.93023],[10.76343,53.93038],[10.7601,53.93107],[10.74976,53.93206],[10.74744,53.93195],[10.74439,53.93257],[10.73476,53.93281],[10.73396,53.93525],[10.73414,53.938],[10.73317,53.94075],[10.73289,53.94493],[10.73493,53.94759],[10.73911,53.94796],[10.74083,53.9489],[10.74259,53.94916],[10.74725,53.95527],[10.74551,53.95961],[10.74268,53.96139],[10.7424,53.9666],[10.74296,53.96877],[10.74379,53.96974],[10.7439,53.97261],[10.7465,53.97729],[10.74626,53.98207],[10.74772,53.98446],[10.75021,53.98673],[10.75049,53.98804],[10.74467,53.98752],[10.7404,53.98843],[10.7318,53.98866],[10.72723,53.98969],[10.71401,53.99074],[10.71751,53.99478],[10.71781,53.99621],[10.71607,53.99632],[10.71549,53.99604],[10.71238,53.99664],[10.70942,53.99877],[10.70798,54.00109],[10.70585,54.00681],[10.7021,54.01293],[10.69983,54.01437],[10.6974,54.01518],[10.69618,54.0169],[10.6915,54.01804],[10.68738,54.01975],[10.68513,54.02128],[10.68455,54.02126],[10.68382,54.02454],[10.67974,54.02443],[10.67281,54.02649],[10.66951,54.02703],[10.66783,54.0269],[10.6665,54.02731],[10.66511,54.02836],[10.66221,54.03396],[10.66137,54.03415],[10.65897,54.04055],[10.65916,54.04274],[10.66481,54.04329],[10.66633,54.04385],[10.67925,54.04585],[10.67852,54.04765],[10.67352,54.04945],[10.67122,54.05072],[10.67142,54.05175],[10.67446,54.05211],[10.67785,54.05413],[10.67672,54.05527],[10.6736,54.05615],[10.6723,54.05707],[10.66914,54.05694],[10.66783,54.06389],[10.66993,54.06994],[10.66914,54.07479],[10.67279,54.07872],[10.67476,54.08428],[10.68146,54.08488],[10.68461,54.08556],[10.68583,54.08544],[10.68927,54.08711],[10.69912,54.08245],[10.70704,54.08477],[10.71517,54.08503],[10.71375,54.08743],[10.71246,54.09241],[10.71128,54.09318],[10.70854,54.09376],[10.70783,54.09481],[10.7127,54.10097],[10.71497,54.10496],[10.71558,54.10511],[10.72113,54.10359],[10.7233,54.10438],[10.72536,54.10453],[10.72727,54.10754],[10.72776,54.11176],[10.72982,54.11477],[10.72259,54.11513],[10.71939,54.11477],[10.71832,54.11526],[10.71804,54.11855],[10.71264,54.12065],[10.71208,54.12198],[10.71008,54.12206],[10.70813,54.12479],[10.70521,54.127],[10.70487,54.1293],[10.70324,54.132],[10.70204,54.13275],[10.70204,54.13457],[10.70116,54.13498],[10.70326,54.13691],[10.7036,54.13848],[10.7015,54.13944],[10.70116,54.14052],[10.69871,54.14142],[10.69871,54.14281],[10.69738,54.14294],[10.69744,54.14625],[10.69641,54.14871],[10.68747,54.14726],[10.68699,54.15442],[10.68832,54.15522],[10.68781,54.1573],[10.69053,54.15884],[10.69041,54.15936],[10.68899,54.16],[10.68965,54.16361],[10.68729,54.16438],[10.68734,54.16552],[10.68665,54.16612],[10.68313,54.16532],[10.68144,54.16689],[10.67835,54.16861],[10.67614,54.17189],[10.67315,54.17376],[10.67281,54.17442],[10.67429,54.17695],[10.67869,54.17813],[10.67955,54.17895],[10.67938,54.17994],[10.67629,54.18139],[10.67493,54.18163],[10.67354,54.18298],[10.6709,54.18451],[10.67056,54.18551],[10.66633,54.18629],[10.66566,54.18734],[10.6656,54.18942],[10.66393,54.19032],[10.6632,54.19414],[10.66142,54.19506],[10.65734,54.19536],[10.65547,54.19841],[10.65318,54.198],[10.65071,54.19813],[10.65009,54.19852],[10.6503,54.20056],[10.64906,54.2009],[10.64498,54.20094],[10.6415,54.20234],[10.63732,54.20281],[10.63584,54.20332],[10.63161,54.20744],[10.63195,54.20888],[10.62959,54.21043],[10.62936,54.213],[10.62668,54.21652],[10.62241,54.21817],[10.61893,54.22137],[10.61717,54.22191],[10.61035,54.22186],[10.60812,54.22098],[10.60734,54.22167],[10.60781,54.2221],[10.60766,54.22352],[10.60925,54.22444],[10.61407,54.22893],[10.6156,54.22925],[10.61485,54.23064],[10.61133,54.23392],[10.60998,54.23465],[10.60758,54.23772],[10.61144,54.24115],[10.61264,54.24525],[10.61569,54.24965],[10.61578,54.25184],[10.61236,54.25306],[10.61303,54.25484],[10.61157,54.25793],[10.60968,54.25922],[10.60775,54.2598],[10.60518,54.26306],[10.60198,54.26551],[10.60138,54.26716],[10.60005,54.26755],[10.59994,54.26847],[10.60118,54.26963],[10.60121,54.27115],[10.59824,54.2769],[10.59968,54.28081],[10.5979,54.28407],[10.59687,54.28506],[10.59462,54.28602],[10.59468,54.28647],[10.59747,54.2875],[10.59633,54.28868],[10.59713,54.28941],[10.60063,54.28958],[10.60118,54.28999],[10.60125,54.29109],[10.59934,54.29072],[10.59397,54.29224],[10.58966,54.29197],[10.58794,54.29158],[10.58361,54.28823]]}},{"type":"Feature","properties":{"name":"TET_D-03_20260525","country":"DE","lengthKm":195},"geometry":{"type":"LineString","coordinates":[[9.75053,53.93077],[9.74844,53.93085],[9.7468,53.93135],[9.74983,53.93551],[9.74974,53.93669],[9.74901,53.93716],[9.73582,53.94004],[9.73281,53.93961],[9.72762,53.93959],[9.72234,53.9401],[9.71743,53.94109],[9.71144,53.94313],[9.69732,53.94903],[9.69355,53.94946],[9.6932,53.95094],[9.69507,53.95411],[9.67383,53.95553],[9.66829,53.9572],[9.66737,53.95819],[9.66992,53.95946],[9.67426,53.96334],[9.67479,53.9645],[9.67196,53.9722],[9.66915,53.98287],[9.66374,53.9828],[9.66424,53.98471],[9.65572,53.98838],[9.66009,53.98973],[9.65587,53.99244],[9.65544,53.99381],[9.63791,53.99583],[9.63849,53.99817],[9.63651,54.00718],[9.63664,54.02392],[9.63503,54.02943],[9.63537,54.03074],[9.63615,54.03125],[9.64334,54.03173],[9.64694,54.03447],[9.64898,54.03531],[9.65361,54.03546],[9.65767,54.03619],[9.65507,54.05252],[9.65245,54.05799],[9.6493,54.06104],[9.64979,54.06119],[9.64994,54.06372],[9.65164,54.06715],[9.652,54.06919],[9.65492,54.0731],[9.6511,54.07572],[9.64881,54.092],[9.6458,54.0932],[9.64512,54.09762],[9.64329,54.09992],[9.6425,54.10226],[9.63945,54.10365],[9.63694,54.10584],[9.63263,54.1082],[9.6284,54.10938],[9.62568,54.11067],[9.62327,54.11528],[9.62319,54.11863],[9.62153,54.12204],[9.62276,54.12447],[9.62254,54.12616],[9.62435,54.12994],[9.62362,54.13318],[9.62241,54.13526],[9.62274,54.13835],[9.62183,54.13966],[9.6187,54.14226],[9.62042,54.14449],[9.62205,54.14511],[9.6258,54.1479],[9.62816,54.14908],[9.63153,54.15326],[9.63617,54.15489],[9.63655,54.15614],[9.63237,54.15942],[9.63087,54.16146],[9.63355,54.16386],[9.63415,54.16599],[9.63387,54.16712],[9.63211,54.16841],[9.62808,54.168],[9.62759,54.16852],[9.62286,54.16936],[9.62383,54.17144],[9.62016,54.17273],[9.62119,54.17483],[9.62332,54.17659],[9.62492,54.17723],[9.62578,54.17878],[9.62744,54.18],[9.62239,54.18208],[9.62205,54.1836],[9.61533,54.18665],[9.61503,54.18742],[9.61664,54.1882],[9.61806,54.19013],[9.61866,54.19049],[9.61965,54.19036],[9.6199,54.19144],[9.62304,54.1921],[9.62267,54.19343],[9.62353,54.1947],[9.62881,54.19796],[9.63589,54.20362],[9.63769,54.2047],[9.63928,54.20491],[9.64048,54.20605],[9.63003,54.20963],[9.62632,54.21159],[9.62076,54.213],[9.62038,54.21811],[9.62553,54.22028],[9.62829,54.22416],[9.62952,54.22746],[9.63269,54.22974],[9.63591,54.2298],[9.63884,54.23043],[9.64473,54.23238],[9.64308,54.23779],[9.63932,54.24169],[9.65503,54.2468],[9.65374,54.24813],[9.64799,54.25182],[9.64443,54.25536],[9.64108,54.25778],[9.63887,54.25866],[9.63432,54.25922],[9.63297,54.25982],[9.6319,54.26165],[9.6322,54.2675],[9.63312,54.26881],[9.63563,54.27055],[9.64205,54.27997],[9.64323,54.28044],[9.64821,54.28014],[9.65198,54.27898],[9.65891,54.27757],[9.65966,54.27826],[9.66136,54.27881],[9.66241,54.27866],[9.66282,54.27819],[9.66258,54.27761],[9.66162,54.27759],[9.65846,54.2816],[9.65451,54.29482],[9.6525,54.29774],[9.64814,54.3004],[9.63907,54.30312],[9.63207,54.30643],[9.62909,54.30881],[9.62902,54.31061],[9.62623,54.31518],[9.62701,54.32287],[9.62791,54.32398],[9.63061,54.3257],[9.63121,54.32836],[9.63355,54.33269],[9.63563,54.33518],[9.63595,54.33776],[9.63782,54.34252],[9.63881,54.35359],[9.63984,54.35602],[9.64544,54.35988],[9.64638,54.36263],[9.66378,54.37119],[9.67084,54.3734],[9.6728,54.37473],[9.67385,54.37621],[9.67402,54.37835],[9.67138,54.38325],[9.67213,54.38968],[9.66934,54.39891],[9.66653,54.40082],[9.66443,54.40013],[9.65593,54.39872],[9.64585,54.39943],[9.64188,54.40041],[9.64117,54.40164],[9.63915,54.40312],[9.6384,54.40468],[9.63911,54.40927],[9.63276,54.41595],[9.63078,54.42039],[9.62789,54.42204],[9.62203,54.42275],[9.62048,54.42348],[9.61347,54.4306],[9.60578,54.43524],[9.59791,54.44211],[9.59312,54.44869],[9.58928,54.44906],[9.58473,54.44805],[9.58338,54.45002],[9.57946,54.45234],[9.57793,54.4521],[9.57446,54.45268],[9.57306,54.45176],[9.57205,54.45734],[9.56592,54.45861],[9.56053,54.46279],[9.55411,54.46672],[9.55244,54.46987],[9.55495,54.47026],[9.55723,54.47112],[9.55976,54.4711],[9.56665,54.47242],[9.56551,54.47504],[9.56596,54.47646],[9.56128,54.47665],[9.55871,54.4777],[9.55461,54.47805],[9.55319,54.47792],[9.55072,54.47691],[9.54851,54.47667],[9.54585,54.47743],[9.54461,54.47423],[9.54302,54.47506],[9.54296,54.47635],[9.53967,54.47811],[9.53624,54.4788],[9.53508,54.48041],[9.53171,54.48139],[9.5307,54.4797],[9.52787,54.47865],[9.5192,54.47908],[9.51406,54.4801],[9.50938,54.47959],[9.50935,54.4823],[9.50835,54.48549],[9.50749,54.48554],[9.50598,54.48526],[9.5027,54.48371],[9.4988,54.48311],[9.49839,54.4844],[9.49717,54.48459],[9.49472,54.48214],[9.48929,54.48049],[9.48478,54.47852],[9.48277,54.48026],[9.48184,54.48009],[9.47974,54.48204],[9.47534,54.48013],[9.4741,54.48103],[9.47174,54.48026],[9.47079,54.48124],[9.45337,54.47648],[9.44841,54.48047],[9.44037,54.47813],[9.43687,54.47655],[9.43376,54.47588],[9.41352,54.4753],[9.41374,54.47438],[9.41153,54.47414],[9.41099,54.47333],[9.40711,54.47298],[9.40466,54.47094],[9.40112,54.46921],[9.40136,54.46854],[9.39702,54.46717],[9.39187,54.46618],[9.36881,54.46519],[9.36975,54.4673],[9.36893,54.47022],[9.36547,54.46982],[9.36539,54.47007],[9.36547,54.46982],[9.3537,54.46848],[9.3531,54.47084],[9.33743,54.46897],[9.3417,54.47669],[9.34499,54.48036],[9.34314,54.48794],[9.34514,54.49268],[9.34402,54.49429],[9.33939,54.49757],[9.3337,54.4994],[9.33486,54.49991],[9.33763,54.50367],[9.33645,54.50983],[9.33823,54.5112],[9.3361,54.51184],[9.33499,54.51423],[9.33477,54.52077],[9.32789,54.52083],[9.32698,54.52442],[9.32705,54.5277],[9.33718,54.535],[9.33799,54.53714],[9.33546,54.53884],[9.33338,54.54223],[9.33761,54.54989],[9.3393,54.55137],[9.33954,54.55257],[9.34325,54.55589],[9.33297,54.55763],[9.33029,54.55577],[9.31922,54.55405],[9.31156,54.55648],[9.30233,54.55806],[9.29085,54.55856],[9.28952,54.55888],[9.28679,54.55662],[9.27547,54.5575],[9.27248,54.55738],[9.26944,54.54924],[9.2633,54.54568],[9.25834,54.54553],[9.25613,54.54435],[9.25577,54.54351],[9.25632,54.5421],[9.25965,54.53907],[9.24736,54.53862],[9.24787,54.5345],[9.23199,54.53431],[9.23264,54.53319],[9.23603,54.53188],[9.23607,54.5297],[9.23073,54.5295],[9.225,54.52836],[9.2245,54.52727],[9.22064,54.52802],[9.21815,54.52506],[9.21727,54.52527],[9.21304,54.52266],[9.2094,54.52384],[9.20654,54.52379],[9.20781,54.52712],[9.20706,54.53115],[9.20523,54.53139],[9.2044,54.53216],[9.19017,54.53351],[9.17815,54.53594],[9.17296,54.53594],[9.16268,54.53684],[9.16253,54.5413],[9.16084,54.54626],[9.15889,54.54647],[9.16335,54.55808],[9.16925,54.56615],[9.17661,54.58235],[9.17388,54.58317],[9.17105,54.58733],[9.17135,54.58931],[9.17328,54.5907],[9.17416,54.59594],[9.17661,54.59589],[9.1818,54.59246],[9.18298,54.59411],[9.18335,54.59628],[9.18524,54.59761],[9.18444,54.59776],[9.18097,54.60106],[9.17689,54.60093],[9.17888,54.60368],[9.17869,54.6087],[9.17378,54.61291],[9.17279,54.61452],[9.173,54.61604],[9.17086,54.61999],[9.16816,54.62046],[9.16816,54.62162],[9.16301,54.62241],[9.15298,54.62323],[9.14545,54.62171],[9.13496,54.62188],[9.13067,54.62033],[9.12713,54.62325],[9.12631,54.62542],[9.12333,54.62632],[9.11932,54.62847],[9.11927,54.63061],[9.12273,54.63615],[9.11691,54.63752],[9.11404,54.63739],[9.1197,54.64477],[9.11988,54.64677],[9.1182,54.64703],[9.11438,54.64859],[9.1173,54.64904],[9.11357,54.65421],[9.10674,54.65574],[9.10106,54.65651],[9.09026,54.66192],[9.09488,54.66715],[9.10241,54.67192],[9.10513,54.67694],[9.1073,54.67846],[9.10906,54.67866],[9.10979,54.68187],[9.11078,54.68284],[9.11161,54.68496],[9.11067,54.68655],[9.11172,54.68994],[9.10889,54.69217],[9.10833,54.69535],[9.10535,54.6984],[9.10387,54.69917],[9.10537,54.70067],[9.10305,54.70204],[9.11043,54.70981],[9.112,54.71211],[9.11344,54.72511],[9.11367,54.73477],[9.11262,54.73891],[9.11046,54.73878],[9.10741,54.73923],[9.10451,54.74022],[9.10374,54.74084],[9.10303,54.74219],[9.10406,54.74438],[9.10322,54.74715],[9.10835,54.75584],[9.11606,54.75449],[9.11691,54.76058],[9.11618,54.76107],[9.11172,54.76178],[9.11065,54.7691],[9.10867,54.77009],[9.10355,54.77125],[9.09741,54.77163],[9.08855,54.77397],[9.08265,54.7744],[9.0773,54.77433],[9.07675,54.77624],[9.07252,54.77697],[9.06565,54.78167],[9.0569,54.78581],[9.05364,54.78824],[9.04988,54.78901],[9.04872,54.79017],[9.04576,54.78957],[9.03179,54.78862],[9.02647,54.78929],[9.02478,54.79064],[9.02456,54.79217],[9.01969,54.79474],[9.01259,54.80081],[9.01175,54.80197],[9.01126,54.80429],[9.01033,54.80526],[9.00572,54.80732],[8.99467,54.80978],[8.9881,54.81167],[8.98064,54.81635],[8.97604,54.82199],[8.97506,54.82858],[8.96866,54.82819],[8.96776,54.82871],[8.96452,54.82841],[8.96349,54.83178],[8.96205,54.83255],[8.96092,54.83407],[8.9595,54.83422],[8.9586,54.83482],[8.94343,54.83358],[8.94096,54.83414],[8.93776,54.84175],[8.93716,54.84551],[8.93474,54.85081],[8.93341,54.8521],[8.9292,54.85469],[8.91925,54.86368],[8.90839,54.86901],[8.90607,54.86939],[8.90826,54.8731],[8.90869,54.87737],[8.9103,54.87707],[8.91601,54.88383],[8.91759,54.88401],[8.92268,54.88302],[8.92577,54.88765],[8.938,54.88853],[8.93764,54.89124],[8.93796,54.893],[8.93864,54.8936],[8.9456,54.89109],[8.94549,54.89681],[8.94954,54.89587],[8.9539,54.89546],[8.95826,54.89413],[8.96152,54.894],[8.96278,54.89495],[8.96409,54.89855],[8.96285,54.89978]]}}]}