{"type":"FeatureCollection","features":[{"type":"Feature","properties":{"name":"TET_DK-01-East_20260716","country":"DK","lengthKm":389.3},"geometry":{"type":"LineString","coordinates":[[11.35084,54.65431],[11.35853,54.65848],[11.36012,54.65913],[11.36089,54.65878],[11.36295,54.65977],[11.3636,54.66046],[11.35793,54.6623],[11.36291,54.66702],[11.36574,54.66801],[11.37347,54.66896],[11.37832,54.67175],[11.38372,54.68797],[11.39205,54.68848],[11.39488,54.69333],[11.3951,54.69552],[11.41952,54.69269],[11.44827,54.69406],[11.45132,54.69496],[11.45715,54.71157],[11.48046,54.70788],[11.51373,54.7077],[11.52262,54.70674],[11.52721,54.71339],[11.52906,54.71468],[11.53004,54.71438],[11.53159,54.71487],[11.53727,54.71533],[11.54562,54.7153],[11.54553,54.7142],[11.55232,54.71232],[11.55612,54.71249],[11.56273,54.71177],[11.56612,54.70923],[11.56874,54.70898],[11.57079,54.70775],[11.57418,54.70719],[11.5804,54.70799],[11.58803,54.70815],[11.59604,54.70781],[11.59603,54.70887],[11.60111,54.70881],[11.606,54.71082],[11.60728,54.71094],[11.60989,54.7135],[11.61907,54.7105],[11.62783,54.70655],[11.631,54.70578],[11.63208,54.70432],[11.62778,54.69921],[11.62711,54.69674],[11.6371,54.69698],[11.64568,54.69612],[11.64894,54.69621],[11.64954,54.69573],[11.6625,54.69466],[11.66452,54.69402],[11.66765,54.69423],[11.67117,54.69312],[11.68636,54.68535],[11.70246,54.67865],[11.71104,54.67428],[11.71885,54.6723],[11.72829,54.67149],[11.72872,54.66698],[11.73078,54.66737],[11.73267,54.66574],[11.73979,54.66715],[11.74267,54.66715],[11.76026,54.66346],[11.76872,54.66282],[11.77503,54.66299],[11.77992,54.66243],[11.78202,54.66668],[11.78473,54.66844],[11.7864,54.67205],[11.79009,54.672],[11.79288,54.68059],[11.79249,54.68363],[11.79065,54.68565],[11.78567,54.69509],[11.78421,54.69638],[11.77696,54.70818],[11.7791,54.70938],[11.79348,54.7205],[11.79876,54.73264],[11.80756,54.73856],[11.82725,54.75298],[11.82867,54.75474],[11.82867,54.75723],[11.84069,54.75826],[11.8473,54.75809],[11.85541,54.75728],[11.8603,54.75753],[11.86807,54.75942],[11.8706,54.76071],[11.86978,54.76114],[11.86901,54.76024],[11.87257,54.75702],[11.87622,54.75483],[11.88047,54.75088],[11.88326,54.74921],[11.88716,54.74861],[11.88995,54.74899],[11.89974,54.75324],[11.90266,54.75311],[11.90463,54.7535],[11.90772,54.7556],[11.91253,54.75749],[11.9172,54.75818],[11.92712,54.75856],[11.94652,54.76152],[11.96544,54.76895],[11.9684,54.76959],[11.97845,54.77071],[11.98613,54.77144],[11.99664,54.76573],[12.00243,54.7638],[12.00913,54.76449],[12.01128,54.76882],[12.01681,54.76843],[12.01741,54.76942],[12.01883,54.76959],[12.02239,54.76929],[12.02235,54.76788],[12.05187,54.76466],[12.05758,54.77105],[12.05904,54.77195],[12.06183,54.77603],[12.06398,54.77792],[12.0602,54.77985],[12.05123,54.78581],[12.03677,54.7865],[12.03685,54.78925],[12.03106,54.78972],[12.03007,54.79156],[12.03226,54.79229],[12.04587,54.79912],[12.04754,54.80114],[12.04943,54.8065],[12.05149,54.80839],[12.06277,54.81002],[12.06878,54.81251],[12.07458,54.81371],[12.07878,54.81375],[12.09728,54.80976],[12.10483,54.80774],[12.11208,54.80525],[12.11577,54.80749],[12.11985,54.80826],[12.12436,54.81058],[12.12929,54.81727],[12.13084,54.82083],[12.1317,54.82096],[12.13491,54.82302],[12.13474,54.82444],[12.1362,54.8256],[12.135,54.8289],[12.13543,54.83079],[12.13371,54.83817],[12.132,54.83989],[12.12028,54.83933],[12.11427,54.8401],[12.10659,54.84049],[12.10075,54.8395],[12.09629,54.83946],[12.09414,54.84027],[12.09264,54.84469],[12.08573,54.84791],[12.08552,54.84993],[12.08899,54.858],[12.08676,54.86581],[12.08033,54.86701],[12.07805,54.86881],[12.0711,54.87147],[12.07011,54.87439],[12.06749,54.87568],[12.06548,54.87795],[12.06505,54.88362],[12.05711,54.88503],[12.05101,54.88671],[12.04797,54.88791],[12.04809,54.88976],[12.04672,54.89059],[12.04338,54.89141],[12.04363,54.89305],[12.04634,54.8957],[12.04688,54.89718],[12.04442,54.90217],[12.04432,54.90455],[12.0479,54.9101],[12.05164,54.91334],[12.06011,54.9131],[12.07247,54.91014],[12.10573,54.90465],[12.11633,54.90392],[12.11942,54.9043],[12.14294,54.91456],[12.14989,54.91851],[12.15633,54.92126],[12.18324,54.92808],[12.19817,54.92937],[12.21057,54.93464],[12.21723,54.93958],[12.21826,54.94138],[12.21993,54.94215],[12.22671,54.94361],[12.23778,54.9507],[12.23864,54.9519],[12.24104,54.95932],[12.24293,54.95962],[12.24516,54.95945],[12.24731,54.95825],[12.25233,54.9579],[12.25546,54.95829],[12.2607,54.96052],[12.26512,54.96151],[12.26864,54.95932],[12.27744,54.96095],[12.2798,54.96177],[12.28237,54.96172],[12.29507,54.96301],[12.2955,54.96507],[12.29499,54.96576],[12.29546,54.96644],[12.29937,54.96863],[12.30134,54.97035],[12.30713,54.9731],[12.30778,54.97537],[12.30889,54.97623],[12.31215,54.9773],[12.31349,54.97632],[12.32602,54.97426],[12.33619,54.97589],[12.33782,54.97765],[12.34696,54.97765],[12.34996,54.97816],[12.3549,54.97838],[12.35571,54.97503],[12.35713,54.97396],[12.36181,54.9734],[12.37288,54.97417],[12.37537,54.97331],[12.38674,54.9725],[12.38876,54.97507],[12.38786,54.97838],[12.38571,54.98129],[12.38374,54.98541],[12.3846,54.98803],[12.3861,54.98687],[12.38876,54.98597],[12.39477,54.9855],[12.40077,54.9843],[12.40305,54.98456],[12.41511,54.98258],[12.42867,54.98228],[12.43116,54.98301],[12.43442,54.98301],[12.43652,54.98241],[12.44296,54.97657],[12.45459,54.97293],[12.45656,54.97177],[12.4639,54.96975],[12.47712,54.96898],[12.4812,54.96945],[12.48188,54.97048],[12.49244,54.96885],[12.49253,54.96614],[12.4933,54.96537],[12.49588,54.96391],[12.50145,54.96198],[12.5066,54.96074],[12.51021,54.96048],[12.51785,54.96121],[12.52038,54.96181],[12.52497,54.96172],[12.5272,54.96117],[12.52716,54.95988],[12.53265,54.95863],[12.53373,54.95782],[12.53527,54.95825],[12.53523,54.95962],[12.53712,54.96125],[12.54089,54.96185],[12.54604,54.96524],[12.54587,54.96683],[12.54501,54.96713],[12.54231,54.96653],[12.54085,54.96683],[12.53978,54.96855],[12.54046,54.96979],[12.53592,54.97125],[12.53257,54.97331],[12.53261,54.97447],[12.53175,54.9752],[12.52832,54.97499],[12.52665,54.97567],[12.52506,54.9758],[12.52566,54.97726],[12.52308,54.98052],[12.52596,54.98288],[12.52536,54.98451],[12.52368,54.98644],[12.5248,54.98936],[12.52742,54.99211],[12.52729,54.99374],[12.52102,54.99687],[12.51871,54.99906],[12.51708,54.99978],[12.51549,54.99996],[12.50768,54.99923],[12.49952,54.99631],[12.493,54.99507],[12.4818,54.99387],[12.47502,54.99516],[12.47159,54.99636],[12.45978,54.99717],[12.4585,54.99704],[12.45811,54.9958],[12.45626,54.9949],[12.45309,54.99404],[12.45163,54.99571],[12.44944,54.99627],[12.44506,54.99614],[12.43751,54.99507],[12.41562,54.99425],[12.4003,54.99563],[12.38932,54.9958],[12.38773,54.99541],[12.38412,54.99357],[12.3806,54.99082],[12.37807,54.98958],[12.37455,54.98872],[12.37202,54.98855],[12.36228,54.98928],[12.35194,54.99151],[12.3382,54.99207],[12.32971,54.99374],[12.32516,54.99395],[12.3149,54.99524],[12.31027,54.99528],[12.30198,54.9937],[12.29477,54.99108],[12.29138,54.98902],[12.28851,54.98653],[12.28851,54.98601],[12.2858,54.98468],[12.28465,54.98344],[12.27855,54.98061],[12.27323,54.97936],[12.24688,54.97147],[12.23658,54.96739],[12.23049,54.96666],[12.21572,54.96812],[12.20881,54.96666],[12.205,54.96666],[12.20225,54.96739],[12.20075,54.96846],[12.1956,54.97293],[12.19367,54.9758],[12.19216,54.97683],[12.17431,54.98228],[12.17096,54.98391],[12.15933,54.9943],[12.15796,54.99739],[12.13766,54.9961],[12.12552,54.9967],[12.12547,55.00031],[12.1247,55.00142],[12.12487,55.0058],[12.11977,55.00515],[12.10788,55.00511],[12.10762,55.00644],[12.10329,55.00653],[12.10183,55.00687],[12.095,55.00618],[12.08994,55.00468],[12.08466,55.00498],[12.07998,55.00606],[12.07698,55.00953],[12.07174,55.00661],[12.06522,55.00631],[12.05711,55.00464],[12.04814,55.0049],[12.04453,55.00382],[12.03561,55.0049],[12.03093,55.00412],[12.02909,55.00803],[12.03351,55.01494],[12.03338,55.0197],[12.03672,55.02528],[12.03599,55.02833],[12.02707,55.03374],[12.01952,55.03743],[12.01896,55.04039],[12.01557,55.04017],[12.00823,55.04258],[12.00797,55.04296],[12.00239,55.04305],[11.98956,55.04228],[11.97583,55.04386],[11.97269,55.04395],[11.97119,55.04365],[11.96806,55.04837],[11.96772,55.04992],[11.96978,55.05129],[11.97072,55.05313],[11.97604,55.05743],[11.97857,55.06167],[11.98501,55.06579],[11.98977,55.06768],[11.99411,55.06803],[11.99621,55.06974],[11.99849,55.07288],[12.00419,55.07292],[12.00917,55.07352],[12.00887,55.07433],[12.00707,55.07566],[12.00883,55.0797],[12.0111,55.08227],[12.01183,55.08459],[12.0154,55.09026],[12.01544,55.09214],[12.02162,55.09652],[12.02398,55.10193],[12.02557,55.10287],[12.02788,55.10523],[12.0323,55.10691],[12.02994,55.11227],[12.0305,55.1133],[12.03235,55.11442],[12.03484,55.11721],[12.03604,55.12025],[12.03475,55.12128],[12.03565,55.12154],[12.03329,55.12429],[12.03222,55.12716],[12.03037,55.12815],[12.0281,55.13081],[12.02308,55.1324],[12.01887,55.13437],[12.0181,55.13729],[12.01501,55.14085],[12.01342,55.14394],[12.01162,55.14459],[12.00797,55.14497],[12.00754,55.14553],[12.00982,55.14896],[12.01303,55.15077],[12.01643,55.15411],[12.01969,55.15841],[12.02162,55.16201],[12.02308,55.16347],[12.02806,55.16656],[12.0329,55.16776],[12.02587,55.17703],[12.0187,55.17969],[12.012,55.18733],[12.01003,55.18806],[12.00542,55.1924],[12.00498,55.19341],[12.00645,55.19776],[12.00498,55.19796],[12.00424,55.19994],[12.00217,55.20008],[12.00184,55.20051],[11.99707,55.20182],[11.99319,55.20439],[11.9875,55.20437],[11.98209,55.20535],[11.97372,55.20557],[11.96428,55.2072],[11.95965,55.20694],[11.95471,55.20767],[11.95308,55.20836],[11.95137,55.21102],[11.94763,55.21299],[11.94682,55.21497],[11.94961,55.21874],[11.9521,55.22063],[11.95295,55.22205],[11.95184,55.22458],[11.95257,55.23123],[11.9533,55.23162],[11.95248,55.23707],[11.95377,55.23909],[11.95291,55.24003],[11.94926,55.24127],[11.94364,55.242],[11.94089,55.24102],[11.93699,55.24037],[11.93274,55.23849],[11.92914,55.23853],[11.92776,55.23904],[11.92729,55.2396],[11.92836,55.2466],[11.92798,55.24715],[11.92682,55.24715],[11.92643,55.25218],[11.92489,55.25385],[11.92188,55.25484],[11.91918,55.25775],[11.91965,55.25896],[11.92527,55.25969],[11.92411,55.2599],[11.92223,55.2629],[11.91969,55.26376],[11.91901,55.26732],[11.92369,55.26805],[11.92669,55.26913],[11.93334,55.27016],[11.94137,55.2705],[11.9439,55.27127],[11.94516,55.27215],[11.94695,55.27586],[11.94673,55.27719],[11.94467,55.27943],[11.94334,55.2823],[11.9442,55.28458],[11.94828,55.28398],[11.95862,55.28355],[11.96411,55.28574],[11.96514,55.28664],[11.96548,55.2881],[11.96776,55.289],[11.96935,55.29041],[11.979,55.30157],[11.98261,55.30196],[11.98664,55.30183],[11.99136,55.30067],[11.99711,55.29818],[11.99814,55.29831],[12.00334,55.30771],[12.00651,55.30844],[12.02175,55.3105],[12.02278,55.31436],[12.02685,55.32002],[12.02063,55.32384],[12.01591,55.32522],[12.01153,55.32788],[12.01093,55.32766],[12.00844,55.32844],[12.00106,55.33264],[11.99377,55.33543],[11.99016,55.34479],[11.97703,55.35959],[11.97857,55.36406],[11.98085,55.36818],[11.97441,55.37054],[11.97025,55.37423],[11.97265,55.37654],[11.98201,55.37951],[11.98347,55.38066],[11.98561,55.38144],[11.98677,55.3835],[11.9839,55.38517],[11.98119,55.38753],[11.98265,55.39199],[11.97613,55.3938],[11.9778,55.39663],[11.98265,55.40173],[11.98537,55.40793],[11.98401,55.40843],[11.98403,55.41211],[11.98281,55.4142],[11.98532,55.41755],[11.98196,55.42162],[11.9817,55.42418],[11.97076,55.41907],[11.96403,55.41903],[11.96184,55.41933],[11.93802,55.4177],[11.9366,55.41847],[11.93094,55.41817],[11.93154,55.4198],[11.9327,55.42083],[11.93776,55.42315],[11.93866,55.42401],[11.93939,55.42645],[11.93755,55.43156],[11.94034,55.43482],[11.94617,55.43851],[11.94798,55.44246],[11.95162,55.44572],[11.95231,55.44817],[11.94922,55.45092],[11.94832,55.45727],[11.94982,55.45877],[11.95282,55.45963],[11.95265,55.46143],[11.95381,55.46199],[11.95493,55.46353],[11.95368,55.46675],[11.9472,55.46607],[11.9478,55.47079],[11.95433,55.47675],[11.95883,55.47671],[11.96175,55.47847],[11.97119,55.47787],[11.97368,55.47817],[11.97681,55.48113],[11.97063,55.48156],[11.97063,55.48379],[11.9778,55.49765],[11.97613,55.49825],[11.9769,55.49958],[11.97626,55.50143],[11.9793,55.50645],[11.97943,55.51057],[11.97827,55.51216],[11.97342,55.5152],[11.97227,55.51919],[11.97239,55.52293],[11.96823,55.52932],[11.96866,55.53349],[11.96656,55.53743],[11.96866,55.54271],[11.96806,55.55537],[11.96579,55.55782],[11.96149,55.55996],[11.96716,55.5637],[11.96544,55.56443],[11.96484,55.56584],[11.96845,55.57044],[11.96862,55.57267],[11.96759,55.57271],[11.96626,55.57589],[11.96896,55.58464],[11.96926,55.58756],[11.9666,55.5973],[11.9669,55.59893],[11.96905,55.60275],[11.96896,55.60447],[11.97166,55.60627],[11.97175,55.61009],[11.96905,55.61236],[11.96845,55.61365],[11.96939,55.61674],[11.96853,55.61923],[11.9669,55.62043],[11.96681,55.62168],[11.96364,55.62618],[11.95918,55.63086],[11.95823,55.63601],[11.95896,55.6412],[11.96124,55.64099],[11.96042,55.64459],[11.96081,55.64631],[11.96222,55.64704],[11.96214,55.64923],[11.9642,55.6503],[11.96441,55.65202],[11.96626,55.65485],[11.97166,55.65867],[11.97578,55.66725],[11.98458,55.66961],[11.98484,55.67086],[11.98999,55.67335],[11.99424,55.67648],[11.99759,55.67687],[11.99896,55.67794],[12.00196,55.67245],[12.00334,55.66669],[12.00445,55.66545],[12.00861,55.66399],[12.01166,55.66644],[12.01372,55.66704],[12.01475,55.66691],[12.01767,55.66429],[12.02299,55.66309],[12.02531,55.65798],[12.03123,55.65541],[12.03514,55.65438],[12.04149,55.65399],[12.04825,55.65548],[12.04832,55.65337],[12.05473,55.65111],[12.05521,55.65024],[12.06415,55.65012],[12.06898,55.64944],[12.07239,55.64627],[12.07651,55.64468],[12.08118,55.64987],[12.08264,55.65022],[12.08479,55.64996],[12.08633,55.65369],[12.08887,55.65339],[12.09286,55.65434],[12.0914,55.65631],[12.09136,55.65798],[12.10865,55.65764],[12.10925,55.6585],[12.11054,55.65897],[12.1277,55.66],[12.12942,55.66103],[12.1341,55.66176],[12.14298,55.66794],[12.15144,55.66378],[12.16212,55.6636],[12.16375,55.66412],[12.16817,55.66266],[12.17474,55.66167],[12.17328,55.66395],[12.18066,55.66558],[12.18075,55.67026],[12.18431,55.67077],[12.18616,55.67214],[12.18903,55.67781],[12.19023,55.67798],[12.19113,55.67893],[12.19272,55.67893],[12.19547,55.67764],[12.19787,55.67768],[12.20173,55.67695],[12.20843,55.6739],[12.21233,55.67562],[12.21886,55.67648],[12.21933,55.67665],[12.21993,55.68047],[12.21838,55.68686],[12.2195,55.68888],[12.22306,55.68957],[12.22723,55.68828],[12.22877,55.68824],[12.23765,55.69219],[12.23971,55.69395],[12.24345,55.69274],[12.24641,55.69232],[12.24924,55.69438],[12.25383,55.69493],[12.25533,55.69987],[12.25834,55.70077],[12.26143,55.70261],[12.26272,55.70562],[12.26478,55.70794],[12.26581,55.70815],[12.26649,55.71017],[12.26572,55.71708],[12.26675,55.71768],[12.26898,55.71802],[12.27336,55.71794],[12.27945,55.71459],[12.29774,55.71115],[12.30177,55.71004],[12.3061,55.71017],[12.30881,55.7124],[12.31267,55.71764],[12.31507,55.72236],[12.31499,55.72424],[12.31404,55.72596],[12.30975,55.72931],[12.31018,55.73446],[12.31228,55.73755],[12.31675,55.74004],[12.32469,55.74231],[12.32786,55.74441],[12.32881,55.74549],[12.33091,55.75128],[12.33816,55.75707],[12.3385,55.75991],[12.34035,55.76008],[12.34769,55.76265],[12.35121,55.76343],[12.35619,55.76553],[12.3661,55.76553],[12.37035,55.77523],[12.37086,55.77883],[12.37009,55.78291],[12.37073,55.78578],[12.38378,55.80081],[12.38112,55.80312],[12.38052,55.80626],[12.37747,55.80973],[12.37545,55.81565],[12.38854,55.81548],[12.39331,55.81578],[12.39919,55.81733],[12.40086,55.81853],[12.40116,55.82016],[12.39987,55.82248],[12.40039,55.82402],[12.40481,55.82304],[12.41193,55.82003],[12.41309,55.81995],[12.42026,55.82239],[12.42266,55.82398],[12.42494,55.82488],[12.42867,55.82574],[12.43,55.82737],[12.43562,55.82763],[12.43974,55.82823],[12.44489,55.82827],[12.44755,55.83012],[12.44863,55.8302],[12.45154,55.82827],[12.45382,55.82746],[12.45721,55.8269],[12.46073,55.82754],[12.46244,55.82441],[12.46541,55.82179],[12.4818,55.79707],[12.48712,55.79823],[12.49965,55.80261],[12.50278,55.80471],[12.50751,55.80673],[12.51308,55.81209],[12.5151,55.81312],[12.51952,55.81415],[12.53497,55.81544],[12.54072,55.81746],[12.54797,55.8193],[12.56639,55.82235],[12.56995,55.82042],[12.57458,55.82089],[12.57484,55.81583],[12.57703,55.81132],[12.58188,55.8075],[12.58308,55.8057],[12.58488,55.80458],[12.58634,55.80055],[12.58862,55.79802],[12.59218,55.79111],[12.59068,55.78634],[12.58836,55.78308],[12.5884,55.78197],[12.59192,55.77454],[12.59613,55.77175],[12.59643,55.76776],[12.599,55.76257],[12.59853,55.75875],[12.59231,55.75128],[12.58741,55.74845],[12.58385,55.74506],[12.57746,55.74038],[12.57484,55.73575],[12.5766,55.72995],[12.57587,55.72751],[12.57759,55.72339],[12.57733,55.72167],[12.58076,55.72073],[12.58265,55.71961],[12.58402,55.71596],[12.5893,55.71],[12.59153,55.70566],[12.59394,55.69528],[12.58814,55.69146],[12.59282,55.68764],[12.59647,55.68802],[12.59531,55.68652],[12.59664,55.68605],[12.59063,55.67875],[12.5845,55.67725],[12.5848,55.67562],[12.58664,55.67515],[12.59424,55.67094],[12.5963,55.66871],[12.59806,55.66888],[12.60424,55.66828],[12.60814,55.6694],[12.61097,55.66957],[12.61861,55.66888],[12.62488,55.67013],[12.6378,55.65588],[12.64599,55.6415],[12.65355,55.63352],[12.65565,55.63292],[12.65582,55.63198],[12.66329,55.63326],[12.66784,55.63326],[12.67294,55.63249],[12.67728,55.63116],[12.73406,55.60794],[12.77221,55.59073],[12.78761,55.58524],[12.80169,55.58108],[12.83521,55.57331],[12.85293,55.56979],[12.87615,55.5667],[12.89463,55.56537]]}},{"type":"Feature","properties":{"name":"TET_DK-02-West_20260716","country":"DK","lengthKm":702.7},"geometry":{"type":"LineString","coordinates":[[8.9629,54.89963],[8.96266,54.90023],[8.96368,54.90064],[8.9656,54.90054],[8.96547,54.89996],[8.96783,54.89971],[8.97078,54.90069],[8.97611,54.90118],[8.97984,54.90085],[8.98335,54.90102],[8.98633,54.90194],[8.9939,54.90085],[8.99467,54.9013],[8.9951,54.90256],[8.99736,54.90311],[8.99583,54.90376],[8.99253,54.90686],[8.99189,54.91362],[8.95997,54.91657],[8.95126,54.91664],[8.94734,54.91602],[8.94312,54.91447],[8.93804,54.91479],[8.93082,54.92578],[8.94158,54.92453],[8.95169,54.92446],[8.95243,54.9283],[8.95117,54.92855],[8.95122,54.93099],[8.95586,54.93063],[8.95439,54.93469],[8.95867,54.93486],[8.95836,54.93986],[8.96065,54.94439],[8.96211,54.94499],[8.95706,54.94828],[8.95405,54.949],[8.9518,54.94911],[8.943,54.95167],[8.93929,54.95169],[8.93529,54.95241],[8.93101,54.95378],[8.92568,54.95248],[8.9207,54.95056],[8.91576,54.94731],[8.91116,54.94586],[8.90731,54.94592],[8.90619,54.94563],[8.90802,54.94352],[8.91027,54.94392],[8.9125,54.94174],[8.91754,54.94211],[8.91876,54.94259],[8.91864,54.9404],[8.92068,54.93327],[8.92178,54.93197],[8.92146,54.93114],[8.91992,54.93085],[8.91982,54.92898],[8.91614,54.92614],[8.91591,54.92543],[8.90958,54.92566],[8.90054,54.92439],[8.89314,54.92392],[8.8926,54.92404],[8.89232,54.92782],[8.88851,54.93929],[8.88918,54.94733],[8.88865,54.9506],[8.88198,54.94828],[8.87961,54.9479],[8.86066,54.94633],[8.86058,54.94732],[8.85976,54.94776],[8.85752,54.94791],[8.85563,54.95104],[8.8514,54.95521],[8.85444,54.9599],[8.86175,54.95887],[8.86811,54.9615],[8.86749,54.96423],[8.86847,54.96529],[8.86615,54.96953],[8.86331,54.97995],[8.87753,54.97822],[8.88272,54.97819],[8.88814,54.97906],[8.89652,54.97913],[8.89775,54.98657],[8.90326,54.98582],[8.90676,54.98693],[8.90908,54.99144],[8.91376,54.99477],[8.91858,54.99653],[8.9226,54.99649],[8.92415,54.99703],[8.92421,54.9989],[8.93068,54.99764],[8.93258,54.99805],[8.93464,54.99789],[8.93467,54.99887],[8.93851,54.99952],[8.9419,55.0011],[8.94567,55.00353],[8.95293,55.01168],[8.95399,55.01732],[8.95587,55.01804],[8.95772,55.01792],[8.95978,55.01991],[8.95879,55.02079],[8.95864,55.02184],[8.95436,55.02526],[8.95087,55.02916],[8.94919,55.03568],[8.95033,55.04049],[8.94337,55.04622],[8.94071,55.04669],[8.93954,55.04253],[8.91933,55.03262],[8.91774,55.02757],[8.91143,55.02623],[8.9031,55.0234],[8.89454,55.02338],[8.88952,55.0244],[8.8895,55.02485],[8.87806,55.02923],[8.87066,55.03279],[8.86917,55.03757],[8.8404,55.04805],[8.84172,55.04948],[8.83508,55.05239],[8.83644,55.05412],[8.82853,55.05707],[8.82923,55.05835],[8.82492,55.05854],[8.82087,55.05978],[8.81762,55.05948],[8.81409,55.05981],[8.81333,55.06124],[8.80971,55.06029],[8.80608,55.06023],[8.80232,55.06151],[8.79866,55.06226],[8.79881,55.06278],[8.7963,55.06309],[8.7931,55.06527],[8.79818,55.07224],[8.79269,55.07397],[8.78633,55.07706],[8.77924,55.07971],[8.77732,55.07729],[8.77497,55.07815],[8.77428,55.07684],[8.77284,55.07618],[8.77143,55.07578],[8.76897,55.07616],[8.7602,55.07822],[8.75877,55.07887],[8.75743,55.08067],[8.74626,55.08397],[8.74594,55.08516],[8.74285,55.08557],[8.74005,55.08392],[8.73468,55.08671],[8.73017,55.0878],[8.73004,55.09116],[8.73266,55.09473],[8.73377,55.10074],[8.72778,55.10093],[8.72707,55.10724],[8.72781,55.10867],[8.72136,55.10838],[8.71535,55.10867],[8.70234,55.11052],[8.69889,55.11184],[8.69167,55.11302],[8.6983,55.12474],[8.69003,55.12584],[8.69543,55.1403],[8.70331,55.15231],[8.70332,55.15371],[8.6266,55.14738],[8.61295,55.14656],[8.55959,55.15243],[8.55463,55.15271],[8.49595,55.14546],[8.48838,55.14503],[8.48682,55.14445],[8.48398,55.14238],[8.48219,55.14243],[8.48126,55.14325],[8.48263,55.14525],[8.48298,55.14713],[8.48364,55.14754],[8.48798,55.1452],[8.49161,55.14502],[8.5558,55.1528],[8.60739,55.14698],[8.61425,55.14659],[8.70336,55.15373],[8.70362,55.15328],[8.70699,55.15375],[8.71927,55.15414],[8.71718,55.14927],[8.72981,55.14723],[8.73578,55.14884],[8.74129,55.15099],[8.7397,55.15176],[8.74214,55.15557],[8.73725,55.15807],[8.7292,55.15979],[8.73061,55.16222],[8.73826,55.16355],[8.7553,55.1694],[8.7593,55.17032],[8.76521,55.17136],[8.77438,55.17193],[8.76529,55.17141],[8.76573,55.18389],[8.75639,55.19064],[8.75438,55.19377],[8.75495,55.19537],[8.75345,55.19576],[8.75002,55.19804],[8.73783,55.20869],[8.73705,55.20871],[8.73602,55.20968],[8.73523,55.21183],[8.73567,55.21501],[8.73457,55.21951],[8.73363,55.2211],[8.72415,55.22401],[8.71843,55.22709],[8.715,55.2279],[8.71639,55.2313],[8.71833,55.23401],[8.70807,55.23597],[8.70834,55.2369],[8.70982,55.2367],[8.71051,55.24012],[8.71225,55.24028],[8.71364,55.24231],[8.71322,55.24501],[8.70925,55.2493],[8.70697,55.2501],[8.70499,55.25219],[8.69739,55.25244],[8.69813,55.25499],[8.68867,55.25468],[8.68625,55.25575],[8.68084,55.25703],[8.67907,55.257],[8.67252,55.25804],[8.67112,55.25204],[8.66697,55.25229],[8.66625,55.25139],[8.66693,55.25227],[8.66695,55.25778],[8.66517,55.26093],[8.66449,55.26498],[8.66217,55.26719],[8.66131,55.27331],[8.66248,55.27529],[8.66229,55.2763],[8.65816,55.2801],[8.65804,55.28144],[8.66106,55.28121],[8.67955,55.28203],[8.67992,55.28356],[8.6816,55.28367],[8.68242,55.2841],[8.68376,55.28912],[8.68229,55.28919],[8.6771,55.29153],[8.6709,55.29201],[8.66967,55.29421],[8.67121,55.29994],[8.65987,55.30222],[8.66149,55.30503],[8.66132,55.30626],[8.64243,55.30979],[8.61188,55.29977],[8.60392,55.29479],[8.59173,55.29237],[8.58515,55.2938],[8.57194,55.29091],[8.55886,55.28601],[8.54927,55.28127],[8.54463,55.28181],[8.54097,55.28112],[8.5386,55.27828],[8.53697,55.27712],[8.53672,55.27586],[8.53758,55.27406],[8.53786,55.27088],[8.53991,55.26846],[8.54466,55.26637],[8.54603,55.26644],[8.54727,55.26556],[8.54641,55.26633],[8.54455,55.26643],[8.54017,55.26828],[8.53783,55.27086],[8.53681,55.27666],[8.53729,55.27774],[8.5386,55.27824],[8.53932,55.27924],[8.54544,55.27828],[8.54702,55.2805],[8.54856,55.28091],[8.55913,55.28613],[8.5716,55.29087],[8.58491,55.2938],[8.59146,55.29245],[8.59339,55.29254],[8.6045,55.29499],[8.6117,55.29969],[8.64205,55.30971],[8.6438,55.30972],[8.66128,55.30625],[8.66163,55.30561],[8.65984,55.30221],[8.67124,55.29994],[8.66967,55.29421],[8.67089,55.29203],[8.67696,55.29153],[8.68018,55.29035],[8.6809,55.29186],[8.68551,55.29589],[8.68685,55.30058],[8.69049,55.30362],[8.69075,55.30444],[8.69231,55.30462],[8.69945,55.30389],[8.70181,55.30542],[8.70314,55.30704],[8.69406,55.30762],[8.69607,55.3147],[8.69692,55.31467],[8.69829,55.31723],[8.69579,55.319],[8.6978,55.32837],[8.69075,55.32928],[8.69088,55.33239],[8.67957,55.33473],[8.67623,55.33965],[8.67655,55.34033],[8.67037,55.34621],[8.66953,55.34766],[8.67998,55.3491],[8.69239,55.35181],[8.70794,55.35276],[8.71264,55.35406],[8.72191,55.35375],[8.72816,55.35434],[8.72934,55.35419],[8.72888,55.35311],[8.72696,55.35206],[8.72559,55.35011],[8.73053,55.34924],[8.74083,55.34641],[8.7421,55.34634],[8.74368,55.34915],[8.74487,55.34886],[8.74521,55.34917],[8.74552,55.34987],[8.7446,55.3516],[8.75117,55.35044],[8.7591,55.35026],[8.76623,55.3486],[8.76972,55.33903],[8.77199,55.33796],[8.77641,55.33722],[8.78334,55.33533],[8.79905,55.33334],[8.81692,55.33446],[8.82797,55.33435],[8.83344,55.33488],[8.83122,55.34178],[8.83173,55.34527],[8.83534,55.34559],[8.83623,55.34775],[8.83827,55.34766],[8.84072,55.34699],[8.84421,55.34896],[8.84476,55.35008],[8.85001,55.3504],[8.85803,55.35634],[8.84283,55.36236],[8.84254,55.36263],[8.84412,55.36459],[8.84237,55.3659],[8.83927,55.36695],[8.84427,55.37156],[8.84574,55.37212],[8.84871,55.37285],[8.85135,55.37418],[8.85625,55.37383],[8.85911,55.37608],[8.86324,55.3742],[8.8665,55.37722],[8.86506,55.37946],[8.86207,55.38702],[8.85584,55.3857],[8.85406,55.3876],[8.8531,55.38773],[8.83446,55.38753],[8.83462,55.40038],[8.8337,55.40048],[8.83511,55.41219],[8.8386,55.4163],[8.84341,55.41648],[8.84448,55.41968],[8.85209,55.4274],[8.85285,55.42752],[8.85343,55.43064],[8.86359,55.43225],[8.86712,55.43429],[8.86665,55.4432],[8.86805,55.44864],[8.87639,55.4477],[8.87975,55.44776],[8.8819,55.45686],[8.88285,55.45711],[8.88373,55.46097],[8.88842,55.46076],[8.89028,55.46131],[8.89271,55.46311],[8.89281,55.46764],[8.88978,55.46891],[8.8881,55.46912],[8.8859,55.47021],[8.88207,55.47122],[8.87661,55.47215],[8.87111,55.47241],[8.87103,55.47866],[8.86717,55.47866],[8.86381,55.47799],[8.86288,55.47917],[8.867,55.48001],[8.86856,55.48397],[8.86278,55.4875],[8.86954,55.48844],[8.87049,55.4949],[8.8739,55.49807],[8.8729,55.49886],[8.87316,55.50091],[8.86844,55.5051],[8.8786,55.51388],[8.89752,55.51352],[8.90142,55.52318],[8.90481,55.52701],[8.91047,55.53025],[8.92438,55.53501],[8.92837,55.53771],[8.93072,55.54189],[8.93122,55.54422],[8.93073,55.55272],[8.93421,55.55319],[8.94241,55.5527],[8.95909,55.55453],[8.95873,55.55718],[8.96054,55.55943],[8.96456,55.56186],[8.96699,55.56255],[8.96817,55.56741],[8.97183,55.56823],[8.96527,55.57035],[8.9642,55.57238],[8.96103,55.57501],[8.95396,55.57968],[8.94964,55.58157],[8.94938,55.58734],[8.9497,55.58813],[8.954,55.58714],[8.96283,55.59382],[8.96605,55.59682],[8.97678,55.59726],[8.9934,55.5971],[8.99757,55.5962],[8.99826,55.59374],[9.00023,55.59187],[9.00107,55.58999],[9.0002,55.58932],[8.99939,55.58102],[8.99438,55.57771],[8.99336,55.57425],[9.01899,55.56512],[9.01891,55.56397],[9.02619,55.56238],[9.03523,55.55843],[9.05264,55.5569],[9.05751,55.55629],[9.06314,55.55506],[9.06036,55.54999],[9.06185,55.53894],[9.05971,55.53753],[9.05974,55.53696],[9.05731,55.53606],[9.05421,55.53417],[9.0566,55.53067],[9.06063,55.53039],[9.06444,55.53147],[9.07167,55.53167],[9.07395,55.53024],[9.07715,55.52948],[9.08244,55.52644],[9.08983,55.52297],[9.09348,55.52237],[9.09276,55.51983],[9.09155,55.51975],[9.09128,55.5194],[9.09013,55.51376],[9.095,55.51378],[9.0979,55.51281],[9.10443,55.51285],[9.10583,55.51125],[9.11631,55.51185],[9.11717,55.51047],[9.12107,55.50825],[9.13296,55.50447],[9.13356,55.50272],[9.13336,55.49955],[9.13699,55.49889],[9.13834,55.49923],[9.13953,55.49873],[9.14171,55.49872],[9.16523,55.50644],[9.15654,55.51277],[9.15512,55.51698],[9.16337,55.51838],[9.16784,55.52104],[9.1759,55.52348],[9.18232,55.52694],[9.17274,55.53651],[9.15587,55.53619],[9.14376,55.53818],[9.13329,55.54276],[9.12606,55.54425],[9.11902,55.54775],[9.11584,55.55199],[9.11408,55.55215],[9.11384,55.55322],[9.11272,55.55234],[9.11101,55.55439],[9.10046,55.55782],[9.09801,55.56052],[9.09958,55.56314],[9.09858,55.56369],[9.08309,55.56741],[9.06487,55.56881],[9.05847,55.57862],[9.05909,55.57924],[9.05803,55.57928],[9.02281,55.59223],[9.01867,55.59293],[9.01536,55.59299],[9.01388,55.60474],[9.01515,55.60789],[9.0145,55.61092],[9.01587,55.61354],[9.01513,55.61475],[9.01,55.61721],[9.00718,55.6205],[9.00659,55.63552],[9.00224,55.64675],[9.00447,55.64981],[9.00875,55.64945],[9.01497,55.65311],[9.01803,55.6538],[9.01723,55.65444],[9.01744,55.65666],[9.02092,55.66023],[9.02586,55.66327],[9.02704,55.66526],[9.02812,55.66733],[9.03001,55.6761],[9.03753,55.67106],[9.04947,55.66192],[9.05369,55.66248],[9.0702,55.66591],[9.07679,55.66791],[9.08152,55.66758],[9.09086,55.66875],[9.09211,55.67213],[9.10224,55.68168],[9.10929,55.68398],[9.11785,55.68498],[9.12035,55.68024],[9.12285,55.67933],[9.13447,55.67693],[9.13881,55.67702],[9.14011,55.67781],[9.14765,55.67645],[9.15117,55.6752],[9.16157,55.67319],[9.16472,55.672],[9.17347,55.67094],[9.17395,55.67116],[9.1792,55.66985],[9.19576,55.66758],[9.19439,55.66447],[9.18672,55.65783],[9.18622,55.65693],[9.19322,55.65397],[9.19683,55.65398],[9.20587,55.65537],[9.20854,55.65538],[9.21089,55.65263],[9.21492,55.6515],[9.2198,55.65508],[9.22039,55.65511],[9.24021,55.64393],[9.24617,55.64134],[9.25027,55.64091],[9.25296,55.64245],[9.25879,55.64744],[9.25975,55.65011],[9.26215,55.65281],[9.26139,55.65534],[9.26942,55.65385],[9.27184,55.65607],[9.27954,55.65962],[9.28291,55.66023],[9.28469,55.65975],[9.28635,55.6584],[9.2894,55.65859],[9.29323,55.65978],[9.29674,55.65981],[9.30155,55.66081],[9.30307,55.66054],[9.30398,55.65927],[9.30173,55.65752],[9.30175,55.65533],[9.30268,55.65496],[9.30312,55.65367],[9.30499,55.65303],[9.30794,55.65041],[9.31109,55.65005],[9.31116,55.64946],[9.31261,55.64849],[9.31315,55.64534],[9.31417,55.64413],[9.31698,55.64678],[9.31942,55.65356],[9.33991,55.65183],[9.33946,55.65663],[9.34326,55.65514],[9.34593,55.65879],[9.34509,55.66095],[9.3478,55.6626],[9.35014,55.66311],[9.35466,55.66606],[9.35633,55.66546],[9.35796,55.66555],[9.3593,55.66596],[9.3598,55.66656],[9.36361,55.66756],[9.36429,55.66948],[9.36134,55.67097],[9.36117,55.67205],[9.36191,55.67263],[9.37009,55.67356],[9.37348,55.67473],[9.37671,55.67442],[9.38002,55.67349],[9.38136,55.6751],[9.38251,55.67467],[9.38344,55.67484],[9.38222,55.67588],[9.38082,55.67846],[9.38146,55.68247],[9.38035,55.68545],[9.38123,55.68478],[9.38327,55.68419],[9.39145,55.68383],[9.39758,55.6852],[9.39755,55.68606],[9.39904,55.68719],[9.40505,55.68984],[9.40523,55.68933],[9.40684,55.68868],[9.41418,55.68812],[9.41688,55.68958],[9.41844,55.68956],[9.41959,55.68873],[9.42183,55.68885],[9.42871,55.69129],[9.43693,55.69611],[9.43936,55.6994],[9.43897,55.70095],[9.4406,55.70016],[9.44226,55.70057],[9.44249,55.69924],[9.44567,55.69778],[9.44743,55.69729],[9.45034,55.69711],[9.45777,55.69492],[9.46092,55.69282],[9.46325,55.69197],[9.46562,55.69163],[9.46626,55.69091],[9.46236,55.68994],[9.46633,55.68459],[9.46942,55.68323],[9.47616,55.68426],[9.47807,55.68532],[9.4804,55.68582],[9.48158,55.68927],[9.48168,55.69027],[9.4808,55.69112],[9.48112,55.69268],[9.48604,55.69492],[9.4919,55.69629],[9.49591,55.6966],[9.50097,55.69864],[9.51372,55.70049],[9.51812,55.70174],[9.52075,55.70106],[9.52374,55.70144],[9.52496,55.70207],[9.52498,55.70123],[9.52897,55.70049],[9.52969,55.69966],[9.52691,55.69801],[9.5258,55.69572],[9.52107,55.6901],[9.51947,55.68995],[9.51915,55.68953],[9.51975,55.68953],[9.51972,55.68925],[9.51777,55.68876],[9.51935,55.68539],[9.52192,55.68307],[9.52154,55.68113],[9.52451,55.67877],[9.5234,55.68115],[9.52433,55.68262],[9.52709,55.68428],[9.52927,55.67943],[9.53234,55.67533],[9.54519,55.66518],[9.54756,55.66379],[9.54965,55.66344],[9.55221,55.66343],[9.55309,55.66398],[9.55282,55.67025],[9.55191,55.67208],[9.55486,55.67209],[9.55733,55.67254],[9.57449,55.67833],[9.5807,55.67529],[9.5899,55.67469],[9.60851,55.67457],[9.61217,55.6741],[9.61462,55.67552],[9.61557,55.67671],[9.61548,55.68471],[9.61801,55.6863],[9.61816,55.68792],[9.6196,55.68911],[9.61817,55.69002],[9.61715,55.69145],[9.61629,55.69106],[9.6162,55.69016],[9.61563,55.6904],[9.61633,55.69222],[9.61592,55.69283],[9.60613,55.69203],[9.60368,55.69143],[9.59756,55.69105],[9.59428,55.69023],[9.58933,55.68992],[9.58678,55.69001],[9.57825,55.69145],[9.57385,55.69233],[9.56957,55.69398],[9.56512,55.69507],[9.55889,55.69814],[9.54236,55.70234],[9.54332,55.703],[9.54358,55.70399],[9.54196,55.70634],[9.54215,55.70695],[9.53579,55.70751],[9.53626,55.71088],[9.5375,55.71159],[9.53818,55.71062],[9.54298,55.7088],[9.54431,55.70934],[9.54503,55.70908],[9.54417,55.70837],[9.54528,55.70798],[9.55106,55.70708],[9.55165,55.70826],[9.55498,55.70795],[9.55668,55.71091],[9.56202,55.71026],[9.566,55.70891],[9.56676,55.70955],[9.56642,55.71056],[9.56431,55.71063],[9.56194,55.7115],[9.55506,55.71169],[9.54739,55.71295],[9.5439,55.7128],[9.52808,55.71592],[9.52044,55.71612],[9.50928,55.71563],[9.50613,55.71497],[9.49976,55.71436],[9.49462,55.71321],[9.48811,55.71403],[9.48092,55.71203],[9.48065,55.71231],[9.47848,55.71231],[9.4811,55.71505],[9.48098,55.71649],[9.47952,55.71662],[9.47981,55.71825],[9.47738,55.71949],[9.47667,55.72081],[9.47323,55.72345],[9.47343,55.72684],[9.47294,55.72781],[9.46996,55.72803],[9.46477,55.72907],[9.44992,55.72917],[9.44626,55.73004],[9.44353,55.72993],[9.43554,55.73274],[9.43351,55.73398],[9.42671,55.73446],[9.42325,55.73432],[9.42176,55.73565],[9.4209,55.73786],[9.41814,55.73911],[9.41644,55.73911],[9.41598,55.74014],[9.41292,55.74081],[9.4141,55.74187],[9.4129,55.74736],[9.4158,55.75528],[9.41528,55.75635],[9.41832,55.75658],[9.41806,55.75589],[9.41557,55.75558],[9.41465,55.75804],[9.41515,55.75952],[9.40247,55.76644],[9.39655,55.7776],[9.39409,55.7786],[9.37507,55.78036],[9.36229,55.77852],[9.35863,55.77834],[9.35688,55.77919],[9.35119,55.78029],[9.34087,55.77937],[9.33649,55.78083],[9.32826,55.78159],[9.32037,55.78184],[9.3191,55.78034],[9.31746,55.78015],[9.31565,55.77736],[9.31657,55.76797],[9.30757,55.77061],[9.30349,55.77134],[9.3004,55.77452],[9.28921,55.77507],[9.28831,55.77363],[9.28268,55.77319],[9.2764,55.77436],[9.27215,55.77468],[9.27103,55.77739],[9.26609,55.77809],[9.26009,55.77791],[9.25162,55.77861],[9.25603,55.78281],[9.25602,55.78319],[9.25464,55.78369],[9.25594,55.78552],[9.25577,55.78862],[9.25872,55.79273],[9.25788,55.79506],[9.26021,55.79685],[9.25871,55.79821],[9.25886,55.79924],[9.25522,55.80229],[9.26414,55.80121],[9.27097,55.79468],[9.27248,55.79242],[9.28461,55.79416],[9.28992,55.79372],[9.29091,55.7959],[9.29267,55.79586],[9.29307,55.79756],[9.29402,55.7979],[9.29456,55.79908],[9.29482,55.79997],[9.29355,55.80106],[9.29362,55.80273],[9.29862,55.80386],[9.29993,55.80513],[9.30974,55.8064],[9.31594,55.80813],[9.32047,55.8142],[9.34449,55.81544],[9.34403,55.81422],[9.34937,55.81287],[9.35177,55.81264],[9.35306,55.81305],[9.35505,55.81171],[9.35983,55.80707],[9.3656,55.80338],[9.37128,55.80108],[9.37222,55.8018],[9.37155,55.80539],[9.36826,55.81107],[9.36183,55.81736],[9.36128,55.81843],[9.36222,55.8258],[9.3764,55.82466],[9.37775,55.82642],[9.37911,55.8286],[9.37983,55.83123],[9.38102,55.83235],[9.38237,55.83901],[9.37808,55.84153],[9.376,55.84358],[9.38035,55.84284],[9.38237,55.84328],[9.38356,55.84751],[9.38198,55.84774],[9.38177,55.84856],[9.38088,55.84868],[9.38008,55.85326],[9.379,55.85359],[9.37871,55.85546],[9.37939,55.85583],[9.38291,55.85612],[9.38231,55.85793],[9.3854,55.86166],[9.38172,55.86315],[9.38441,55.86638],[9.38667,55.86613],[9.38971,55.87059],[9.39087,55.8712],[9.38978,55.87179],[9.38448,55.87718],[9.37979,55.87923],[9.3774,55.88081],[9.36666,55.88277],[9.36214,55.88141],[9.35922,55.88616],[9.36381,55.8903],[9.36469,55.89259],[9.36265,55.89412],[9.35991,55.89758],[9.35974,55.89865],[9.35767,55.90026],[9.35149,55.90228],[9.34879,55.90526],[9.35126,55.90985],[9.36754,55.90585],[9.37243,55.90345],[9.38596,55.90059],[9.3851,55.89772],[9.38499,55.89404],[9.38674,55.89101],[9.38772,55.89216],[9.39126,55.89417],[9.3944,55.89748],[9.39763,55.89941],[9.39856,55.90172],[9.39991,55.90253],[9.40001,55.90386],[9.40303,55.90442],[9.40656,55.90721],[9.40947,55.90831],[9.40369,55.91321],[9.40153,55.9138],[9.40345,55.91783],[9.40338,55.91983],[9.40565,55.92145],[9.40664,55.92514],[9.4095,55.9279],[9.40797,55.9306],[9.40263,55.94446],[9.39756,55.95096],[9.39715,55.95269],[9.39841,55.95583],[9.40336,55.95965],[9.40518,55.96183],[9.40548,55.96497],[9.40432,55.96706],[9.39516,55.97645],[9.39406,55.97828],[9.39267,55.98401],[9.38874,55.98993],[9.38982,55.99007],[9.39092,55.99275],[9.39415,55.99538],[9.40127,55.99653],[9.40344,55.99936],[9.40777,55.99784],[9.42699,56.01133],[9.4296,56.01131],[9.43043,56.01253],[9.4333,56.01372],[9.43521,56.01938],[9.43902,56.02359],[9.44183,56.03008],[9.44648,56.03656],[9.44856,56.0376],[9.45036,56.04099],[9.45513,56.04052],[9.45934,56.041],[9.46412,56.04212],[9.47216,56.04108],[9.47505,56.04145],[9.47726,56.04223],[9.48211,56.04016],[9.48339,56.03709],[9.4935,56.03225],[9.49133,56.0305],[9.49461,56.02824],[9.49295,56.02618],[9.4895,56.02695],[9.48266,56.02664],[9.48098,56.02529],[9.47699,56.02496],[9.47412,56.02346],[9.4675,56.02361],[9.46856,56.02206],[9.47295,56.01958],[9.47788,56.01534],[9.48243,56.013],[9.48753,56.01219],[9.47311,55.99628],[9.46933,55.99412],[9.46619,55.99295],[9.4667,55.99247],[9.47136,55.9909],[9.47397,55.99127],[9.47806,55.99043],[9.48228,55.98904],[9.4857,55.98849],[9.48575,55.98657],[9.48731,55.98337],[9.49202,55.97986],[9.49313,55.9784],[9.49518,55.97773],[9.49652,55.97586],[9.49784,55.97505],[9.49933,55.9748],[9.50574,55.97632],[9.50983,55.97851],[9.51508,55.98016],[9.51889,55.9823],[9.52612,55.98435],[9.54245,55.98832],[9.54867,55.98851],[9.54843,55.99013],[9.54499,55.99452],[9.54509,55.99556],[9.54343,55.99867],[9.5423,56.00256],[9.54213,56.00486],[9.54361,56.00878],[9.5435,56.00991],[9.54097,56.01322],[9.54163,56.0161],[9.54265,56.01714],[9.54685,56.0176],[9.55271,56.01629],[9.55839,56.01596],[9.56096,56.01536],[9.5704,56.01616],[9.57124,56.0207],[9.56624,56.02261],[9.56786,56.02584],[9.57539,56.0256],[9.57758,56.02622],[9.59024,56.03281],[9.59773,56.03557],[9.60434,56.0353],[9.60661,56.03654],[9.61003,56.03456],[9.61081,56.03336],[9.612,56.0336],[9.61412,56.0397],[9.61639,56.04015],[9.61547,56.04185],[9.61918,56.04387],[9.62215,56.04456],[9.62335,56.0456],[9.62551,56.04593],[9.63263,56.04584],[9.64143,56.04802],[9.64604,56.04826],[9.65405,56.05134],[9.66096,56.05312],[9.66507,56.05354],[9.67535,56.05188],[9.6778,56.05192],[9.68217,56.05334],[9.69011,56.05781],[9.69107,56.05888],[9.69403,56.06733],[9.6956,56.06943],[9.69602,56.07163],[9.69821,56.07396],[9.69854,56.07544],[9.69963,56.07657],[9.70297,56.07747],[9.70517,56.07866],[9.70635,56.08073],[9.70369,56.08065],[9.7,56.08131],[9.67394,56.09098],[9.65795,56.09327],[9.64646,56.09771],[9.64661,56.09805],[9.64475,56.09938],[9.64002,56.10051],[9.63591,56.10483],[9.63622,56.10508],[9.64361,56.10497],[9.64723,56.1067],[9.65079,56.10751],[9.65328,56.10878],[9.65974,56.10958],[9.66305,56.1105],[9.66615,56.10973],[9.66785,56.10846],[9.66819,56.10721],[9.66749,56.10642],[9.66869,56.10431],[9.67106,56.10167],[9.67375,56.10011],[9.67544,56.09787],[9.67702,56.0988],[9.68309,56.09905],[9.68523,56.10094],[9.68506,56.10246],[9.6862,56.10308],[9.68744,56.10309],[9.68675,56.10322],[9.68516,56.10266],[9.68524,56.10094],[9.683,56.09888],[9.68272,56.09799],[9.68373,56.09569],[9.68805,56.0924],[9.69247,56.09004],[9.6961,56.08279],[9.70244,56.08078],[9.70564,56.0807],[9.72913,56.08207],[9.73517,56.08174],[9.73751,56.08206],[9.74337,56.08458],[9.75027,56.08855],[9.75425,56.09265],[9.75545,56.09284],[9.75758,56.09417],[9.7591,56.0933],[9.76223,56.09563],[9.76655,56.09699],[9.78138,56.09728],[9.7805,56.0964],[9.78295,56.09355],[9.7846,56.0899],[9.79042,56.09239],[9.79143,56.09249],[9.79635,56.09215],[9.80227,56.09316],[9.8065,56.09162],[9.80904,56.09233],[9.81355,56.09437],[9.81346,56.09638],[9.81462,56.09767],[9.81437,56.09836],[9.81509,56.09928],[9.82129,56.103],[9.82334,56.10293],[9.82354,56.10159],[9.82284,56.10063],[9.82351,56.09957],[9.81963,56.09792],[9.81838,56.09648],[9.81893,56.0953],[9.81995,56.09466],[9.82229,56.09486],[9.8289,56.09286],[9.83176,56.08795],[9.83604,56.0879],[9.84656,56.08659],[9.85863,56.08613],[9.86087,56.08698],[9.86615,56.088],[9.87082,56.08756],[9.8725,56.09116],[9.87365,56.09211],[9.87317,56.09562],[9.87679,56.1006],[9.87898,56.10186],[9.87852,56.10329],[9.88123,56.10941],[9.88093,56.11022],[9.88427,56.11006],[9.88578,56.11146],[9.88713,56.11409],[9.89026,56.11792],[9.89614,56.11973],[9.89638,56.12022],[9.89082,56.12126],[9.88885,56.12105],[9.88795,56.12133],[9.88682,56.12288],[9.88849,56.12465],[9.88855,56.12594],[9.88999,56.12732],[9.89092,56.1276],[9.89145,56.12895],[9.89399,56.13172],[9.89073,56.13937],[9.89185,56.13945],[9.893,56.14214],[9.89902,56.14717],[9.8997,56.14824],[9.9016,56.14824],[9.90344,56.15414],[9.9036,56.1591],[9.90614,56.15883],[9.91152,56.15936],[9.92213,56.15949],[9.92876,56.16146],[9.93284,56.16165],[9.93126,56.16527],[9.92996,56.16616],[9.92909,56.16819],[9.92753,56.16936],[9.92659,56.17173],[9.92473,56.17401],[9.91998,56.1762],[9.92163,56.17775],[9.9259,56.1785],[9.93208,56.18064],[9.93201,56.18168],[9.93425,56.18192],[9.93236,56.18341],[9.92942,56.18893],[9.92474,56.19189],[9.92297,56.19239],[9.91209,56.19951],[9.90905,56.20338],[9.91978,56.2064],[9.92753,56.21031],[9.93206,56.21772],[9.93179,56.2182],[9.93448,56.21855],[9.93806,56.21771],[9.93958,56.2178],[9.95178,56.21982],[9.95448,56.22158],[9.96315,56.22108],[9.97225,56.22204],[9.97525,56.221],[9.9838,56.21996],[9.99481,56.21515],[10.00085,56.21437],[10.00484,56.21425],[10.02136,56.21095],[10.02245,56.21193],[10.02414,56.21595],[10.02982,56.22487],[10.02797,56.23048],[10.02894,56.23518],[10.02813,56.2384],[10.02781,56.2449],[10.02809,56.24853],[10.02933,56.25012],[10.02507,56.25165],[10.01829,56.2517],[10.01829,56.25283],[10.0176,56.25339],[10,56.26554],[10.00205,56.26704],[10.00665,56.26859],[10.0087,56.2689],[10.01135,56.27017],[10.01153,56.27119],[10.01868,56.27351],[10.02149,56.27533],[10.03294,56.27743],[10.03807,56.27979],[10.04155,56.27914],[10.04277,56.27765],[10.04986,56.2733],[10.05096,56.2716],[10.05306,56.26448],[10.05446,56.26283],[10.05768,56.26113],[10.0583,56.26259],[10.06117,56.26532],[10.0647,56.27002],[10.06922,56.2743],[10.07228,56.2758],[10.07673,56.27584],[10.07904,56.2736],[10.08551,56.27402],[10.08703,56.27568],[10.09061,56.27693],[10.09479,56.27929],[10.09835,56.28286],[10.10212,56.28277],[10.10317,56.28358],[10.10839,56.28269],[10.11337,56.28249],[10.12539,56.28056],[10.12767,56.28807],[10.14368,56.29836],[10.14542,56.29867],[10.1444,56.29986],[10.14526,56.30062],[10.14824,56.30815],[10.15076,56.31234],[10.16488,56.31311],[10.16858,56.31209],[10.16986,56.31219],[10.17186,56.3126],[10.17201,56.31435],[10.18176,56.31343],[10.18301,56.31495],[10.19104,56.31458],[10.19356,56.31631],[10.19514,56.31672],[10.19748,56.31652],[10.19955,56.31701],[10.19848,56.31908],[10.1952,56.31979],[10.19124,56.32594],[10.18823,56.32875],[10.19109,56.33102],[10.19173,56.33402],[10.19037,56.3353],[10.19237,56.33583],[10.18923,56.33966],[10.18965,56.34041],[10.18866,56.34503],[10.18629,56.35028],[10.18263,56.34992],[10.18122,56.34936],[10.17369,56.35853],[10.17243,56.36153],[10.17118,56.36584],[10.17272,56.37278],[10.17353,56.38117],[10.17268,56.38419],[10.17944,56.38501],[10.18193,56.38465],[10.19006,56.38512],[10.19034,56.38425],[10.19201,56.38368],[10.19276,56.38277],[10.19502,56.38247],[10.19829,56.38132],[10.20012,56.38122],[10.2045,56.37506],[10.20636,56.36615],[10.20988,56.36614],[10.21113,56.36577],[10.21461,56.36322],[10.21836,56.36197],[10.2216,56.36204],[10.22378,56.36415],[10.23404,56.37166],[10.23653,56.37492],[10.24248,56.37346],[10.25135,56.37211],[10.25513,56.36898],[10.26562,56.36456],[10.26828,56.36428],[10.28184,56.36567],[10.29147,56.368],[10.2948,56.3699],[10.29175,56.37967],[10.28958,56.38],[10.29202,56.38182],[10.29452,56.38579],[10.29798,56.38834],[10.30428,56.39593],[10.30933,56.39353],[10.31713,56.39399],[10.32247,56.39488],[10.32305,56.39276],[10.32587,56.38774],[10.32667,56.38775],[10.32916,56.39033],[10.33253,56.39542],[10.33853,56.39832],[10.34335,56.40161],[10.34713,56.40694],[10.34666,56.4091],[10.34719,56.41132],[10.35164,56.41158],[10.35723,56.41073],[10.35987,56.411],[10.36139,56.41352],[10.37333,56.42072],[10.37555,56.42506],[10.38002,56.42422],[10.3886,56.42409],[10.39706,56.42608],[10.40239,56.42112],[10.40308,56.41868],[10.41118,56.41757],[10.41368,56.4156],[10.41898,56.41545],[10.42002,56.41337],[10.42135,56.41273],[10.42175,56.41123],[10.4243,56.40899],[10.42736,56.40806],[10.42719,56.40722],[10.43113,56.40673],[10.44008,56.40329],[10.44455,56.40231],[10.44606,56.40174],[10.44875,56.39928],[10.45647,56.39624],[10.4593,56.3961],[10.46417,56.39462],[10.46487,56.39403],[10.46426,56.3926],[10.46509,56.39054],[10.46448,56.38839],[10.46964,56.38815],[10.47153,56.38766],[10.47938,56.3831],[10.50374,56.38102],[10.51289,56.37964],[10.51522,56.37894],[10.51981,56.37642],[10.52326,56.37534],[10.52826,56.37508],[10.54259,56.37532],[10.56038,56.37448],[10.56687,56.37289],[10.57309,56.37078],[10.58419,56.36864],[10.58569,56.36769],[10.58648,56.36633],[10.58634,56.36529],[10.58465,56.3632],[10.57605,56.36318],[10.57374,56.36233],[10.5728,56.36125],[10.56864,56.36095],[10.5645,56.35653],[10.56432,56.35563],[10.56177,56.35256],[10.55864,56.34991],[10.55773,56.34853],[10.55828,56.34717],[10.55656,56.34621],[10.55232,56.34563],[10.54701,56.34319],[10.54255,56.34262],[10.54022,56.34518],[10.53438,56.34813],[10.52991,56.34876],[10.52604,56.34858],[10.52326,56.35001],[10.5125,56.3514],[10.50494,56.3504],[10.49842,56.34804],[10.49565,56.34765],[10.49179,56.34642],[10.48343,56.33882],[10.48102,56.33246],[10.47988,56.32728],[10.47653,56.32377],[10.47832,56.32176],[10.48143,56.32008],[10.48442,56.31756],[10.48782,56.31272],[10.48602,56.31148],[10.48364,56.30835],[10.48007,56.30597],[10.47827,56.30283],[10.47831,56.3013],[10.47748,56.30041],[10.48207,56.29941],[10.48223,56.29538],[10.48065,56.29235],[10.48148,56.28989],[10.47971,56.28544],[10.47999,56.2838],[10.48415,56.28294],[10.48638,56.28205],[10.48767,56.28005],[10.48988,56.27863],[10.50924,56.27551],[10.51268,56.27347],[10.5156,56.2697],[10.52049,56.2676],[10.5232,56.26881],[10.53123,56.2678],[10.53323,56.26885],[10.53655,56.26964],[10.53682,56.27],[10.53574,56.27039],[10.53628,56.27384],[10.54011,56.27864],[10.55298,56.28103],[10.55328,56.28352],[10.55633,56.28342],[10.55803,56.28449],[10.56953,56.28691],[10.57272,56.28887],[10.57666,56.28748],[10.58108,56.28773],[10.58536,56.28461],[10.58337,56.28347],[10.58408,56.28194],[10.58339,56.27822],[10.58412,56.27616],[10.58213,56.27614],[10.58187,56.27587],[10.58496,56.2682],[10.58496,56.26475],[10.58409,56.26331],[10.58347,56.25911],[10.58296,56.25848],[10.57914,56.25788],[10.57723,56.25829],[10.57321,56.25822],[10.56735,56.25945],[10.56381,56.25966],[10.5621,56.25914],[10.55821,56.26003],[10.55714,56.25815],[10.55469,56.25806],[10.55184,56.25719],[10.55404,56.25497],[10.55283,56.25254],[10.55323,56.25224],[10.56085,56.25064],[10.56135,56.25012],[10.56176,56.24848],[10.56358,56.24699],[10.56407,56.24458],[10.56365,56.24336],[10.56521,56.24163],[10.56237,56.24196],[10.558,56.24148],[10.55185,56.23829],[10.54932,56.23456],[10.54706,56.23233],[10.54248,56.22794],[10.53628,56.22333],[10.53319,56.21849],[10.53019,56.21657],[10.52724,56.21197],[10.52002,56.20581],[10.52012,56.20421],[10.5214,56.20288],[10.51971,56.20123],[10.51926,56.19961],[10.5216,56.19951],[10.52333,56.19986],[10.52596,56.19915],[10.53003,56.19934],[10.53067,56.19984],[10.53156,56.201],[10.53255,56.205],[10.53559,56.20785],[10.53836,56.20905],[10.54093,56.21101],[10.54323,56.21443],[10.54567,56.21599],[10.54642,56.21706],[10.55258,56.21725],[10.55443,56.21784],[10.55944,56.21752],[10.56139,56.21833],[10.5629,56.21945],[10.56493,56.22564],[10.56767,56.22752],[10.57307,56.22703],[10.57456,56.22619],[10.57751,56.22608],[10.58017,56.22445],[10.58336,56.22374],[10.5873,56.22161],[10.59413,56.22374],[10.59788,56.22626],[10.60327,56.22832],[10.6053,56.22883],[10.61406,56.22973],[10.62983,56.22735],[10.64182,56.22719],[10.64802,56.22585],[10.65474,56.22629],[10.66492,56.2238],[10.66223,56.22647],[10.6614,56.22801],[10.66019,56.2349],[10.65808,56.23894],[10.65611,56.24111],[10.66215,56.24506],[10.66289,56.24597],[10.66309,56.24835],[10.66542,56.25094],[10.66694,56.25],[10.66773,56.24882],[10.67041,56.24728],[10.67539,56.24667],[10.67853,56.2457],[10.68043,56.24572],[10.68528,56.24719],[10.69109,56.24758],[10.69353,56.24808],[10.69699,56.24969],[10.70446,56.2517],[10.70868,56.25171],[10.71059,56.25207],[10.71132,56.25283],[10.71422,56.25388],[10.71626,56.2556],[10.71952,56.25564],[10.7246,56.25474],[10.72611,56.25523],[10.73107,56.25515],[10.73507,56.25587],[10.73667,56.25803],[10.7423,56.26103],[10.74157,56.26163],[10.7418,56.26344],[10.74281,56.26544],[10.74419,56.2664],[10.74365,56.26686],[10.74158,56.26722],[10.74131,56.26817],[10.74044,56.26875],[10.74074,56.26951],[10.73684,56.26973],[10.73442,56.27036],[10.72638,56.27404],[10.70179,56.27363],[10.69941,56.27452],[10.69416,56.27552],[10.69009,56.27745],[10.68579,56.27685],[10.68316,56.276],[10.68043,56.27691],[10.67706,56.27687],[10.65386,56.27344],[10.64917,56.27303],[10.64555,56.27206],[10.64122,56.27219],[10.63911,56.27363],[10.63243,56.27428],[10.62941,56.27501],[10.6272,56.27614],[10.62296,56.27667],[10.61931,56.278],[10.61635,56.27826],[10.61333,56.27804],[10.60699,56.28099],[10.60471,56.2835],[10.59013,56.28766],[10.58838,56.28667],[10.58685,56.287],[10.59101,56.29361],[10.58206,56.29402],[10.58183,56.29581],[10.57901,56.29678],[10.57493,56.29926],[10.57868,56.30537],[10.58362,56.30891],[10.58648,56.31029],[10.58569,56.31124],[10.58598,56.31238],[10.59204,56.3186],[10.5774,56.32309],[10.5763,56.32391],[10.57185,56.32538],[10.56865,56.32619],[10.56575,56.32639],[10.57719,56.33136],[10.58511,56.33415],[10.5926,56.33772],[10.5973,56.3391],[10.60134,56.33957],[10.60741,56.34135],[10.60661,56.3438],[10.6079,56.34634],[10.61585,56.35265],[10.62204,56.35132],[10.62931,56.34836],[10.63265,56.34829],[10.63607,56.34696],[10.63706,56.34774],[10.64237,56.34997],[10.64715,56.35304],[10.653,56.35541],[10.65496,56.35571],[10.65562,56.35628],[10.66109,56.35564],[10.67263,56.35605],[10.68417,56.35544],[10.69369,56.3564],[10.6981,56.35753],[10.70074,56.36104],[10.70654,56.36139],[10.71625,56.36272],[10.73934,56.36867],[10.74118,56.36858],[10.74343,56.36774],[10.74629,56.36765],[10.76264,56.37016],[10.77191,56.37233],[10.78519,56.37616],[10.78509,56.37689],[10.78575,56.37717],[10.78596,56.37794],[10.7831,56.3779],[10.78007,56.38317],[10.78421,56.38461],[10.78397,56.38622],[10.79034,56.38993],[10.80449,56.39313],[10.8078,56.39256],[10.81805,56.39327],[10.83044,56.3934],[10.83468,56.39312],[10.83498,56.39357],[10.8405,56.39195],[10.84349,56.39152],[10.84551,56.39248],[10.85093,56.39828],[10.84987,56.40225],[10.85275,56.40448],[10.8604,56.40841],[10.86183,56.40717],[10.86467,56.40576],[10.86873,56.4051],[10.89,56.40692],[10.90795,56.40541],[10.91193,56.4054],[10.91649,56.40575],[10.91901,56.40641],[10.92125,56.40754],[10.92435,56.40651],[10.92532,56.40651],[10.92543,56.40571]]}}]}