{"type":"FeatureCollection","features":[{"type":"Feature","properties":{"name":"TET_HR-01_20250430","country":"HR","lengthKm":358.4},"geometry":{"type":"LineString","coordinates":[[16.26393,44.1768],[16.26343,44.17667],[16.26351,44.17519],[16.26218,44.17451],[16.26185,44.1751],[16.26221,44.17697],[16.26062,44.17803],[16.26125,44.17643],[16.25972,44.17618],[16.25939,44.17546],[16.25955,44.1719],[16.26122,44.1702],[16.25982,44.168],[16.2599,44.16473],[16.26272,44.16052],[16.26289,44.15863],[16.25911,44.15304],[16.26017,44.15128],[16.25397,44.14555],[16.25114,44.14406],[16.25416,44.14204],[16.25001,44.14056],[16.24737,44.13881],[16.2453,44.13221],[16.24078,44.1252],[16.23814,44.12385],[16.23588,44.11779],[16.23361,44.11711],[16.23267,44.11536],[16.22871,44.11172],[16.2289,44.10714],[16.2257,44.10216],[16.22758,44.09933],[16.22849,44.0935],[16.22974,44.09171],[16.22748,44.09013],[16.22842,44.08946],[16.22893,44.08816],[16.22591,44.08775],[16.22503,44.08609],[16.22308,44.08474],[16.22221,44.08331],[16.22189,44.08155],[16.2207,44.08133],[16.219,44.08012],[16.21837,44.07908],[16.21919,44.07653],[16.21894,44.07455],[16.21818,44.07361],[16.21718,44.0733],[16.21686,44.07258],[16.21837,44.07154],[16.21756,44.06907],[16.21812,44.06436],[16.21398,44.06278],[16.21052,44.05699],[16.20901,44.05641],[16.20492,44.05048],[16.20156,44.04762],[16.19934,44.04398],[16.19651,44.04132],[16.19203,44.04142],[16.18795,44.0404],[16.18656,44.04123],[16.18912,44.04719],[16.18852,44.04754],[16.18746,44.04468],[16.18385,44.04048],[16.1837,44.04352],[16.1855,44.04875],[16.18595,44.05238],[16.1834,44.05515],[16.18305,44.05703],[16.1819,44.05879],[16.17944,44.05917],[16.17487,44.06081],[16.17662,44.06489],[16.17574,44.06565],[16.17469,44.06527],[16.17407,44.06408],[16.17179,44.06433],[16.16915,44.06376],[16.168,44.06414],[16.16924,44.06716],[16.17091,44.06917],[16.17038,44.07112],[16.16845,44.07358],[16.1692,44.07547],[16.16845,44.07646],[16.16732,44.07996],[16.16745,44.08283],[16.16694,44.08481],[16.16669,44.08553],[16.16229,44.08876],[16.16154,44.09101],[16.1589,44.09406],[16.15865,44.0964],[16.15915,44.09757],[16.15802,44.09766],[16.15815,44.0999],[16.15601,44.10062],[16.1579,44.10125],[16.15563,44.10269],[16.15325,44.10664],[16.15099,44.10826],[16.15113,44.10995],[16.14887,44.11251],[16.14548,44.11372],[16.13756,44.11547],[16.13467,44.11713],[16.13662,44.11987],[16.13775,44.12351],[16.13737,44.12729],[16.13681,44.12814],[16.13706,44.13051],[16.13591,44.13265],[16.13468,44.13258],[16.1349,44.13326],[16.13367,44.13407],[16.13376,44.13517],[16.12829,44.13668],[16.1279,44.13805],[16.12622,44.13653],[16.12085,44.13537],[16.11949,44.13576],[16.11936,44.13627],[16.12043,44.13758],[16.11649,44.13676],[16.11539,44.13699],[16.11547,44.13751],[16.11496,44.13762],[16.11436,44.1373],[16.11116,44.13726],[16.10758,44.1382],[16.1042,44.14021],[16.09888,44.14231],[16.09779,44.14376],[16.0959,44.14511],[16.09515,44.14634],[16.09429,44.14927],[16.09295,44.15069],[16.09359,44.15329],[16.09216,44.15519],[16.0921,44.15806],[16.09356,44.15877],[16.09231,44.16049],[16.09119,44.16374],[16.09065,44.16892],[16.09114,44.17146],[16.09055,44.17239],[16.0896,44.17276],[16.09046,44.17392],[16.08955,44.17586],[16.0898,44.17743],[16.08852,44.17992],[16.08972,44.18005],[16.09035,44.18092],[16.08995,44.18224],[16.09095,44.18448],[16.09094,44.18497],[16.08913,44.18672],[16.09097,44.18823],[16.09042,44.18959],[16.09134,44.19213],[16.08926,44.19868],[16.08996,44.20131],[16.09114,44.20172],[16.09037,44.20208],[16.08898,44.20688],[16.08616,44.2093],[16.08294,44.2148],[16.08032,44.22024],[16.07826,44.227],[16.07577,44.22982],[16.07063,44.23749],[16.0682,44.24014],[16.06768,44.23504],[16.06688,44.2324],[16.05938,44.23535],[16.05893,44.23598],[16.05791,44.23475],[16.0563,44.23414],[16.05454,44.2338],[16.05281,44.23427],[16.0509,44.23297],[16.04811,44.23292],[16.04164,44.23426],[16.03725,44.23733],[16.0349,44.23526],[16.03393,44.23506],[16.02922,44.23507],[16.02526,44.23558],[16.01737,44.23434],[16.01683,44.23381],[16.01694,44.23211],[16.01446,44.23371],[16.01265,44.23653],[16.00971,44.23879],[16.00842,44.23914],[16.00632,44.2388],[16.00473,44.23768],[16.00185,44.23756],[15.99816,44.23835],[15.99592,44.23734],[15.99447,44.23742],[15.99382,44.23812],[15.99468,44.24081],[15.9934,44.24156],[15.99315,44.24225],[15.99169,44.2426],[15.98962,44.24382],[15.98755,44.24612],[15.98495,44.24689],[15.98224,44.24704],[15.97757,44.24965],[15.97597,44.25016],[15.97447,44.25001],[15.97204,44.25045],[15.96647,44.25287],[15.96433,44.25307],[15.96259,44.25372],[15.96035,44.25384],[15.95755,44.25478],[15.95148,44.25506],[15.94799,44.25598],[15.94747,44.25627],[15.94641,44.25881],[15.94499,44.25825],[15.94399,44.2571],[15.94231,44.25698],[15.94172,44.25645],[15.93973,44.25606],[15.93769,44.25631],[15.9346,44.25581],[15.93294,44.25661],[15.93319,44.25767],[15.93404,44.25809],[15.93334,44.26004],[15.93434,44.25913],[15.9358,44.25926],[15.93444,44.25987],[15.93197,44.26272],[15.93278,44.26272],[15.9326,44.26298],[15.93093,44.26413],[15.92879,44.26875],[15.92693,44.27024],[15.92453,44.27128],[15.92343,44.27315],[15.92695,44.27369],[15.92896,44.27441],[15.93248,44.27477],[15.93449,44.27841],[15.93675,44.28056],[15.93549,44.28182],[15.93725,44.282],[15.93625,44.2829],[15.93801,44.2829],[15.93524,44.28631],[15.93826,44.28631],[15.94002,44.28937],[15.94102,44.28991],[15.94228,44.2935],[15.94404,44.2953],[15.9458,44.29638],[15.9463,44.29745],[15.94404,44.30069],[15.94479,44.30177],[15.94529,44.30392],[15.94705,44.3068],[15.94856,44.30698],[15.94856,44.30859],[15.95082,44.31003],[15.94906,44.31237],[15.95032,44.31362],[15.95761,44.31578],[15.95761,44.31865],[15.95685,44.32045],[15.95736,44.32332],[15.96062,44.32674],[15.95886,44.328],[15.95886,44.33159],[15.95811,44.33303],[15.9556,44.33446],[15.95158,44.33536],[15.94856,44.33698],[15.9468,44.33842],[15.94906,44.33985],[15.94102,44.34345],[15.93951,44.34488],[15.93348,44.34794],[15.93248,44.34884],[15.93223,44.35135],[15.92393,44.35261],[15.92343,44.35423],[15.92368,44.35513],[15.92494,44.35602],[15.92695,44.35674],[15.93072,44.3571],[15.93248,44.36016],[15.93976,44.36177],[15.94353,44.36375],[15.94636,44.36617],[15.94887,44.36725],[15.95038,44.36725],[15.95315,44.36797],[15.9539,44.36995],[15.95742,44.36959],[15.95868,44.37246],[15.96043,44.3739],[15.96395,44.3757],[15.96119,44.37606],[15.9544,44.37785],[15.95239,44.37857],[15.95089,44.37983],[15.94988,44.38109],[15.94938,44.38791],[15.94988,44.39079],[15.94887,44.39276],[15.93731,44.39241],[15.93455,44.39187],[15.93153,44.39205],[15.92827,44.39312],[15.92123,44.39294],[15.91796,44.396],[15.91394,44.3978],[15.90992,44.39905],[15.90113,44.40085],[15.89836,44.40013],[15.8956,44.40085],[15.89384,44.40247],[15.89535,44.4039],[15.89641,44.40744],[15.89689,44.40724],[15.91886,44.42152],[15.92253,44.4243],[15.92543,44.42739],[15.92641,44.43021],[15.927,44.43034],[15.92852,44.42959],[15.92925,44.43312],[15.92851,44.43423],[15.9263,44.43598],[15.91991,44.43875],[15.91578,44.4429],[15.91245,44.44498],[15.91331,44.44713],[15.91539,44.44803],[15.9132,44.45334],[15.91347,44.45494],[15.91107,44.45606],[15.90973,44.4587],[15.90684,44.45918],[15.90368,44.45835],[15.89912,44.45887],[15.89911,44.4593],[15.90055,44.45965],[15.90068,44.46027],[15.90377,44.46168],[15.90435,44.46279],[15.90326,44.46316],[15.90116,44.46549],[15.89531,44.46889],[15.89297,44.46906],[15.89259,44.47002],[15.88974,44.47202],[15.88975,44.47291],[15.89095,44.4722],[15.89097,44.47303],[15.89178,44.47408],[15.89335,44.47429],[15.89433,44.47533],[15.89346,44.47841],[15.88959,44.47989],[15.88992,44.47883],[15.88771,44.47791],[15.88783,44.4768],[15.88627,44.47682],[15.88607,44.47792],[15.88326,44.47883],[15.88228,44.48093],[15.88093,44.48191],[15.88085,44.48349],[15.87917,44.48425],[15.87735,44.48596],[15.87551,44.48638],[15.875,44.48699],[15.87242,44.48818],[15.87302,44.48994],[15.87466,44.49169],[15.87593,44.49171],[15.87502,44.49295],[15.87566,44.49527],[15.87654,44.49625],[15.87855,44.49633],[15.87858,44.49747],[15.87711,44.49986],[15.87883,44.50128],[15.88076,44.50495],[15.88184,44.5058],[15.8838,44.5051],[15.88453,44.50524],[15.8869,44.50766],[15.88596,44.50957],[15.88581,44.51183],[15.88412,44.5126],[15.88407,44.51355],[15.88231,44.51552],[15.88045,44.51633],[15.88018,44.51789],[15.87936,44.51874],[15.8778,44.51928],[15.87811,44.52047],[15.87621,44.52112],[15.87523,44.52039],[15.87252,44.5167],[15.87125,44.51596],[15.86782,44.51562],[15.86603,44.51702],[15.86427,44.5167],[15.86079,44.51503],[15.8599,44.51539],[15.85929,44.51697],[15.85404,44.52012],[15.85356,44.52093],[15.85401,44.52168],[15.85323,44.52342],[15.84599,44.52918],[15.84191,44.53062],[15.83985,44.53087],[15.83027,44.53098],[15.828,44.53047],[15.81028,44.52395],[15.80834,44.5218],[15.80758,44.52154],[15.80722,44.52291],[15.8057,44.52375],[15.80557,44.52503],[15.79708,44.52633],[15.79263,44.52609],[15.7884,44.5242],[15.78502,44.52405],[15.78461,44.5259],[15.78266,44.52623],[15.78199,44.52753],[15.78106,44.52724],[15.77971,44.52744],[15.77943,44.52841],[15.77792,44.52992],[15.77563,44.5308],[15.77145,44.53036],[15.76689,44.5313],[15.76678,44.53048],[15.76322,44.52865],[15.76063,44.52668],[15.75964,44.52656],[15.75908,44.5256],[15.75906,44.52661],[15.76038,44.52842],[15.76034,44.53078],[15.76109,44.53176],[15.7632,44.53305],[15.76365,44.53466],[15.76602,44.53559],[15.76808,44.53715],[15.77126,44.53721],[15.77153,44.53749],[15.76978,44.53795],[15.76827,44.53884],[15.76491,44.53944],[15.76452,44.54009],[15.76562,44.54345],[15.76358,44.5448],[15.76147,44.54568],[15.75281,44.54678],[15.74879,44.54906],[15.73708,44.55789],[15.73201,44.56109],[15.7252,44.56648],[15.7214,44.57006],[15.71914,44.57449],[15.71398,44.58006],[15.70937,44.58743],[15.70354,44.5941],[15.69932,44.59616],[15.68232,44.60243],[15.67999,44.60527],[15.67736,44.61126],[15.67588,44.61294],[15.67449,44.61379],[15.67385,44.61508],[15.6722,44.61485],[15.67131,44.61377],[15.67071,44.61366],[15.66867,44.61418],[15.66856,44.61465],[15.66916,44.61504],[15.6689,44.61537],[15.66062,44.61473],[15.65561,44.61625],[15.6511,44.61508],[15.64763,44.61524],[15.64681,44.61562],[15.64513,44.61545],[15.64201,44.61644],[15.63742,44.61726],[15.63591,44.61867],[15.63313,44.61884],[15.63203,44.61839],[15.63156,44.61725],[15.63093,44.61698],[15.62734,44.61799],[15.62546,44.61931],[15.625,44.62136],[15.62545,44.62219],[15.62294,44.62479],[15.62173,44.62669],[15.61903,44.62714],[15.61693,44.62707],[15.61038,44.62529],[15.60284,44.62657],[15.59848,44.62649],[15.59369,44.62785],[15.59297,44.62862],[15.59173,44.62893],[15.58841,44.63097],[15.58772,44.63187],[15.58329,44.6326],[15.5807,44.6338],[15.57782,44.63701],[15.57649,44.6377],[15.57565,44.63949],[15.57632,44.64155],[15.57492,44.64227],[15.57414,44.64365],[15.56944,44.64566],[15.56846,44.64692],[15.56878,44.64979],[15.56646,44.64993],[15.56571,44.65046],[15.56582,44.65207],[15.56486,44.65317],[15.56496,44.65413],[15.56414,44.65554],[15.55938,44.65847],[15.55826,44.66018],[15.55848,44.66101],[15.5574,44.66153],[15.5568,44.663],[15.55807,44.66368],[15.55936,44.66381],[15.56242,44.66618],[15.56464,44.66612],[15.56849,44.66696],[15.56951,44.6676],[15.57259,44.66792],[15.57719,44.66655],[15.58148,44.66644],[15.58257,44.66696],[15.58345,44.66595],[15.58458,44.66707],[15.58698,44.66609],[15.58887,44.66593],[15.59676,44.6668],[15.59806,44.66572],[15.59911,44.66546],[15.59951,44.66461],[15.60124,44.66383],[15.6019,44.66144],[15.60211,44.66238],[15.6037,44.66331],[15.60497,44.66725],[15.60581,44.66757],[15.60879,44.66516],[15.61041,44.66514],[15.61172,44.66288],[15.6141,44.66201],[15.61613,44.66053],[15.61599,44.66146],[15.61306,44.66388],[15.61263,44.66652],[15.612,44.66731],[15.6127,44.66793],[15.61246,44.66908],[15.60998,44.67213],[15.61049,44.67293],[15.61012,44.67392],[15.60817,44.67437],[15.60781,44.67384],[15.60694,44.67418],[15.60568,44.67397],[15.60267,44.6757],[15.60178,44.67743],[15.60201,44.67843],[15.59733,44.68393],[15.59059,44.68657],[15.58905,44.68856],[15.58726,44.68937],[15.58637,44.69045],[15.58398,44.69142],[15.58245,44.69319],[15.57864,44.69539],[15.57817,44.69603],[15.57591,44.69681],[15.5752,44.69777],[15.57464,44.69777],[15.57471,44.69719],[15.57393,44.6972],[15.56915,44.69862],[15.56759,44.69992],[15.56709,44.70129],[15.5613,44.70264],[15.55947,44.70363],[15.55201,44.70413],[15.55084,44.70502],[15.54908,44.7053],[15.54791,44.70611],[15.54161,44.7076],[15.53902,44.70874],[15.53733,44.71001],[15.52906,44.71307],[15.52503,44.71268],[15.5207,44.71451],[15.51529,44.71573],[15.5083,44.72002],[15.50474,44.7208],[15.50427,44.72149],[15.50345,44.72176],[15.50306,44.72281],[15.50332,44.72324],[15.50535,44.72351],[15.50678,44.72453],[15.50474,44.72533],[15.5046,44.72657],[15.50621,44.72633],[15.50524,44.72792],[15.50237,44.72845],[15.49588,44.73295],[15.49139,44.73461],[15.48885,44.73617],[15.48879,44.73678],[15.48944,44.73706],[15.49326,44.73797],[15.49792,44.74256],[15.49998,44.7432],[15.50052,44.74373],[15.49639,44.74562],[15.49521,44.74776],[15.49174,44.74973],[15.48689,44.75012],[15.48194,44.75144],[15.47987,44.7512],[15.47853,44.75182],[15.47846,44.75255],[15.4803,44.75382],[15.48028,44.75631],[15.48144,44.7591],[15.48336,44.75944],[15.4847,44.76027],[15.48464,44.76058],[15.48739,44.76282],[15.4904,44.76326],[15.48984,44.76497],[15.49074,44.76541],[15.49093,44.76613],[15.49021,44.7677],[15.48582,44.77097],[15.4839,44.77113],[15.4823,44.77185],[15.48162,44.77141],[15.48067,44.77229],[15.48221,44.773],[15.48418,44.77461],[15.48679,44.77445],[15.4881,44.77572],[15.48905,44.77578],[15.49182,44.77706],[15.49286,44.77703],[15.49421,44.77935],[15.49723,44.78145],[15.50235,44.78364],[15.49917,44.7867],[15.49714,44.78945],[15.4937,44.7925],[15.49171,44.79386],[15.49049,44.79416],[15.48851,44.79597],[15.48763,44.79943],[15.48312,44.80474],[15.48215,44.80875],[15.48053,44.81146],[15.48051,44.81543],[15.47983,44.81759],[15.47722,44.82215],[15.47419,44.82539],[15.46571,44.83354],[15.46322,44.83419],[15.46226,44.8341],[15.45757,44.83585],[15.45597,44.83545],[15.45414,44.83584],[15.45262,44.83673],[15.45135,44.83672],[15.44951,44.83764],[15.44304,44.84324],[15.44133,44.84549],[15.43787,44.84803],[15.43773,44.84867],[15.43997,44.84899],[15.44269,44.8486],[15.46461,44.84384],[15.46767,44.84703],[15.46622,44.84912],[15.46724,44.85031],[15.46656,44.85277],[15.46842,44.85488],[15.47234,44.86148],[15.47517,44.8642],[15.47513,44.86489],[15.47661,44.86493],[15.47588,44.86589],[15.47678,44.86641],[15.47666,44.8659],[15.4779,44.8659],[15.47842,44.86499],[15.47853,44.86343],[15.47948,44.86235],[15.47919,44.86134],[15.4798,44.85877],[15.48037,44.8612],[15.48123,44.86162],[15.483,44.86132],[15.48355,44.86457],[15.48147,44.86558],[15.48049,44.86754],[15.47954,44.86829],[15.47948,44.86911],[15.47859,44.86903],[15.47534,44.87069],[15.47368,44.87101],[15.47257,44.87208],[15.47134,44.87232],[15.46996,44.87086],[15.46848,44.87118],[15.46556,44.87308],[15.4607,44.87535],[15.459,44.87641],[15.45856,44.87714],[15.45594,44.87785],[15.45478,44.87725],[15.45396,44.87737],[15.45525,44.87866],[15.45551,44.88023],[15.4551,44.8805],[15.45404,44.87999],[15.4529,44.88032],[15.45034,44.88518],[15.4543,44.88445],[15.45379,44.88533],[15.45418,44.88791],[15.45272,44.89015],[15.45308,44.89109],[15.44895,44.89247],[15.44821,44.89355],[15.44856,44.8949],[15.44788,44.8963],[15.44681,44.89725],[15.44447,44.89807],[15.4494,44.89766],[15.45354,44.8988],[15.45382,44.89922],[15.4531,44.90049],[15.45182,44.90142],[15.44972,44.90135],[15.44923,44.90346],[15.4472,44.90457],[15.44515,44.90791],[15.44324,44.90929],[15.44407,44.91419],[15.44334,44.91443],[15.44342,44.91503],[15.44271,44.9153],[15.44248,44.91622],[15.44392,44.91702],[15.44519,44.91665],[15.44664,44.91715],[15.44756,44.91949],[15.44673,44.92235],[15.44397,44.92499],[15.44405,44.9287],[15.44612,44.92944],[15.44982,44.92974],[15.45122,44.93111],[15.45191,44.93115],[15.45206,44.92972],[15.45745,44.92756],[15.45585,44.92768],[15.45439,44.92716],[15.4536,44.9263],[15.45348,44.92496],[15.46287,44.92772],[15.46359,44.92844],[15.46254,44.92958],[15.46147,44.93224],[15.46021,44.93358],[15.45941,44.93866],[15.45284,44.94432],[15.45222,44.94577],[15.45085,44.94685],[15.45144,44.94827],[15.4511,44.94878],[15.44941,44.94886],[15.44924,44.95031],[15.44976,44.95187],[15.44765,44.95498],[15.44793,44.95561],[15.44752,44.95691],[15.44583,44.959],[15.44539,44.96081],[15.43784,44.9656],[15.43738,44.96721],[15.43639,44.96856],[15.43107,44.97267],[15.43051,44.97511],[15.42872,44.97807],[15.4266,44.97942],[15.42526,44.9798],[15.42253,44.98301],[15.42142,44.98322],[15.41954,44.9829],[15.41729,44.98343],[15.41736,44.98456],[15.41662,44.9834],[15.41694,44.98206],[15.41775,44.98139],[15.42076,44.98052],[15.42141,44.98008],[15.42128,44.97957],[15.42037,44.98004],[15.41795,44.97961],[15.41456,44.9803],[15.41316,44.97993],[15.41182,44.9807],[15.41075,44.98061],[15.40973,44.98102],[15.40927,44.98155],[15.40627,44.98273],[15.40352,44.98274],[15.40128,44.97997],[15.40137,44.97785],[15.40067,44.9767],[15.39927,44.97584],[15.39795,44.97411],[15.39595,44.97353],[15.39603,44.9726],[15.39432,44.97187],[15.39371,44.97114],[15.3898,44.97009],[15.38666,44.97194],[15.3874,44.97039],[15.38735,44.96865],[15.38492,44.96699],[15.38286,44.9678],[15.37581,44.96685],[15.37579,44.96581],[15.37499,44.96548],[15.37476,44.96449],[15.37366,44.96373],[15.37225,44.96349],[15.37041,44.96382],[15.36928,44.96349],[15.36885,44.96228],[15.36713,44.96164],[15.36374,44.96164],[15.36226,44.96082],[15.36124,44.9583],[15.35831,44.95848],[15.35736,44.95692],[15.35155,44.95332],[15.35031,44.9548],[15.34525,44.95627],[15.34464,44.95716],[15.34339,44.95777],[15.34303,44.95608],[15.34238,44.95574],[15.34138,44.956],[15.34092,44.95576],[15.33998,44.95377],[15.33792,44.95143],[15.33466,44.94929],[15.33539,44.94843],[15.33423,44.948],[15.32351,44.95017],[15.32159,44.94943],[15.31943,44.94976],[15.31398,44.94825],[15.31158,44.94683],[15.30967,44.94624],[15.30954,44.9446],[15.30769,44.94416],[15.30645,44.94533],[15.30334,44.94678],[15.2993,44.94989],[15.29767,44.95237],[15.2966,44.95161],[15.29868,44.94972],[15.29862,44.94893],[15.29982,44.94822],[15.30137,44.94623],[15.30113,44.94479],[15.30361,44.94344],[15.30517,44.94039],[15.30667,44.93964],[15.31163,44.93958],[15.31173,44.93902],[15.30692,44.93867],[15.30343,44.93913],[15.30035,44.93876],[15.29417,44.94014],[15.29159,44.9374],[15.29053,44.93425],[15.28967,44.93446],[15.29006,44.93534],[15.28947,44.93562],[15.28814,44.93498],[15.28703,44.93545],[15.2848,44.93484],[15.28212,44.93622],[15.27691,44.93761],[15.27701,44.93809],[15.27963,44.93851],[15.28062,44.93958],[15.28047,44.94057],[15.27743,44.9422],[15.27556,44.94122],[15.27377,44.94136],[15.27142,44.94231],[15.27062,44.94292],[15.27037,44.94379],[15.26624,44.94521],[15.26541,44.94584],[15.26484,44.94863],[15.26314,44.94865],[15.26192,44.94983],[15.25929,44.95058],[15.25982,44.95141],[15.25962,44.95248],[15.25662,44.95173],[15.25278,44.95202],[15.25001,44.95404],[15.2475,44.95472],[15.2418,44.95752],[15.23876,44.95685],[15.23449,44.95761],[15.23341,44.95815],[15.23271,44.95998],[15.23553,44.95995],[15.2379,44.96117],[15.24054,44.96025],[15.24345,44.95986],[15.24449,44.96088],[15.24289,44.96228],[15.24321,44.96367],[15.24386,44.96292],[15.24654,44.96193],[15.24682,44.96203],[15.2455,44.9634],[15.24698,44.96289],[15.2489,44.96331],[15.24956,44.96551],[15.24847,44.96555],[15.24663,44.96752],[15.23772,44.97132],[15.23427,44.97201],[15.23271,44.97284],[15.22806,44.97377],[15.22553,44.97524],[15.22397,44.97551],[15.22213,44.97887],[15.22379,44.98197],[15.21488,44.98638],[15.20884,44.98703],[15.20686,44.98653],[15.20464,44.98764],[15.19717,44.98882],[15.19527,44.98991],[15.19445,44.98957],[15.19105,44.99005],[15.18663,44.99202],[15.18283,44.99114],[15.17985,44.98974],[15.17636,44.98897],[15.17533,44.98918],[15.17707,44.98941],[15.17745,44.98979],[15.17307,44.99003],[15.1685,44.9897],[15.16395,44.99091],[15.1616,44.99081],[15.15616,44.99205],[15.1487,44.99223],[15.14361,44.99372],[15.14131,44.99483],[15.13945,44.99506],[15.13469,44.99668],[15.13332,45],[15.1313,44.99987],[15.12998,44.99883],[15.12869,44.99855],[15.12513,45.00376],[15.12478,45.00601],[15.12329,45.00796],[15.12378,45.00925],[15.12337,45.01045],[15.12238,45.01166],[15.12212,45.01465],[15.12475,45.01725],[15.12323,45.01678],[15.12145,45.01739],[15.11866,45.01935],[15.11725,45.02153],[15.11658,45.02178],[15.11554,45.02155],[15.11432,45.0224],[15.11505,45.02316],[15.11489,45.02403],[15.11122,45.0284],[15.10999,45.029],[15.10547,45.03005],[15.10283,45.0322],[15.09762,45.03354],[15.09723,45.03424],[15.09432,45.03606],[15.08985,45.03993],[15.08722,45.04329],[15.08471,45.04376],[15.08196,45.04561],[15.08061,45.04763],[15.07481,45.05236],[15.07486,45.05411],[15.0711,45.05741],[15.07068,45.05848],[15.06624,45.0618],[15.06577,45.06274],[15.06315,45.06286],[15.06105,45.06597],[15.05954,45.06676],[15.05674,45.06921],[15.05266,45.06898],[15.05045,45.07086],[15.04935,45.07102],[15.04931,45.07162],[15.04726,45.07281],[15.04699,45.07439],[15.04591,45.07635],[15.04441,45.07763],[15.04155,45.07913],[15.04017,45.08084],[15.0396,45.08108],[15.03908,45.08086],[15.03866,45.08148],[15.03721,45.08215],[15.03748,45.08351],[15.03617,45.08288],[15.03568,45.08302],[15.03371,45.08458],[15.03369,45.08519],[15.03276,45.08567],[15.03227,45.08543],[15.0306,45.08564],[15.02999,45.08475],[15.0288,45.08431],[15.02269,45.086],[15.02047,45.08487],[15.02028,45.08459],[15.02378,45.08019],[15.02374,45.07674],[15.0183,45.07537],[15.01693,45.07333],[15.01363,45.07134],[15.00783,45.07043],[15.00759,45.06998],[15.00829,45.0685],[15.00799,45.06757],[15.00716,45.06724],[15.00652,45.06462],[15.00489,45.06423],[15.00314,45.06321],[15.0034,45.06226],[15.00177,45.06153],[15.00199,45.0613],[14.99937,45.06055],[14.99916,45.05866],[14.99951,45.05808],[14.99893,45.05773],[14.99527,45.0573],[14.99405,45.05768],[14.99145,45.05691],[14.99028,45.0582],[14.98845,45.05851],[14.98814,45.05893],[14.9885,45.0614],[14.98742,45.06254],[14.98719,45.06141],[14.98668,45.06127],[14.98516,45.06115],[14.98336,45.06199],[14.98271,45.06023],[14.98145,45.06048],[14.98011,45.06001],[14.97915,45.06029],[14.97842,45.06002],[14.977,45.06118],[14.97615,45.06057],[14.97555,45.06179],[14.97396,45.06298],[14.97235,45.06317],[14.97184,45.06357],[14.97093,45.06563],[14.96874,45.06641],[14.96429,45.07041],[14.9632,45.0695],[14.96274,45.06946],[14.96228,45.07009],[14.95886,45.06771],[14.95738,45.06725],[14.95648,45.066],[14.95695,45.06489],[14.95665,45.06443],[14.95558,45.06441],[14.95477,45.06484],[14.95516,45.06578],[14.95356,45.0683],[14.95331,45.06986],[14.9516,45.07239],[14.95048,45.07257],[14.94646,45.07052],[14.94166,45.07386],[14.9408,45.07271],[14.93831,45.07244],[14.93608,45.07126],[14.93525,45.06968],[14.93538,45.06784],[14.93387,45.06702],[14.9334,45.06602],[14.93278,45.06588],[14.93177,45.07146],[14.93205,45.07313],[14.92852,45.07456],[14.92516,45.07527],[14.92293,45.07676],[14.92208,45.07906],[14.9207,45.07979],[14.9186,45.08211],[14.91835,45.08459],[14.91465,45.09035],[14.91364,45.09478],[14.91227,45.09707],[14.91141,45.10076],[14.90724,45.10449],[14.90693,45.1056],[14.90437,45.10686],[14.90043,45.1104],[14.89755,45.11384],[14.89579,45.11431],[14.89314,45.11678],[14.89091,45.12012],[14.8895,45.12446],[14.88512,45.12939],[14.8841,45.13166],[14.88354,45.13493],[14.88292,45.1355],[14.8803,45.13596],[14.8786,45.13753],[14.87708,45.13822],[14.87679,45.13914],[14.8774,45.14005],[14.87717,45.14102],[14.87411,45.14363],[14.87452,45.14347],[14.8702,45.14589],[14.86808,45.15018],[14.86772,45.15233],[14.8693,45.15479],[14.86927,45.15597],[14.86594,45.16049],[14.86349,45.16253],[14.86486,45.16632],[14.86439,45.16752],[14.86361,45.16777],[14.86293,45.16745],[14.86478,45.16864],[14.86516,45.16968],[14.8641,45.17134],[14.86206,45.17202],[14.86426,45.17244],[14.86485,45.17215],[14.8656,45.17232],[14.86561,45.17384],[14.86715,45.17267],[14.86816,45.17252],[14.86909,45.17382],[14.87015,45.17338],[14.87294,45.17435],[14.87469,45.17589],[14.87472,45.17919],[14.87193,45.18316],[14.87312,45.18349],[14.87346,45.18292],[14.87497,45.18286],[14.87579,45.1822],[14.87765,45.18202],[14.87609,45.18263],[14.8758,45.18335],[14.87633,45.18637],[14.87582,45.18743],[14.87619,45.18789],[14.87382,45.19233],[14.87402,45.19273],[14.87612,45.19315],[14.87729,45.19594],[14.87589,45.19773],[14.87236,45.19849],[14.87274,45.19941],[14.87215,45.20037],[14.87373,45.20121],[14.87162,45.20182],[14.87138,45.20262],[14.87202,45.20356],[14.87096,45.20376],[14.86995,45.20496],[14.86737,45.20596],[14.86672,45.20772],[14.86585,45.20751],[14.86444,45.20812],[14.86429,45.20913],[14.86498,45.20953],[14.86501,45.21031],[14.86228,45.21053],[14.85868,45.21165],[14.86033,45.21254],[14.85897,45.21406],[14.85951,45.21488],[14.85899,45.21574],[14.85787,45.21635],[14.85819,45.21732],[14.85771,45.21823],[14.85654,45.21883],[14.85565,45.22033],[14.8549,45.22058],[14.85367,45.22222],[14.85474,45.22315],[14.85458,45.22478],[14.85579,45.22547],[14.85526,45.22607],[14.85585,45.22704],[14.8554,45.22729],[14.85408,45.22706],[14.854,45.22742],[14.85722,45.22868],[14.85532,45.23061],[14.85482,45.23341],[14.85594,45.23318],[14.85851,45.23493],[14.85878,45.23541],[14.85816,45.23662],[14.85828,45.23715],[14.85895,45.23743],[14.85654,45.23836],[14.85599,45.24072],[14.85445,45.24265],[14.85314,45.24606],[14.8518,45.24765],[14.84967,45.249],[14.84994,45.25059],[14.84758,45.25247],[14.84571,45.25617],[14.84486,45.2563],[14.84421,45.25559],[14.84317,45.25541],[14.84196,45.2558],[14.84102,45.25677],[14.84042,45.25793],[14.84092,45.25889],[14.83938,45.26124],[14.84008,45.26186],[14.83995,45.26332],[14.84207,45.26308],[14.84272,45.26385],[14.84142,45.2647],[14.83999,45.2672],[14.83882,45.26784],[14.83874,45.26929],[14.83978,45.2707],[14.83972,45.27328],[14.83799,45.2737],[14.83692,45.27467],[14.83469,45.2749],[14.8339,45.27573],[14.83416,45.27602],[14.83296,45.27867],[14.83076,45.28107],[14.83064,45.28238],[14.82961,45.28215],[14.82926,45.28169],[14.82845,45.28211],[14.82829,45.2839],[14.8298,45.2841],[14.82799,45.28684],[14.82485,45.28926],[14.82318,45.29209],[14.8226,45.29455],[14.81991,45.29507],[14.81944,45.29459],[14.81991,45.2941],[14.82163,45.29381],[14.82097,45.29262],[14.82188,45.2903],[14.82139,45.2892],[14.82071,45.28894],[14.8182,45.28934],[14.81787,45.28997],[14.81588,45.29097],[14.8128,45.29179],[14.81209,45.29243],[14.81053,45.29253],[14.80734,45.29837],[14.79397,45.30992],[14.79112,45.31411],[14.78982,45.31471],[14.78801,45.3164],[14.78706,45.31861],[14.79005,45.31905],[14.79043,45.31943],[14.78994,45.32115],[14.79172,45.32237],[14.79298,45.32285],[14.7943,45.32273],[14.79474,45.32315],[14.79374,45.3239],[14.7935,45.32493],[14.79193,45.32667],[14.79145,45.32902],[14.78982,45.32988],[14.78817,45.33296],[14.78462,45.33575],[14.78212,45.33644],[14.77981,45.33822],[14.77742,45.34236],[14.7757,45.34279],[14.77528,45.34424],[14.77282,45.34582],[14.77186,45.34786],[14.77257,45.34969],[14.77029,45.35002],[14.76984,45.35039],[14.76936,45.3521],[14.76959,45.35372],[14.76863,45.35557],[14.76913,45.35665],[14.77051,45.35745],[14.77,45.35837],[14.77023,45.35893],[14.77166,45.3601],[14.77123,45.36095],[14.76956,45.36179],[14.76846,45.36174],[14.76894,45.3627],[14.76761,45.36345],[14.76803,45.36478],[14.76992,45.36598],[14.77011,45.36791],[14.77209,45.36921],[14.77502,45.36935],[14.7803,45.37107],[14.78396,45.37427],[14.78512,45.37465],[14.78845,45.37463],[14.79039,45.37791],[14.79262,45.3804],[14.79264,45.38339],[14.78981,45.38483],[14.7891,45.38597],[14.78958,45.38891],[14.79049,45.39045],[14.79143,45.39104],[14.80188,45.3942],[14.80402,45.39562],[14.80665,45.39617],[14.80924,45.40092],[14.80826,45.40254],[14.80906,45.40288],[14.81004,45.40193],[14.81067,45.40202],[14.81232,45.4037],[14.81138,45.40463],[14.8112,45.40638],[14.81385,45.40756],[14.81652,45.41059],[14.81994,45.41139],[14.82127,45.41404],[14.82137,45.41517],[14.82052,45.41595],[14.8212,45.41736],[14.824,45.41868],[14.82609,45.42193],[14.83097,45.42513],[14.83269,45.4269],[14.83582,45.42864],[14.83796,45.42943],[14.84201,45.42979],[14.84585,45.43127],[14.84782,45.434],[14.85043,45.43549],[14.85038,45.4359],[14.84961,45.43596],[14.84782,45.43515],[14.84683,45.43527],[14.84554,45.43449],[14.844,45.43446],[14.84424,45.43516],[14.84521,45.43543],[14.8463,45.4366],[14.85024,45.43872],[14.85015,45.44119],[14.85163,45.44238],[14.85269,45.44421],[14.85153,45.44832],[14.85036,45.44943],[14.85011,45.45113],[14.85035,45.45167],[14.85255,45.45232],[14.85376,45.45447],[14.85445,45.45838],[14.85356,45.4602],[14.85367,45.4622],[14.8532,45.46365]]}},{"type":"Feature","properties":{"name":"TET_HR-02-Fuzine loop_20250430","country":"HR","lengthKm":27.5},"geometry":{"type":"LineString","coordinates":[[14.7717,45.34773],[14.77083,45.34665],[14.7698,45.34635],[14.76875,45.34702],[14.76625,45.34679],[14.76497,45.34837],[14.76359,45.34879],[14.76293,45.3495],[14.76041,45.34864],[14.7603,45.34789],[14.75782,45.34481],[14.75808,45.34367],[14.75663,45.34385],[14.7542,45.34178],[14.7516,45.34116],[14.75358,45.33831],[14.75243,45.33777],[14.75023,45.33795],[14.74917,45.3367],[14.74821,45.33434],[14.74559,45.33137],[14.74412,45.33142],[14.74347,45.33107],[14.7429,45.32982],[14.74058,45.32791],[14.73991,45.32608],[14.7305,45.31879],[14.72514,45.31268],[14.72268,45.3124],[14.72102,45.31135],[14.71809,45.31097],[14.71669,45.30897],[14.7162,45.30687],[14.71488,45.30623],[14.71368,45.30464],[14.71352,45.30513],[14.71499,45.30698],[14.71567,45.30955],[14.71786,45.31361],[14.71534,45.31465],[14.71043,45.31802],[14.70905,45.31938],[14.70792,45.32138],[14.70469,45.3237],[14.70428,45.32589],[14.7035,45.32692],[14.70166,45.32783],[14.70073,45.32788],[14.69929,45.32973],[14.69712,45.33073],[14.69262,45.33078],[14.68944,45.33199],[14.68742,45.33175],[14.68547,45.33073],[14.6836,45.33052],[14.68113,45.33113],[14.67657,45.33546],[14.67459,45.33984],[14.67193,45.34108],[14.66884,45.34463],[14.67128,45.34232],[14.67335,45.34117],[14.67465,45.34089],[14.67917,45.34177],[14.68265,45.34179],[14.68487,45.34069],[14.69047,45.33983],[14.69112,45.34031],[14.69126,45.3422],[14.68937,45.3457],[14.69221,45.35059],[14.69294,45.3509],[14.69564,45.35091],[14.70061,45.34892],[14.70168,45.34928],[14.7029,45.35107],[14.7066,45.35035],[14.70791,45.35045],[14.7112,45.35275],[14.7129,45.35279],[14.71569,45.3539],[14.71708,45.35634],[14.71624,45.35554],[14.71596,45.35616],[14.71641,45.35646],[14.71587,45.35649],[14.71478,45.35559],[14.71478,45.35675],[14.72008,45.3584],[14.72015,45.36082],[14.72287,45.36122],[14.72439,45.36217],[14.72473,45.36149],[14.72565,45.36122],[14.72727,45.36122],[14.72887,45.36178],[14.73131,45.36112],[14.73152,45.3594],[14.73347,45.35711],[14.73591,45.35812],[14.73724,45.35742],[14.74036,45.35724],[14.74175,45.35627],[14.74437,45.3571],[14.74629,45.35687],[14.74858,45.35714],[14.74972,45.3585],[14.75159,45.35885],[14.75349,45.36097],[14.75377,45.3623],[14.75467,45.36287],[14.75632,45.36274],[14.75806,45.35969],[14.7605,45.35819],[14.76356,45.3614],[14.76468,45.36145],[14.76567,45.36203],[14.76611,45.36179],[14.76757,45.36309]]}},{"type":"Feature","properties":{"name":"TET_HR-03-Velebit loop_20250430","country":"HR","lengthKm":108.2},"geometry":{"type":"LineString","coordinates":[[15.89415,44.40199],[15.88972,44.40026],[15.88646,44.40022],[15.88405,44.39952],[15.8822,44.39949],[15.8803,44.40231],[15.87742,44.40337],[15.87165,44.40406],[15.86945,44.40389],[15.86176,44.40173],[15.85304,44.40006],[15.84948,44.39997],[15.84201,44.39879],[15.83857,44.39893],[15.83579,44.4001],[15.82791,44.40076],[15.82656,44.40181],[15.82495,44.40163],[15.82383,44.40107],[15.82479,44.39802],[15.83037,44.39021],[15.82995,44.38877],[15.83146,44.38475],[15.83125,44.38425],[15.83298,44.38098],[15.83312,44.3776],[15.83425,44.37559],[15.83341,44.37393],[15.83371,44.37329],[15.83237,44.37125],[15.83318,44.37008],[15.8328,44.36931],[15.83281,44.36409],[15.83576,44.35893],[15.8368,44.3554],[15.83788,44.35382],[15.83653,44.34682],[15.83751,44.34613],[15.83811,44.34623],[15.84044,44.34545],[15.84219,44.34294],[15.84363,44.34243],[15.8462,44.33895],[15.84743,44.33645],[15.85122,44.33239],[15.85201,44.33204],[15.85481,44.32798],[15.85629,44.32526],[15.85764,44.31955],[15.85909,44.31764],[15.85993,44.3182],[15.86075,44.3166],[15.86063,44.3114],[15.86132,44.30287],[15.86005,44.29967],[15.85768,44.29747],[15.85538,44.29638],[15.85179,44.29564],[15.84056,44.29519],[15.83666,44.29412],[15.83361,44.29252],[15.83012,44.28972],[15.82734,44.28596],[15.82507,44.28434],[15.82212,44.28138],[15.81721,44.27396],[15.81493,44.27244],[15.81141,44.26891],[15.81101,44.26704],[15.80665,44.26674],[15.80727,44.26775],[15.80711,44.26893],[15.80502,44.26984],[15.80505,44.27162],[15.80453,44.27238],[15.80292,44.27286],[15.80197,44.27409],[15.8014,44.27404],[15.79957,44.2766],[15.79736,44.27689],[15.7977,44.27759],[15.79661,44.27778],[15.79543,44.27909],[15.79426,44.2791],[15.79076,44.27786],[15.78979,44.27886],[15.78849,44.27924],[15.7902,44.27685],[15.78868,44.27767],[15.78322,44.27827],[15.77973,44.2794],[15.77836,44.27896],[15.77484,44.27978],[15.77358,44.27883],[15.77157,44.2783],[15.76981,44.27866],[15.76898,44.2776],[15.76796,44.27722],[15.76588,44.27868],[15.76424,44.27914],[15.75811,44.27776],[15.75697,44.2757],[15.75527,44.27518],[15.75312,44.27606],[15.75125,44.27605],[15.74909,44.27581],[15.74605,44.27455],[15.74216,44.27441],[15.74075,44.27458],[15.73993,44.27525],[15.73456,44.27617],[15.73366,44.27697],[15.73148,44.27784],[15.72774,44.27825],[15.72533,44.27802],[15.72318,44.27859],[15.72192,44.2784],[15.71897,44.27892],[15.71712,44.27984],[15.71623,44.2796],[15.71458,44.28197],[15.71292,44.28264],[15.70851,44.28217],[15.70894,44.28125],[15.70795,44.28007],[15.70432,44.28007],[15.70346,44.27965],[15.70279,44.28042],[15.70178,44.2808],[15.69984,44.28073],[15.69821,44.28115],[15.69488,44.28254],[15.69457,44.28312],[15.69266,44.28329],[15.68074,44.28776],[15.67675,44.28834],[15.67536,44.28919],[15.67449,44.29047],[15.67284,44.2912],[15.67224,44.29215],[15.67259,44.29321],[15.66898,44.29516],[15.6663,44.29754],[15.6626,44.29928],[15.66121,44.29957],[15.66046,44.29934],[15.65859,44.29989],[15.65679,44.30211],[15.65277,44.30393],[15.65154,44.30406],[15.64883,44.30369],[15.64781,44.30267],[15.6475,44.30148],[15.64936,44.30036],[15.65092,44.30039],[15.65249,44.29898],[15.65183,44.29812],[15.65064,44.29788],[15.65053,44.29719],[15.65179,44.29471],[15.65282,44.29431],[15.6512,44.29332],[15.65052,44.2933],[15.65247,44.29061],[15.65245,44.28997],[15.65157,44.28953],[15.65223,44.28827],[15.65196,44.28746],[15.65109,44.28726],[15.65083,44.28667],[15.64961,44.28616],[15.64844,44.28704],[15.64612,44.28726],[15.64407,44.28835],[15.64241,44.28772],[15.64024,44.28778],[15.63966,44.28663],[15.64016,44.28481],[15.64137,44.28306],[15.6412,44.27836],[15.64185,44.27615],[15.64347,44.27496],[15.64237,44.27385],[15.64237,44.2732],[15.64337,44.27204],[15.64334,44.27138],[15.64394,44.27184],[15.64318,44.27028],[15.63978,44.26831],[15.64191,44.2665],[15.64222,44.26461],[15.64599,44.26378],[15.64761,44.26384],[15.64699,44.2624],[15.64814,44.26152],[15.64692,44.26214],[15.64656,44.26195],[15.64992,44.26047],[15.6445,44.26215],[15.64241,44.26153],[15.6408,44.26014],[15.63896,44.2596],[15.63642,44.25817],[15.63457,44.25818],[15.63407,44.25693],[15.63273,44.25565],[15.63262,44.2549],[15.63309,44.25457],[15.63475,44.25471],[15.63686,44.25576],[15.63871,44.25574],[15.64036,44.2577],[15.64198,44.25795],[15.64079,44.25739],[15.63972,44.25531],[15.6375,44.25463],[15.63589,44.25339],[15.63293,44.25249],[15.63172,44.25108],[15.6325,44.25184],[15.63673,44.25264],[15.63873,44.25356],[15.6405,44.25363],[15.64285,44.25433],[15.6453,44.25412],[15.64643,44.25468],[15.64702,44.25549],[15.64981,44.25628],[15.65025,44.25532],[15.64742,44.25266],[15.6479,44.25161],[15.65194,44.25112],[15.65212,44.24886],[15.65398,44.24798],[15.65481,44.24671],[15.65833,44.24405],[15.66218,44.24269],[15.66499,44.24224],[15.66528,44.24275],[15.66736,44.23984],[15.67095,44.23805],[15.67237,44.23797],[15.67587,44.23642],[15.66683,44.23834],[15.67309,44.2354],[15.67649,44.23201],[15.67336,44.23171],[15.67094,44.23001],[15.67172,44.22893],[15.67323,44.2285],[15.67379,44.22736],[15.67487,44.22684],[15.67034,44.22657],[15.66912,44.22567],[15.66975,44.22439],[15.67153,44.22372],[15.67155,44.22116],[15.67116,44.22061],[15.66824,44.22003],[15.66741,44.21926],[15.6674,44.21576],[15.66891,44.20843],[15.66763,44.20638],[15.67265,44.20337],[15.6756,44.20265],[15.67788,44.20145],[15.68173,44.20247],[15.68415,44.20234],[15.68558,44.20111],[15.68607,44.19987],[15.68682,44.19953],[15.6901,44.20018],[15.69405,44.19983],[15.69732,44.20138],[15.69692,44.20472],[15.69358,44.20583],[15.6924,44.20719],[15.69163,44.20905],[15.69213,44.21039],[15.69339,44.21103],[15.69403,44.2119],[15.69105,44.21347],[15.69029,44.21451],[15.69062,44.21573],[15.69214,44.21722],[15.69643,44.21789],[15.69891,44.2169],[15.70035,44.21854],[15.70675,44.21977],[15.70823,44.22056],[15.71241,44.22127],[15.71624,44.22054],[15.72311,44.221],[15.72367,44.22144],[15.72513,44.22149],[15.72658,44.22206],[15.7278,44.22023],[15.72939,44.22014],[15.73272,44.22147],[15.73574,44.22041],[15.74434,44.2199],[15.7476,44.21846],[15.7483,44.21755],[15.75165,44.216],[15.75259,44.21428],[15.75662,44.2134],[15.75735,44.21162],[15.75696,44.21022],[15.75798,44.20765],[15.75926,44.20686],[15.76086,44.2047],[15.76386,44.20258],[15.76396,44.20103],[15.76617,44.20151],[15.76681,44.20134],[15.76675,44.20095],[15.76456,44.20017],[15.76429,44.19968],[15.7695,44.19755],[15.77067,44.1966],[15.77158,44.19801],[15.77313,44.1982],[15.77656,44.1998],[15.7807,44.20037],[15.78205,44.20094],[15.78214,44.20497],[15.78382,44.20869],[15.78694,44.21022],[15.78835,44.21013],[15.79074,44.21173],[15.79312,44.21255],[15.79711,44.213],[15.79744,44.21275],[15.79642,44.20899],[15.79378,44.20697],[15.79541,44.20668],[15.79814,44.20702],[15.80007,44.20884],[15.80092,44.20908],[15.8028,44.20741],[15.80563,44.20756],[15.80957,44.20553],[15.81036,44.20437],[15.80997,44.20029],[15.81123,44.19968],[15.81917,44.19954],[15.82285,44.20034],[15.82601,44.19991],[15.82721,44.20112],[15.82875,44.20706],[15.83012,44.20908],[15.83155,44.20757],[15.83738,44.20413],[15.84264,44.20261],[15.84575,44.2032],[15.8479,44.2046],[15.8518,44.20341],[15.85479,44.2033],[15.85598,44.2044],[15.85654,44.20435],[15.85989,44.20212],[15.86143,44.20213],[15.8654,44.20025],[15.86726,44.20006],[15.87167,44.19852],[15.87406,44.19872],[15.87448,44.19812],[15.87367,44.19701],[15.87515,44.1955],[15.87613,44.19523],[15.87802,44.19598],[15.87625,44.19462],[15.877,44.19465],[15.87917,44.19575],[15.8764,44.19394],[15.87675,44.1938],[15.88104,44.19504],[15.88376,44.19519],[15.88502,44.19502],[15.88714,44.19387],[15.88803,44.19281],[15.88681,44.1924],[15.8872,44.19175],[15.88654,44.19025],[15.88675,44.1896],[15.88727,44.18973],[15.8874,44.18945],[15.88689,44.18864],[15.88897,44.18918],[15.88784,44.18501],[15.8896,44.1838],[15.89159,44.18482],[15.89778,44.1842],[15.89865,44.18515],[15.90533,44.18756],[15.90697,44.18928],[15.90677,44.18984],[15.90822,44.19177],[15.90928,44.1923],[15.90912,44.19308],[15.90869,44.19298],[15.9074,44.19481],[15.91025,44.19964],[15.91267,44.20203],[15.91363,44.20498],[15.91432,44.20555],[15.91385,44.20649],[15.91508,44.20868],[15.91574,44.20797],[15.91648,44.20836],[15.91662,44.20762],[15.91719,44.20729],[15.91744,44.20849],[15.91587,44.21046],[15.91648,44.21291],[15.91584,44.21335],[15.91747,44.21306],[15.91908,44.2133],[15.91967,44.21281],[15.91983,44.21421],[15.92082,44.21418],[15.92027,44.21484],[15.92129,44.21484],[15.92211,44.21441],[15.92181,44.21603],[15.92084,44.21644],[15.921,44.21666],[15.9224,44.21639],[15.92354,44.21565],[15.92356,44.21635],[15.92431,44.21578],[15.92667,44.21593],[15.92732,44.21612],[15.92726,44.21663],[15.92948,44.21737],[15.92882,44.21816],[15.9296,44.21912],[15.92842,44.22091],[15.92973,44.22157],[15.92888,44.22214],[15.93151,44.224],[15.93434,44.22439],[15.93465,44.225],[15.93545,44.22533],[15.93553,44.22695],[15.93368,44.22614],[15.93155,44.22695],[15.93323,44.22816],[15.93347,44.23114],[15.93302,44.2333],[15.93412,44.23409],[15.93469,44.23554],[15.93593,44.23579],[15.93599,44.23645],[15.93468,44.23882],[15.93459,44.2402],[15.93321,44.24246],[15.93391,44.24598],[15.93333,44.24679],[15.9335,44.24819],[15.93263,44.25061],[15.9332,44.25258],[15.93295,44.25645]]}}]}