{"type":"FeatureCollection","features":[{"type":"Feature","properties":{"name":"TET_LT-01_20260714","country":"LT","lengthKm":242.5},"geometry":{"type":"LineString","coordinates":[[23.55933,56.33567],[23.56285,56.33153],[23.5535,56.32305],[23.55212,56.31961],[23.55302,56.30966],[23.54983,56.30975],[23.54678,56.30928],[23.54492,56.30828],[23.54072,56.30709],[23.53683,56.30505],[23.53583,56.30393],[23.53024,56.30315],[23.52764,56.30193],[23.52284,56.30139],[23.5195,56.29984],[23.51757,56.29946],[23.51048,56.28946],[23.50076,56.28417],[23.49403,56.2812],[23.47486,56.26994],[23.46942,56.27116],[23.46096,56.27633],[23.45962,56.2766],[23.45881,56.27636],[23.44073,56.26667],[23.42508,56.25646],[23.41049,56.24509],[23.40365,56.24285],[23.38423,56.23194],[23.3776,56.23042],[23.36677,56.22911],[23.34921,56.21942],[23.34663,56.21713],[23.34584,56.21515],[23.34289,56.21223],[23.33965,56.21048],[23.33769,56.20623],[23.33759,56.19286],[23.30928,56.20707],[23.30691,56.20957],[23.29927,56.21377],[23.29776,56.21553],[23.28681,56.22128],[23.27316,56.22291],[23.26523,56.22452],[23.2523,56.23022],[23.22512,56.23981],[23.22373,56.2404],[23.2214,56.24241],[23.20512,56.24983],[23.19551,56.25314],[23.18041,56.26165],[23.17487,56.26726],[23.16416,56.27349],[23.15386,56.2819],[23.14952,56.28873],[23.14307,56.293],[23.14166,56.29265],[23.12937,56.2865],[23.1226,56.28661],[23.12147,56.28719],[23.12238,56.29068],[23.11947,56.29376],[23.11378,56.29762],[23.10978,56.2993],[23.1019,56.29507],[23.09574,56.29278],[23.09034,56.29143],[23.0704,56.2881],[23.06416,56.28801],[23.03844,56.2902],[23.03116,56.29048],[22.99166,56.28849],[22.98417,56.28601],[22.97378,56.28009],[22.96845,56.28],[22.96734,56.28176],[22.96098,56.28043],[22.95259,56.28088],[22.94939,56.28042],[22.94424,56.27775],[22.93982,56.27623],[22.93385,56.27219],[22.93574,56.26704],[22.94843,56.26418],[22.95041,56.26267],[22.95246,56.25865],[22.95223,56.25837],[22.93596,56.25741],[22.9318,56.25593],[22.91841,56.25506],[22.92015,56.24962],[22.91939,56.2489],[22.9212,56.24453],[22.92101,56.24281],[22.91789,56.24091],[22.90283,56.23443],[22.90613,56.23019],[22.90574,56.22831],[22.90012,56.2182],[22.90058,56.21751],[22.90248,56.21674],[22.91542,56.21976],[22.92878,56.22154],[22.93343,56.22318],[22.9396,56.21352],[22.94277,56.21163],[22.93712,56.19669],[22.94578,56.19614],[22.94952,56.19704],[22.98028,56.20019],[22.97981,56.18288],[22.97007,56.17565],[22.95971,56.16713],[22.944,56.1713],[22.93671,56.17211],[22.93462,56.172],[22.92413,56.16918],[22.918,56.1672],[22.91639,56.16591],[22.90309,56.16206],[22.90134,56.16163],[22.89797,56.16175],[22.8896,56.16087],[22.88784,56.15951],[22.88197,56.15797],[22.88062,56.15795],[22.87524,56.15915],[22.86911,56.15887],[22.86542,56.15912],[22.86253,56.15875],[22.85491,56.15875],[22.84909,56.15822],[22.8327,56.15761],[22.82797,56.15728],[22.81921,56.15457],[22.81121,56.1527],[22.80115,56.1517],[22.79475,56.15369],[22.79314,56.1547],[22.78926,56.15259],[22.82051,56.14528],[22.82617,56.14026],[22.84137,56.13462],[22.84714,56.13204],[22.85945,56.12784],[22.86498,56.12405],[22.86797,56.12141],[22.8729,56.12249],[22.87618,56.12448],[22.87764,56.12486],[22.88958,56.12522],[22.8915,56.12496],[22.8961,56.11101],[22.91917,56.11349],[22.9214,56.11515],[22.92383,56.11519],[22.92677,56.11461],[22.93137,56.11591],[22.93417,56.11337],[22.93856,56.11495],[22.94249,56.11862],[22.95399,56.11918],[22.95723,56.10581],[22.96788,56.10622],[22.96826,56.10559],[22.96534,56.10216],[22.97042,56.10116],[22.98406,56.1017],[22.99058,56.10417],[22.99621,56.10785],[23.00352,56.1108],[23.00468,56.11164],[23.01825,56.11651],[23.02135,56.11677],[23.02201,56.11538],[23.02569,56.11301],[23.01666,56.10476],[23.02508,56.10257],[23.02554,56.10197],[23.02524,56.10052],[23.02766,56.09817],[23.02933,56.09321],[23.03791,56.09033],[23.04843,56.0861],[23.0493,56.08553],[23.05015,56.08345],[23.04346,56.08158],[23.03359,56.07713],[23.02985,56.06985],[23.02911,56.06648],[23.02856,56.06567],[23.02443,56.06334],[23.03276,56.06267],[23.04351,56.0675],[23.04442,56.06743],[23.07162,56.05621],[23.0617,56.04857],[23.06685,56.04621],[23.06937,56.04357],[23.07998,56.04683],[23.10157,56.05544],[23.10578,56.05565],[23.10957,56.05674],[23.11288,56.05692],[23.12995,56.06121],[23.14383,56.0691],[23.16022,56.07616],[23.17007,56.08223],[23.18222,56.09466],[23.20413,56.09327],[23.20611,56.09349],[23.20917,56.09529],[23.21014,56.09523],[23.21311,56.09458],[23.22154,56.09402],[23.23007,56.09045],[23.23267,56.09099],[23.23854,56.08785],[23.23953,56.08815],[23.23906,56.08859],[23.23987,56.08949],[23.23791,56.09043],[23.23642,56.08987],[23.23547,56.08834],[23.22054,56.07636],[23.22169,56.07278],[23.21931,56.06661],[23.22506,56.06099],[23.23418,56.05722],[23.23984,56.05131],[23.24485,56.04934],[23.24249,56.04714],[23.24329,56.04097],[23.23562,56.03441],[23.23392,56.03197],[23.22902,56.02834],[23.22877,56.02748],[23.21943,56.02214],[23.20766,56.01394],[23.20184,56.01199],[23.19638,56.00717],[23.18779,56.01054],[23.18571,56.01172],[23.17987,56.02038],[23.1767,56.01978],[23.17462,56.02107],[23.16558,56.01736],[23.16217,56.01444],[23.16049,56.00932],[23.15609,56.00587],[23.15575,56.00502],[23.15738,55.99958],[23.15701,55.99859],[23.15127,55.99412],[23.14764,55.98915],[23.14337,55.98721],[23.1403,55.98417],[23.13799,55.98006],[23.13474,55.97801],[23.13364,55.9765],[23.14693,55.97418],[23.154,55.97228],[23.14787,55.96754],[23.1376,55.96109],[23.14001,55.95962],[23.14015,55.95905],[23.13238,55.95278],[23.14274,55.94822],[23.12846,55.93711],[23.12086,55.93224],[23.0948,55.94418],[23.08882,55.9396],[23.07898,55.93796],[23.07352,55.93525],[23.07391,55.9351],[23.07071,55.93362],[23.05933,55.92661],[23.05715,55.92325],[23.05105,55.92548],[23.04503,55.92948],[23.0352,55.93374],[23.02558,55.93637],[23.01953,55.93019],[23.014,55.92305],[23.01059,55.92015],[23.00689,55.91539],[22.99752,55.91934],[22.9938,55.91859],[22.98312,55.90231],[22.98426,55.89848],[22.98304,55.897],[22.98122,55.89649],[22.98179,55.89248],[22.9807,55.89049],[22.97961,55.88944],[22.96855,55.88346],[22.97026,55.88131],[22.97034,55.8798],[22.97612,55.87764],[22.9809,55.87803],[22.98924,55.87655],[22.99721,55.87477],[22.99945,55.87312],[23.00457,55.87177],[23.01146,55.87252],[23.01484,55.87039],[23.01845,55.86979],[23.01959,55.86888],[23.02208,55.86849],[23.02384,55.86658],[23.02699,55.86492],[23.02996,55.85985],[23.03319,55.85941],[23.04218,55.85718],[23.04569,55.85479],[23.05408,55.85147],[23.05619,55.84948],[23.05857,55.84924],[23.05613,55.84609],[23.05646,55.84254],[23.05358,55.83794],[23.05181,55.83096],[23.04873,55.82823],[23.04634,55.82728],[23.0489,55.82593],[23.04863,55.82529],[23.04565,55.82476],[23.03506,55.82038],[23.03394,55.82084],[23.0295,55.82112],[23.02862,55.82014],[23.02621,55.81987],[23.02611,55.81908],[23.024,55.81903],[23.02177,55.81841],[23.01974,55.81497],[23.01541,55.81297],[23.01769,55.812],[23.01869,55.8111],[23.01897,55.80835],[23.0203,55.80768],[23.02185,55.80749],[23.02147,55.80504],[23.02216,55.80422],[23.02579,55.80161],[23.02759,55.801],[23.02777,55.79976],[23.0308,55.79949],[23.03241,55.79889],[23.03864,55.79506],[23.04128,55.79256],[23.04164,55.79101],[23.0445,55.78723],[23.04472,55.78617],[23.04648,55.7868],[23.04853,55.78639],[23.04791,55.78558],[23.04623,55.78483],[23.0461,55.78425],[23.04604,55.78326],[23.0474,55.7823],[23.04757,55.78137],[23.04097,55.7767],[23.04076,55.77583],[23.04144,55.77509],[23.03815,55.77179],[23.03823,55.76776],[23.03914,55.76606],[23.0411,55.76664],[23.04234,55.76758],[23.04599,55.76791],[23.04802,55.76882],[23.05479,55.76794],[23.05559,55.76885],[23.05988,55.76761],[23.06615,55.76421],[23.07096,55.76355],[23.07284,55.76406],[23.07461,55.76512],[23.07761,55.76463],[23.07937,55.76479],[23.08158,55.76406],[23.08234,55.76254],[23.08454,55.7621],[23.08595,55.76128],[23.09408,55.76103],[23.09694,55.76023],[23.0988,55.76073],[23.09915,55.75932],[23.09651,55.75675],[23.0944,55.75117],[23.08723,55.74291],[23.0855,55.74015],[23.08058,55.73549],[23.07811,55.73378],[23.07609,55.73273],[23.07467,55.7329],[23.07503,55.72691],[23.0745,55.7259],[23.07677,55.7253],[23.07765,55.72305],[23.08483,55.71705],[23.08538,55.71526],[23.09152,55.71666],[23.09623,55.71513],[23.10288,55.71435],[23.10603,55.71337],[23.10764,55.71164],[23.11041,55.71157],[23.11142,55.71122],[23.1158,55.70492],[23.11729,55.70374],[23.12255,55.70231],[23.14235,55.7044],[23.14751,55.70311],[23.15682,55.70376],[23.16529,55.70362],[23.17259,55.70247],[23.17016,55.70013],[23.16576,55.69286],[23.17,55.69153],[23.17252,55.69152],[23.17466,55.69064],[23.17603,55.68877],[23.17841,55.6878],[23.18329,55.68139],[23.18321,55.68055],[23.18833,55.67948],[23.19133,55.6793],[23.18789,55.67122],[23.19265,55.67049],[23.19071,55.66568],[23.19198,55.66564],[23.19565,55.66444],[23.19966,55.66269],[23.20439,55.66297],[23.20797,55.66468],[23.22669,55.66891],[23.22878,55.66853],[23.22936,55.66957],[23.22546,55.67302],[23.2257,55.67511],[23.24115,55.68346],[23.24189,55.68504],[23.24549,55.68719],[23.24709,55.68624],[23.25178,55.67249],[23.25472,55.67298],[23.26086,55.67488],[23.26983,55.66418],[23.26863,55.66173],[23.27209,55.6569],[23.29307,55.66316],[23.29989,55.66191],[23.30362,55.65998],[23.31433,55.65866],[23.32057,55.65853],[23.32823,55.65944],[23.33867,55.65096],[23.34436,55.643],[23.34192,55.64141],[23.34513,55.63814],[23.34571,55.63494],[23.34529,55.63143],[23.34587,55.63059],[23.34896,55.63051],[23.35012,55.62999],[23.35392,55.63081],[23.35767,55.62919],[23.36158,55.62846],[23.36301,55.62853],[23.3679,55.63001],[23.37201,55.6324],[23.37385,55.63248],[23.37784,55.63426],[23.38221,55.63498],[23.38499,55.63641],[23.387,55.63667],[23.38962,55.6387]]}},{"type":"Feature","properties":{"name":"TET_LT-02_20260714","country":"LT","lengthKm":144.3},"geometry":{"type":"LineString","coordinates":[[23.38962,55.6387],[23.38899,55.63549],[23.38739,55.63406],[23.38629,55.63057],[23.38151,55.62609],[23.3754,55.61065],[23.37408,55.60877],[23.36842,55.60448],[23.36753,55.59877],[23.36849,55.59753],[23.36864,55.59292],[23.36768,55.59191],[23.36748,55.5906],[23.36609,55.58919],[23.36474,55.58504],[23.35925,55.58668],[23.35681,55.5887],[23.34893,55.59187],[23.33836,55.59343],[23.33288,55.5947],[23.32836,55.59343],[23.32228,55.5877],[23.32111,55.58358],[23.31283,55.57966],[23.31216,55.57864],[23.314,55.57654],[23.31306,55.57564],[23.30717,55.5756],[23.29716,55.57306],[23.29354,55.56978],[23.2877,55.56867],[23.27525,55.5626],[23.26114,55.56024],[23.25889,55.55938],[23.25512,55.55976],[23.25075,55.55908],[23.24986,55.55817],[23.24569,55.55689],[23.23947,55.5552],[23.2346,55.55449],[23.22879,55.55283],[23.22648,55.55112],[23.22686,55.54841],[23.22065,55.54709],[23.22036,55.53993],[23.21665,55.53951],[23.2141,55.53982],[23.21515,55.53805],[23.21422,55.53685],[23.20834,55.53686],[23.20337,55.53532],[23.19581,55.53472],[23.19329,55.53324],[23.18972,55.53321],[23.18724,55.53204],[23.18308,55.53158],[23.17904,55.53273],[23.17384,55.53335],[23.1706,55.5335],[23.16762,55.5329],[23.16534,55.53401],[23.15629,55.53453],[23.15969,55.52999],[23.15833,55.52737],[23.15594,55.52584],[23.15431,55.52325],[23.15178,55.52192],[23.15026,55.51951],[23.14645,55.51925],[23.1427,55.5178],[23.13742,55.51753],[23.13305,55.51632],[23.12974,55.51622],[23.12296,55.51694],[23.12062,55.51609],[23.11786,55.51625],[23.11639,55.51572],[23.11514,55.51347],[23.11359,55.51256],[23.11147,55.51349],[23.11021,55.5151],[23.10326,55.51477],[23.10081,55.51402],[23.09645,55.51152],[23.09231,55.50528],[23.08728,55.50461],[23.08617,55.50196],[23.08377,55.50069],[23.08348,55.49392],[23.08619,55.49047],[23.09283,55.48403],[23.09622,55.48123],[23.10035,55.47863],[23.1041,55.47775],[23.10743,55.47881],[23.1152,55.47365],[23.12158,55.47516],[23.12252,55.47378],[23.12937,55.46947],[23.13441,55.46668],[23.1408,55.4643],[23.1436,55.46143],[23.14801,55.45931],[23.14387,55.45138],[23.14347,55.44921],[23.14544,55.44906],[23.14787,55.44777],[23.15166,55.44886],[23.16128,55.44802],[23.16583,55.44826],[23.16968,55.44802],[23.17784,55.44686],[23.18934,55.44436],[23.19197,55.44229],[23.19302,55.43027],[23.19817,55.41876],[23.19795,55.41818],[23.19581,55.41686],[23.20036,55.41761],[23.21686,55.41865],[23.22556,55.42124],[23.24492,55.42357],[23.25236,55.42604],[23.25517,55.4227],[23.25937,55.42095],[23.26232,55.41758],[23.28277,55.40614],[23.30072,55.39314],[23.30456,55.39105],[23.30885,55.38973],[23.30702,55.38805],[23.30783,55.38487],[23.30953,55.38425],[23.31808,55.38312],[23.32255,55.38096],[23.33211,55.37824],[23.33338,55.37651],[23.32892,55.3725],[23.33969,55.36694],[23.3444,55.37195],[23.35245,55.37719],[23.3573,55.37498],[23.36751,55.36837],[23.36945,55.36541],[23.37586,55.37014],[23.38442,55.36764],[23.385,55.3674],[23.38405,55.36669],[23.38681,55.36587],[23.38684,55.36521],[23.38814,55.36461],[23.38981,55.36012],[23.3904,55.35385],[23.39381,55.34988],[23.39801,55.35105],[23.40053,55.35064],[23.40381,55.35121],[23.41199,55.35658],[23.41472,55.35977],[23.4269,55.35896],[23.42779,55.35856],[23.4282,55.35612],[23.43126,55.35154],[23.43753,55.34759],[23.44083,55.34461],[23.4403,55.34165],[23.44947,55.33912],[23.45381,55.34346],[23.45773,55.34843],[23.46648,55.35449],[23.47423,55.35699],[23.47831,55.35495],[23.48109,55.35271],[23.49538,55.35326],[23.50209,55.35309],[23.50813,55.35457],[23.51268,55.35474],[23.54168,55.35027],[23.54301,55.35032],[23.54608,55.3484],[23.54903,55.34909],[23.55399,55.34692],[23.55794,55.34625],[23.56431,55.34583],[23.56747,55.34452],[23.57338,55.33952],[23.58386,55.33466],[23.5856,55.33258],[23.58707,55.33222],[23.59268,55.33542],[23.59834,55.33631],[23.60538,55.33851],[23.61627,55.34232],[23.62147,55.34491],[23.6399,55.34697],[23.64739,55.34721],[23.64768,55.3449],[23.641,55.32795],[23.64188,55.30959],[23.64488,55.30867],[23.65192,55.30302],[23.65965,55.30716],[23.66427,55.3072],[23.66888,55.30411],[23.68,55.30284],[23.69231,55.29629],[23.69921,55.28383],[23.70514,55.28448],[23.7149,55.28702],[23.72323,55.28585],[23.76316,55.2751],[23.78973,55.26385],[23.7988,55.26056],[23.80976,55.26133],[23.81175,55.26117],[23.81268,55.25997],[23.81464,55.25946],[23.817,55.25745],[23.82474,55.25312],[23.83563,55.24455],[23.8366,55.24497],[23.83826,55.2444],[23.84244,55.24183],[23.85362,55.23076],[23.8559,55.23028],[23.85992,55.22761],[23.86793,55.22116],[23.87101,55.21543],[23.87388,55.21296],[23.86743,55.2065],[23.85776,55.2021],[23.84583,55.18876],[23.84048,55.18709],[23.83514,55.18169],[23.83378,55.18104],[23.82781,55.179],[23.82605,55.17989],[23.82508,55.17949],[23.82493,55.17722],[23.81087,55.1691],[23.80146,55.15753],[23.79957,55.15167],[23.78178,55.15535],[23.77273,55.15346],[23.77363,55.15053],[23.77864,55.14662],[23.77022,55.14595],[23.78149,55.13802],[23.77595,55.13648],[23.77641,55.1351],[23.78055,55.13426],[23.78447,55.13399],[23.78375,55.13146],[23.78105,55.13071],[23.77937,55.13064],[23.76633,55.13281],[23.76197,55.13262],[23.74374,55.12001],[23.74297,55.11795],[23.74149,55.11835],[23.74,55.11682],[23.731,55.11345],[23.72925,55.11157],[23.7294,55.10858],[23.72751,55.10802],[23.72653,55.10722],[23.7262,55.10616],[23.72729,55.10441],[23.72475,55.10204],[23.72741,55.10036],[23.72729,55.099],[23.72609,55.0978],[23.72711,55.09439],[23.72988,55.09167],[23.73211,55.09075],[23.73336,55.08845],[23.75012,55.08726],[23.75236,55.08613],[23.7681,55.08444],[23.77117,55.07453],[23.77279,55.07334],[23.77277,55.06827],[23.76528,55.06831],[23.75978,55.06874],[23.73968,55.06713],[23.72731,55.06607],[23.71798,55.06369],[23.71113,55.06301],[23.70923,55.06242],[23.70564,55.05968],[23.69958,55.05739],[23.69867,55.05645],[23.6985,55.05412],[23.69764,55.05326],[23.69541,55.05226],[23.6898,55.05066]]}},{"type":"Feature","properties":{"name":"TET_LT-03_20260714-Avoids_river_crossings","country":"LT","lengthKm":11.1},"geometry":{"type":"LineString","coordinates":[[23.79874,55.26049],[23.81748,55.24782],[23.82978,55.24011],[23.83091,55.22667],[23.83302,55.22238],[23.83295,55.21973],[23.8337,55.21761],[23.83733,55.21325],[23.82805,55.20959],[23.82695,55.20417],[23.82517,55.19925],[23.82233,55.19447],[23.81662,55.19093],[23.81677,55.1896],[23.81586,55.1886],[23.81477,55.18554],[23.81159,55.1817],[23.81439,55.18083],[23.81609,55.17935],[23.82015,55.17729],[23.82212,55.17547]]}},{"type":"Feature","properties":{"name":"TET_LT-04_20250714-Challenging_when_wet","country":"LT","lengthKm":4.6},"geometry":{"type":"LineString","coordinates":[[23.5856,55.33252],[23.5853,55.32985],[23.58842,55.32664],[23.59682,55.32484],[23.60308,55.32253],[23.60443,55.32261],[23.60727,55.32108],[23.6419,55.30961]]}},{"type":"Feature","properties":{"name":"TET_LT-05_20260714_Summer 1st May-31st Oct) Ferry","country":"LT","lengthKm":37.2},"geometry":{"type":"LineString","coordinates":[[23.68956,55.0506],[23.67467,55.04673],[23.66233,55.04022],[23.66036,55.03959],[23.65092,55.03998],[23.64261,55.04091],[23.63476,55.04074],[23.61919,55.04108],[23.61678,55.04078],[23.60976,55.03875],[23.59971,55.04031],[23.59404,55.03675],[23.58898,55.03604],[23.58698,55.03504],[23.57941,55.03783],[23.57714,55.03966],[23.56332,55.0307],[23.56472,55.02924],[23.55686,55.02216],[23.55701,55.02135],[23.55529,55.01934],[23.5532,55.01794],[23.55076,55.01846],[23.53922,55.0046],[23.53683,55.00287],[23.54071,55.00174],[23.53962,54.99986],[23.54285,54.99785],[23.54297,54.99649],[23.54214,54.99602],[23.54066,54.99602],[23.53558,54.98455],[23.53481,54.98426],[23.53094,54.98431],[23.52741,54.98294],[23.52745,54.98048],[23.52833,54.97877],[23.5324,54.97589],[23.54371,54.97442],[23.54613,54.97376],[23.55068,54.96976],[23.55293,54.96845],[23.55237,54.96805],[23.5464,54.96754],[23.53504,54.96446],[23.52871,54.96195],[23.52312,54.96182],[23.51969,54.96126],[23.51599,54.95938],[23.51719,54.95653],[23.52137,54.95079],[23.53331,54.95257],[23.5357,54.95359],[23.54038,54.95126],[23.54826,54.94644],[23.55172,54.9453],[23.55593,54.94485],[23.55187,54.94242],[23.54433,54.94238],[23.52685,54.94316],[23.5106,54.93859],[23.51179,54.93715],[23.51158,54.93627],[23.51894,54.93215],[23.53011,54.93045],[23.53381,54.92913],[23.57427,54.93174],[23.5832,54.93341],[23.58403,54.93238],[23.58691,54.93049],[23.58795,54.92817],[23.58841,54.92128],[23.58805,54.92058],[23.57964,54.91715],[23.58073,54.91647],[23.58656,54.9158],[23.59183,54.91392],[23.59171,54.91316],[23.59297,54.91181],[23.59222,54.90936]]}},{"type":"Feature","properties":{"name":"TET_LT-06_20260714_Winter 1st November-30th April","country":"LT","lengthKm":44.5},"geometry":{"type":"LineString","coordinates":[[23.6898,55.05066],[23.69318,55.04823],[23.70878,55.04401],[23.71096,55.04106],[23.71818,55.03348],[23.7219,55.02248],[23.72294,55.01655],[23.72864,55.00997],[23.72783,54.99828],[23.73606,54.98981],[23.73547,54.98456],[23.7368,54.97761],[23.73863,54.97495],[23.74578,54.97412],[23.74757,54.97345],[23.75068,54.96914],[23.75071,54.96741],[23.75263,54.96573],[23.75463,54.95908],[23.75849,54.9572],[23.76017,54.95716],[23.76211,54.95058],[23.76194,54.94478],[23.76635,54.94375],[23.77965,54.93728],[23.78385,54.93759],[23.78491,54.93424],[23.78676,54.93145],[23.78804,54.9304],[23.79246,54.92854],[23.7935,54.92385],[23.79586,54.92233],[23.80268,54.92079],[23.81094,54.92083],[23.826,54.92026],[23.82796,54.91974],[23.83525,54.91634],[23.83544,54.91592],[23.83324,54.91255],[23.83387,54.91098],[23.83385,54.9045],[23.83297,54.90096],[23.83012,54.89664],[23.82853,54.89566],[23.8172,54.89381],[23.80645,54.89057],[23.78467,54.88291],[23.76375,54.88355],[23.76248,54.87684],[23.7642,54.86773],[23.74302,54.87192],[23.72705,54.87216],[23.70308,54.87873],[23.69875,54.88074],[23.69382,54.88083],[23.67635,54.88332],[23.6709,54.88645],[23.66871,54.88716],[23.66301,54.88791],[23.65959,54.89388],[23.65953,54.90124],[23.65558,54.90289],[23.64543,54.90078],[23.6396,54.90012],[23.63876,54.89984],[23.63824,54.89905],[23.63505,54.89898],[23.63378,54.89853],[23.6332,54.89868],[23.63206,54.90108],[23.63264,54.90269],[23.62874,54.90443],[23.62612,54.9019],[23.62076,54.89881],[23.61428,54.89731],[23.60797,54.89754],[23.60516,54.89849],[23.60481,54.89982],[23.60593,54.90108],[23.6037,54.90452],[23.60303,54.90709],[23.60121,54.90793],[23.59361,54.90823],[23.59258,54.9086],[23.59215,54.90926],[23.59258,54.9086],[23.59361,54.90823],[23.60121,54.90793],[23.60303,54.90709]]}},{"type":"Feature","properties":{"name":"TET_LT-07_20260714","country":"LT","lengthKm":252.2},"geometry":{"type":"LineString","coordinates":[[23.59229,54.90948],[23.59119,54.90821],[23.58936,54.90728],[23.58346,54.90612],[23.57391,54.90348],[23.56988,54.90143],[23.56631,54.89872],[23.56214,54.89668],[23.56395,54.89594],[23.5717,54.89424],[23.57262,54.89149],[23.56589,54.88677],[23.56277,54.88233],[23.56095,54.88124],[23.55746,54.87657],[23.55591,54.87561],[23.55269,54.87521],[23.54356,54.87213],[23.53595,54.87057],[23.52716,54.86652],[23.52958,54.86498],[23.53242,54.86432],[23.53321,54.86149],[23.5359,54.86058],[23.53773,54.8594],[23.537,54.85732],[23.53363,54.85565],[23.53345,54.85486],[23.52924,54.8529],[23.52916,54.85152],[23.53357,54.84952],[23.53825,54.8483],[23.53986,54.84723],[23.53645,54.84557],[23.53422,54.84519],[23.52861,54.84445],[23.52175,54.84471],[23.51975,54.84424],[23.52623,54.84185],[23.53277,54.83999],[23.54157,54.83635],[23.54917,54.83388],[23.55445,54.83333],[23.5573,54.83346],[23.55967,54.82712],[23.5637,54.82449],[23.56489,54.82244],[23.56933,54.81842],[23.57486,54.81529],[23.57835,54.81429],[23.58379,54.81429],[23.58816,54.81667],[23.59035,54.81709],[23.59666,54.81387],[23.60701,54.82311],[23.61593,54.82179],[23.62095,54.82228],[23.62651,54.82188],[23.63612,54.82053],[23.6416,54.81851],[23.64308,54.81747],[23.64587,54.81353],[23.64557,54.81187],[23.6428,54.80971],[23.64179,54.80801],[23.64351,54.80667],[23.64407,54.80541],[23.6462,54.80578],[23.65131,54.80789],[23.65247,54.80778],[23.65426,54.80653],[23.6555,54.80636],[23.66196,54.80807],[23.66261,54.81166],[23.6643,54.81226],[23.66502,54.81526],[23.66438,54.81584],[23.67245,54.82297],[23.67841,54.81952],[23.6893,54.82052],[23.69211,54.82218],[23.69779,54.82248],[23.70997,54.82607],[23.71081,54.82885],[23.71549,54.82939],[23.71859,54.82916],[23.7264,54.82494],[23.72514,54.82055],[23.72359,54.81817],[23.72509,54.81435],[23.72663,54.81295],[23.74557,54.82131],[23.74871,54.82051],[23.75051,54.81718],[23.74841,54.81487],[23.74797,54.81136],[23.74898,54.81089],[23.75521,54.81016],[23.75773,54.81029],[23.76155,54.81172],[23.76715,54.81139],[23.77037,54.80936],[23.77263,54.80851],[23.77513,54.80664],[23.7771,54.80588],[23.77791,54.79777],[23.78843,54.79777],[23.79526,54.79282],[23.79766,54.79228],[23.80018,54.79114],[23.7905,54.78777],[23.78857,54.78783],[23.78917,54.78724],[23.78293,54.78391],[23.77889,54.78072],[23.77789,54.7808],[23.77716,54.78177],[23.77204,54.78139],[23.75232,54.7748],[23.7491,54.7652],[23.7505,54.75666],[23.74984,54.7532],[23.78089,54.75528],[23.79942,54.75209],[23.80072,54.75262],[23.8016,54.75419],[23.80742,54.75339],[23.8113,54.75624],[23.81546,54.75713],[23.87903,54.76503],[23.88041,54.75335],[23.88791,54.75575],[23.91072,54.75778],[23.91367,54.75875],[23.91811,54.75196],[23.92375,54.74643],[23.92968,54.74121],[23.93494,54.73913],[23.93659,54.74073],[23.9383,54.73994],[23.93786,54.7391],[23.9459,54.73944],[23.95002,54.73916],[23.95559,54.73971],[23.96604,54.74125],[23.98417,54.7448],[23.98568,54.74372],[23.98818,54.7438],[23.98815,54.74109],[23.99273,54.73422],[24.00246,54.7278],[24.00834,54.71822],[24.01074,54.71231],[24.01179,54.71211],[24.01747,54.71375],[24.01915,54.71357],[24.02021,54.71299],[24.03588,54.71842],[24.04555,54.70766],[24.05076,54.7051],[24.05825,54.70301],[24.06105,54.70268],[24.0621,54.70299],[24.06532,54.70135],[24.06661,54.70013],[24.06488,54.69848],[24.06688,54.69772],[24.07247,54.69696],[24.0775,54.69117],[24.08325,54.6858],[24.08969,54.68101],[24.08927,54.68124],[24.09429,54.67915],[24.09473,54.67813],[24.09756,54.67808],[24.09891,54.67846],[24.10413,54.67774],[24.11846,54.67407],[24.11947,54.6731],[24.12042,54.67295],[24.12169,54.67132],[24.1207,54.67008],[24.12042,54.66779],[24.11868,54.66621],[24.1288,54.66226],[24.12747,54.66112],[24.12136,54.66006],[24.11988,54.65922],[24.11264,54.65751],[24.10493,54.65896],[24.09862,54.65843],[24.09517,54.65897],[24.08712,54.65672],[24.08462,54.65646],[24.07862,54.65421],[24.07651,54.65211],[24.07545,54.64976],[24.07159,54.6477],[24.0677,54.6447],[24.06194,54.64405],[24.06346,54.64192],[24.06317,54.64161],[24.05179,54.63861],[24.03348,54.63736],[24.0261,54.63558],[24.02885,54.63247],[24.02735,54.63163],[24.02798,54.63045],[24.0346,54.62486],[24.03642,54.62274],[24.02834,54.62051],[24.02697,54.61943],[24.02476,54.61866],[24.02304,54.61862],[24.02132,54.61927],[24.01718,54.62211],[24.00925,54.63065],[24.00569,54.63807],[24.00281,54.64171],[23.99409,54.64702],[23.98714,54.64958],[23.97576,54.65007],[23.96695,54.64795],[23.95339,54.64031],[23.9508,54.63963],[23.95144,54.63669],[23.94629,54.63515],[23.9486,54.63178],[23.95536,54.63042],[23.95829,54.62939],[23.97671,54.61865],[23.98261,54.61579],[24.01274,54.60706],[24.01761,54.60481],[24.02131,54.60209],[24.02944,54.59357],[24.0271,54.58979],[24.02454,54.58852],[24.02379,54.58771],[24.0227,54.58433],[24.02095,54.58173],[24.02174,54.58012],[24.01981,54.57707],[24.0204,54.57365],[24.02023,54.57298],[24.01902,54.57226],[24.01977,54.57061],[24.0194,54.56922],[24.0172,54.56696],[24.01212,54.56425],[24.02562,54.5544],[24.02912,54.55753],[24.03357,54.55936],[24.03944,54.56042],[24.04577,54.56084],[24.05569,54.56074],[24.07515,54.55943],[24.0862,54.55623],[24.10194,54.5544],[24.11066,54.55431],[24.11552,54.5537],[24.11956,54.55472],[24.12661,54.5537],[24.13055,54.5336],[24.12104,54.52509],[24.11853,54.52397],[24.10575,54.51507],[24.10191,54.51023],[24.11274,54.50751],[24.12403,54.50324],[24.13274,54.49783],[24.13801,54.49367],[24.1498,54.49236],[24.15369,54.49104],[24.15828,54.48854],[24.16014,54.48807],[24.1617,54.48883],[24.16805,54.49012],[24.18615,54.49836],[24.18768,54.49947],[24.19038,54.5027],[24.20295,54.51099],[24.20999,54.50967],[24.21057,54.51067],[24.21041,54.51457],[24.20759,54.51718],[24.19699,54.52482],[24.19399,54.53252],[24.22172,54.53243],[24.22764,54.53416],[24.22746,54.53201],[24.22961,54.53178],[24.23261,54.53201],[24.23495,54.53289],[24.23709,54.53317],[24.2383,54.53293],[24.24204,54.53354],[24.25108,54.53357],[24.25204,54.53303],[24.25266,54.53155],[24.25578,54.52913],[24.25802,54.5259],[24.26246,54.52259],[24.26545,54.52348],[24.26759,54.52461],[24.26958,54.52702],[24.27024,54.53003],[24.27095,54.53077],[24.27717,54.52915],[24.2777,54.52805],[24.27975,54.52676],[24.28016,54.52351],[24.2828,54.52255],[24.28539,54.52233],[24.28436,54.5204],[24.28512,54.51981],[24.28634,54.51982],[24.28806,54.51904],[24.29738,54.51045],[24.30778,54.50752],[24.30937,54.50541],[24.32599,54.50617],[24.33201,54.50458],[24.33505,54.50457],[24.33581,54.50368],[24.33767,54.50279],[24.34001,54.49975],[24.33973,54.49676],[24.34427,54.49291],[24.34836,54.49129],[24.35007,54.49109],[24.35771,54.49195],[24.36146,54.49202],[24.36627,54.49306],[24.36995,54.49843],[24.37583,54.50019],[24.37966,54.50025],[24.38374,54.50255],[24.38922,54.50273],[24.39108,54.50331],[24.39351,54.50288],[24.40093,54.50277],[24.40373,54.50412],[24.4069,54.5038],[24.40849,54.50072],[24.40833,54.49988],[24.4035,54.49839],[24.40202,54.49683],[24.40811,54.49309],[24.41083,54.49296],[24.41309,54.49352],[24.41454,54.4924],[24.4183,54.49227],[24.41983,54.48716],[24.41838,54.48427],[24.41608,54.48184],[24.41362,54.48298],[24.41289,54.48395],[24.41114,54.48413],[24.40603,54.48593],[24.40227,54.48422],[24.40222,54.4829],[24.40042,54.4829],[24.39888,54.48223],[24.39436,54.48339],[24.39303,54.48186],[24.39312,54.47933],[24.39526,54.47823],[24.39464,54.47689],[24.39562,54.47538],[24.39535,54.4739],[24.39338,54.47227],[24.39606,54.47189],[24.39817,54.47259],[24.39921,54.47214],[24.40113,54.47214],[24.40368,54.47031],[24.40553,54.47093],[24.41088,54.4709],[24.41328,54.46976],[24.41318,54.46776],[24.41503,54.4659],[24.41521,54.46392],[24.41276,54.46321],[24.41196,54.4626],[24.4118,54.46029],[24.41061,54.45746],[24.40627,54.45425],[24.40534,54.45295],[24.42058,54.44997],[24.42463,54.44843],[24.42987,54.44556],[24.43357,54.44451],[24.43897,54.44419],[24.44501,54.44556],[24.45254,54.44582],[24.45264,54.4447],[24.45142,54.44294],[24.45163,54.44049],[24.45099,54.43825],[24.44933,54.43593],[24.44911,54.43292],[24.44806,54.43202],[24.44428,54.43205],[24.44167,54.43149],[24.43236,54.43184],[24.42364,54.43166],[24.41899,54.43283],[24.41124,54.43121],[24.4132,54.42807],[24.41777,54.42781],[24.42344,54.42419],[24.42779,54.41712],[24.42393,54.4185],[24.4231,54.41963],[24.42242,54.41965],[24.4209,54.41919],[24.41973,54.41929],[24.41246,54.41532],[24.4109,54.41594],[24.40756,54.41601],[24.40323,54.41735],[24.40047,54.41577],[24.397,54.41576],[24.39028,54.41337],[24.38714,54.41271],[24.38398,54.41008],[24.3832,54.40804],[24.38203,54.40678],[24.37971,54.40686],[24.37689,54.4058],[24.37478,54.40344],[24.36745,54.40545],[24.36369,54.40507],[24.3544,54.40314],[24.34224,54.40154],[24.34404,54.39762],[24.33955,54.39606],[24.3369,54.39328],[24.33413,54.39284],[24.32973,54.39295],[24.32484,54.39247],[24.32619,54.3875],[24.32445,54.38472],[24.32451,54.38258],[24.32589,54.38011],[24.32858,54.37721],[24.32967,54.37416],[24.33738,54.36768],[24.33884,54.36545],[24.34433,54.36499],[24.34314,54.36235],[24.34368,54.36105],[24.34144,54.35925],[24.32719,54.35259],[24.33226,54.34788],[24.3323,54.34721],[24.33118,54.34632],[24.33554,54.34031],[24.3394,54.33811],[24.34156,54.33203],[24.34136,54.33075],[24.34234,54.32997],[24.3421,54.32824],[24.34281,54.32731],[24.3464,54.32625],[24.35517,54.32519],[24.35849,54.32443],[24.3596,54.32263],[24.35991,54.32001],[24.36186,54.31775],[24.36154,54.31728],[24.37963,54.30826],[24.38247,54.30426],[24.39043,54.29978],[24.40129,54.29136],[24.41647,54.28746],[24.42454,54.28378],[24.42752,54.28304],[24.42829,54.28216],[24.42878,54.28072],[24.41641,54.27392],[24.4225,54.27273],[24.42283,54.26989],[24.43109,54.26448],[24.43232,54.2643],[24.43511,54.26517],[24.43724,54.26116],[24.43589,54.25635],[24.4371,54.25536],[24.44198,54.25436],[24.44109,54.25321],[24.43846,54.25147],[24.43873,54.25016],[24.43203,54.24175],[24.43105,54.23841],[24.42967,54.23753],[24.42633,54.23268],[24.42533,54.22717],[24.42405,54.22422],[24.41887,54.22196],[24.40445,54.21211],[24.38586,54.20615],[24.39014,54.20268],[24.38755,54.19932],[24.38191,54.19616],[24.3742,54.19292],[24.36974,54.19049],[24.36525,54.18701],[24.36159,54.18623],[24.35705,54.18637],[24.35359,54.18701],[24.34976,54.18653],[24.34807,54.18464],[24.344,54.18272],[24.34169,54.18207],[24.3355,54.17738],[24.33153,54.17517],[24.32711,54.17188],[24.32328,54.16579],[24.32237,54.1626],[24.31975,54.1585],[24.31771,54.15197],[24.31377,54.14569],[24.31249,54.14424],[24.30737,54.14081],[24.30475,54.13791],[24.30239,54.13225],[24.30138,54.12685],[24.30156,54.12177],[24.30098,54.12129],[24.29587,54.1203],[24.29198,54.12205],[24.28412,54.11956],[24.28089,54.11932],[24.27897,54.11869],[24.27698,54.11908],[24.27575,54.12029],[24.27684,54.12206],[24.27614,54.12509],[24.27419,54.12627],[24.27174,54.12868],[24.27146,54.12968],[24.26888,54.12974],[24.26753,54.13083],[24.2644,54.13164],[24.25835,54.13445],[24.25595,54.13422],[24.2541,54.13548],[24.25101,54.1363],[24.24771,54.13918],[24.23601,54.1458],[24.22424,54.15446],[24.21964,54.15716],[24.21456,54.15874],[24.21102,54.15937],[24.20881,54.16074],[24.21073,54.14244],[24.21232,54.14201],[24.21721,54.14187],[24.2182,54.14154],[24.21861,54.14082],[24.22165,54.14013],[24.22521,54.13726],[24.23065,54.13395],[24.23454,54.13001],[24.23562,54.12709],[24.23757,54.12453],[24.24353,54.12056],[24.24537,54.11635],[24.25204,54.10731],[24.25437,54.1019],[24.25621,54.09501],[24.26007,54.08623],[24.25943,54.08387],[24.25939,54.07938],[24.25818,54.07769],[24.25842,54.07447],[24.25721,54.07239],[24.25494,54.07009],[24.25541,54.06611],[24.2573,54.0631],[24.25839,54.05838],[24.25708,54.05802],[24.24109,54.05734],[24.23902,54.05761],[24.23791,54.05817],[24.22564,54.0548],[24.21932,54.05107],[24.2178,54.05075],[24.21401,54.05083],[24.21024,54.05002],[24.20701,54.05031],[24.19551,54.04566],[24.18818,54.04386]]}},{"type":"Feature","properties":{"name":"TET_LT-08_20260714","country":"LT","lengthKm":74.6},"geometry":{"type":"LineString","coordinates":[[24.18818,54.04386],[24.18527,54.04374],[24.18378,54.04066],[24.18123,54.03939],[24.17784,54.0394],[24.17205,54.04136],[24.16589,54.04091],[24.16374,54.04042],[24.16195,54.03942],[24.15695,54.03886],[24.15437,54.03771],[24.15108,54.03725],[24.14038,54.03168],[24.13366,54.03023],[24.13156,54.02817],[24.13206,54.02537],[24.13561,54.02404],[24.13631,54.02203],[24.13749,54.02133],[24.1377,54.02017],[24.13726,54.01886],[24.13622,54.01847],[24.1357,54.01737],[24.13193,54.01497],[24.13532,54.01038],[24.13391,54.00916],[24.13092,54.00805],[24.12895,54.00609],[24.12467,54.00451],[24.1212,54.0046],[24.11871,54.00381],[24.11539,54.00024],[24.11093,53.99807],[24.10792,53.9994],[24.10575,53.99973],[24.1031,54.0057],[24.09459,54.00444],[24.09391,54.00379],[24.09085,54.00394],[24.0784,54.00163],[24.03431,53.99594],[24.02969,53.99758],[24.02502,53.99843],[24.01851,54.00093],[24.01468,54.00159],[23.99249,54.01102],[23.97196,54.01725],[23.97237,54.01879],[23.9716,54.02059],[23.97213,54.02128],[23.9708,54.02202],[23.97005,54.02361],[23.97961,54.0249],[23.9869,54.02962],[23.98087,54.03163],[23.9758,54.03271],[23.96013,54.03389],[23.95876,54.03273],[23.94405,54.02446],[23.93694,54.02291],[23.93366,54.02178],[23.93184,54.01993],[23.93017,54.01515],[23.92619,54.01569],[23.92457,54.01507],[23.92243,54.01497],[23.91236,54.01037],[23.90442,54.01016],[23.90011,54.00938],[23.89145,54.00731],[23.88687,54.00519],[23.88341,54.00467],[23.8818,54.00201],[23.88063,54.0017],[23.87769,53.99946],[23.87661,53.99682],[23.87349,53.99392],[23.86945,53.99226],[23.8514,53.99147],[23.84453,53.99216],[23.84334,53.99108],[23.83832,53.99001],[23.8205,53.98901],[23.81633,53.98778],[23.81395,53.98663],[23.80511,53.98147],[23.80527,53.97772],[23.80176,53.97567],[23.80054,53.97429],[23.79338,53.97429],[23.78916,53.97383],[23.78409,53.97118],[23.78199,53.96948],[23.78042,53.96743],[23.77758,53.96634],[23.7735,53.96537],[23.7696,53.9653],[23.7658,53.9641],[23.75991,53.96314],[23.75945,53.96271],[23.75982,53.96209],[23.75853,53.96028],[23.76421,53.95917],[23.77197,53.95583],[23.77066,53.9501],[23.76483,53.95237],[23.76233,53.95377],[23.75562,53.95501],[23.75092,53.95673],[23.74904,53.95693],[23.74166,53.95653],[23.739,53.95593],[23.73324,53.95584],[23.72642,53.95727],[23.72241,53.95049],[23.72234,53.94949],[23.72148,53.94895],[23.71898,53.94972],[23.71438,53.95225],[23.70951,53.95356],[23.70345,53.9588],[23.70052,53.96032],[23.69453,53.96263],[23.69251,53.96297],[23.68228,53.96744],[23.67148,53.97428],[23.65889,53.97912],[23.65557,53.97943],[23.65364,53.98297],[23.65053,53.99349],[23.64094,53.99452],[23.64033,53.99582],[23.63091,53.99622],[23.6267,53.99771],[23.61779,54],[23.6148,53.99869],[23.60954,53.99761],[23.60053,53.99914],[23.59208,54.00265],[23.58954,54.00188],[23.58488,54.00145],[23.58132,54.00068],[23.57077,54.00001],[23.56579,54.00109],[23.56315,54.00315],[23.56304,54.00509],[23.56207,54.00502],[23.5575,54.00372],[23.55041,53.99972],[23.54294,53.99646],[23.53799,53.9931],[23.52828,53.98811],[23.52112,53.98652],[23.51923,53.98567],[23.50912,53.98518],[23.50225,53.98318],[23.49661,53.98225],[23.49351,53.99058],[23.49328,53.99863],[23.50554,54.00677],[23.51145,54.00897],[23.5178,54.01257],[23.52087,54.01339],[23.5253,54.0177],[23.52784,54.02115],[23.5284,54.0263],[23.52364,54.02982],[23.52716,54.03244],[23.53116,54.03321],[23.53321,54.03425],[23.52818,54.04405],[23.5265,54.04543]]}}]}