{"type":"FeatureCollection","features":[{"type":"Feature","properties":{"name":"TET_L-01-EAST_20230227","country":"LU","lengthKm":65.9},"geometry":{"type":"LineString","coordinates":[[6.07044,49.93216],[6.07702,49.92839],[6.0759,49.92564],[6.07402,49.92338],[6.0701,49.92047],[6.07044,49.91966],[6.07762,49.91785],[6.07883,49.9171],[6.07967,49.91716],[6.08293,49.91958],[6.08522,49.91987],[6.08588,49.91876],[6.08364,49.91716],[6.08047,49.91254],[6.08116,49.91214],[6.08203,49.91229],[6.08378,49.91395],[6.08518,49.91448],[6.08851,49.91421],[6.08796,49.91354],[6.08625,49.91322],[6.08471,49.91201],[6.08634,49.91268],[6.08649,49.91203],[6.08559,49.91062],[6.08173,49.90707],[6.08094,49.90528],[6.07951,49.90494],[6.07705,49.90626],[6.07367,49.90627],[6.06927,49.90728],[6.06806,49.90726],[6.07186,49.90751],[6.07244,49.90783],[6.07248,49.90839],[6.07073,49.90968],[6.06798,49.90927],[6.06657,49.90985],[6.06487,49.90978],[6.06465,49.91038],[6.06248,49.91106],[6.05961,49.91107],[6.05812,49.91152],[6.05808,49.91105],[6.05276,49.91056],[6.04937,49.91266],[6.05259,49.91303],[6.04668,49.91493],[6.04277,49.91473],[6.04267,49.91341],[6.04477,49.9122],[6.04587,49.9105],[6.04388,49.90677],[6.04403,49.90489],[6.03998,49.90315],[6.03716,49.90126],[6.03626,49.90004],[6.0307,49.89724],[6.02596,49.8954],[6.02242,49.89459],[6.00954,49.89469],[6.0078,49.89795],[6.0048,49.89704],[6.00008,49.89488],[6.00847,49.90132],[6.00972,49.90469],[6.00988,49.90779],[6.00703,49.91209],[6.01043,49.91416],[6.01083,49.91581],[6.0104,49.91629],[6.00862,49.91583],[6.00724,49.91598],[6.00722,49.91453],[6.00369,49.912],[6.00313,49.9103],[6.00158,49.90872],[6.00228,49.9126],[6.0019,49.91215],[6.00135,49.9128],[5.99956,49.91312],[6.00001,49.91406],[6.00241,49.91485],[6.00241,49.91552],[6.00204,49.91483],[6.00039,49.91439],[5.99188,49.91488],[5.98682,49.91462],[5.98438,49.91309],[5.98363,49.91163],[5.98199,49.91057],[5.97773,49.91256],[5.97442,49.91139],[5.97321,49.90925],[5.97031,49.90919],[5.96777,49.9097],[5.96815,49.9087],[5.96493,49.90755],[5.96289,49.90797],[5.96624,49.9087],[5.95891,49.90859],[5.96481,49.90997],[5.96313,49.91396],[5.96393,49.91502],[5.96562,49.91602],[5.96477,49.91782],[5.96669,49.92077],[5.96605,49.9228],[5.96653,49.92478],[5.96747,49.92612],[5.96508,49.92873],[5.96263,49.92928],[5.96165,49.93083],[5.96073,49.93126],[5.95743,49.93135],[5.96088,49.93207],[5.96289,49.93209],[5.9649,49.93277],[5.96623,49.93392],[5.96861,49.93511],[5.96977,49.93718],[5.96936,49.9389],[5.96977,49.94003],[5.96368,49.93887],[5.96082,49.93796],[5.96115,49.93726],[5.96295,49.93694],[5.96137,49.93625],[5.9611,49.93562],[5.95851,49.93718],[5.95698,49.93712],[5.95515,49.93625],[5.95564,49.93766],[5.95518,49.93791],[5.95083,49.93642],[5.94178,49.93237],[5.94028,49.9326],[5.93911,49.93209],[5.93653,49.93181],[5.93378,49.93049],[5.92435,49.9287],[5.91971,49.92729],[5.91588,49.92388],[5.91262,49.92273],[5.90853,49.92189],[5.90146,49.92151],[5.90164,49.92255],[5.8994,49.9254],[5.89647,49.9232],[5.89229,49.92277],[5.88758,49.92291],[5.88126,49.92212],[5.87977,49.92256],[5.87721,49.92234],[5.87465,49.92017],[5.87433,49.91903],[5.87236,49.91705],[5.87314,49.9157],[5.87466,49.9151],[5.87345,49.91435],[5.87315,49.91229],[5.87421,49.91132],[5.87469,49.90991],[5.87612,49.9087],[5.87686,49.90853],[5.87715,49.90904],[5.87753,49.90894],[5.87826,49.90686],[5.87813,49.90554],[5.87616,49.90478],[5.87509,49.90482],[5.87117,49.90611],[5.87044,49.90783],[5.86923,49.90724],[5.8616,49.90854],[5.86047,49.91135],[5.85572,49.91221],[5.85058,49.9153],[5.8494,49.91864],[5.84827,49.91964],[5.84351,49.91875],[5.83836,49.91994],[5.83608,49.91945],[5.83449,49.91846],[5.83304,49.91846],[5.82809,49.9166],[5.82675,49.91506],[5.82373,49.91318],[5.81582,49.91215],[5.81221,49.91052],[5.81262,49.90843],[5.81013,49.90496],[5.81164,49.89605],[5.81041,49.89649],[5.79889,49.89427],[5.79557,49.89221],[5.79531,49.88994],[5.79578,49.88909],[5.7881,49.88568],[5.78867,49.88498],[5.79129,49.885],[5.795,49.88597],[5.79609,49.88545],[5.7993,49.88731],[5.79888,49.88524],[5.80579,49.88604],[5.8082,49.88566],[5.81076,49.88619],[5.81207,49.88511],[5.81171,49.8843],[5.80896,49.88247],[5.81009,49.87658],[5.80962,49.87587],[5.80262,49.8744],[5.80054,49.87445],[5.79734,49.87536],[5.79913,49.87408],[5.79947,49.87287],[5.8008,49.87327],[5.80042,49.87229],[5.80168,49.87109],[5.8011,49.86973],[5.80381,49.87002],[5.8044,49.8698],[5.8044,49.8693],[5.80346,49.86875],[5.80135,49.8684],[5.79899,49.86615],[5.78775,49.86185],[5.78465,49.85862],[5.7851,49.85754],[5.78692,49.85673],[5.79001,49.8542],[5.79167,49.85152],[5.79148,49.84886],[5.79286,49.84862],[5.79289,49.84784],[5.79277,49.84683],[5.79147,49.84532],[5.78487,49.84129],[5.78366,49.83883],[5.7778,49.84095],[5.77485,49.84048],[5.76815,49.84048],[5.76309,49.83923],[5.76066,49.83727],[5.7594,49.83683],[5.75573,49.83696],[5.75287,49.83562],[5.74907,49.83545],[5.74546,49.83641],[5.74477,49.83797],[5.74397,49.83818],[5.74233,49.83727],[5.74032,49.83402],[5.74046,49.83304],[5.73866,49.83394]]}},{"type":"Feature","properties":{"name":"TET_L-02-NORTH_20230227","country":"LU","lengthKm":75.3},"geometry":{"type":"LineString","coordinates":[[6.06972,49.93241],[6.06835,49.93192],[6.06766,49.93088],[6.06838,49.92728],[6.06553,49.92591],[6.06307,49.92377],[6.06152,49.92037],[6.0594,49.92001],[6.0569,49.92024],[6.05137,49.92286],[6.05063,49.92447],[6.0511,49.92556],[6.0534,49.92673],[6.05679,49.9278],[6.05956,49.92945],[6.06074,49.9312],[6.06229,49.93136],[6.06372,49.93243],[6.06093,49.93317],[6.06307,49.93306],[6.06315,49.93334],[6.05678,49.93418],[6.05375,49.93535],[6.05549,49.93623],[6.05258,49.94091],[6.05261,49.94206],[6.04979,49.94353],[6.0534,49.94462],[6.05437,49.94562],[6.05659,49.9468],[6.05601,49.94796],[6.05584,49.95142],[6.05484,49.95344],[6.05083,49.95731],[6.05026,49.95838],[6.05174,49.96064],[6.05207,49.96212],[6.05128,49.96172],[6.05302,49.96287],[6.0552,49.96525],[6.05516,49.96617],[6.05774,49.96992],[6.05807,49.97145],[6.05732,49.97318],[6.0564,49.97396],[6.0539,49.97337],[6.05239,49.97374],[6.05068,49.97317],[6.04809,49.9704],[6.04651,49.96999],[6.04375,49.96821],[6.03853,49.96689],[6.04096,49.96534],[6.04292,49.96518],[6.04557,49.96557],[6.04699,49.96618],[6.04801,49.96718],[6.04812,49.96603],[6.04647,49.96444],[6.0448,49.96377],[6.04054,49.96279],[6.03192,49.9641],[6.0309,49.96372],[6.03025,49.96299],[6.02963,49.9604],[6.03147,49.95795],[6.03105,49.9574],[6.03214,49.95584],[6.03185,49.95391],[6.03022,49.95293],[6.02627,49.95318],[6.02082,49.95097],[6.01719,49.95198],[6.01782,49.95303],[6.02073,49.95252],[6.02088,49.95375],[6.02053,49.9533],[6.01871,49.95375],[6.01652,49.95349],[6.02054,49.95472],[6.0168,49.95463],[6.01799,49.95488],[6.01662,49.95504],[6.01788,49.95536],[6.01662,49.95568],[6.01744,49.95635],[6.01748,49.95708],[6.01729,49.95738],[6.01623,49.95707],[6.01621,49.95753],[6.01514,49.9579],[6.01414,49.95897],[6.01445,49.96139],[6.00991,49.96383],[6.00481,49.96562],[6.00183,49.96764],[5.99613,49.96979],[5.99344,49.97125],[5.98818,49.97173],[5.9834,49.96928],[5.98336,49.96993],[5.98442,49.97065],[5.98449,49.97124],[5.98089,49.97384],[5.98475,49.97628],[5.98463,49.97725],[5.98696,49.98015],[5.98713,49.98186],[5.98769,49.98234],[5.9864,49.98195],[5.98529,49.98213],[5.98303,49.98143],[5.98263,49.98344],[5.9851,49.98624],[5.98477,49.98885],[5.98379,49.99004],[5.98258,49.99006],[5.97701,49.98854],[5.97417,49.98834],[5.97316,49.98885],[5.97537,49.99172],[5.97831,49.99291],[5.97989,49.99439],[5.98253,49.99523],[5.97869,49.99522],[5.97833,49.9959],[5.98291,49.99795],[5.9864,49.99895],[5.98609,49.99977],[5.98675,49.99975],[5.98741,50.00033],[5.98812,50.00248],[5.98776,50.00324],[5.9839,50.00439],[5.98647,50.0054],[5.98539,50.00928],[5.98569,50.01044],[5.9848,50.01204],[5.98533,50.01359],[5.98475,50.01519],[5.98499,50.01733],[5.98402,50.02031],[5.98206,50.02139],[5.98161,50.02435],[5.98055,50.0269],[5.98168,50.0325],[5.98094,50.03577],[5.98241,50.03703],[5.98187,50.0374],[5.98359,50.03951],[5.98368,50.04046],[5.98223,50.0409],[5.97883,50.03923],[5.97505,50.03669],[5.9723,50.03238],[5.96583,50.0282],[5.96178,50.02689],[5.95996,50.02965],[5.95732,50.03229],[5.95726,50.03456],[5.9544,50.03532],[5.9529,50.03634],[5.948,50.04396],[5.94809,50.0456],[5.94574,50.04576],[5.9446,50.04534],[5.94274,50.04364],[5.9433,50.04143],[5.94287,50.04129],[5.93762,50.04259],[5.93267,50.04585],[5.93297,50.04668],[5.93615,50.04939],[5.94009,50.04949],[5.94157,50.05009],[5.94322,50.05148],[5.94459,50.0508],[5.94651,50.05184],[5.9478,50.0531],[5.94635,50.05366],[5.94542,50.05478],[5.94411,50.05545],[5.94362,50.05794],[5.94208,50.05881],[5.94167,50.05956],[5.94279,50.06034],[5.94394,50.05964],[5.94535,50.06037],[5.94659,50.06158],[5.94682,50.06285],[5.9491,50.06432],[5.94683,50.06596],[5.94672,50.06662],[5.93661,50.06824],[5.93582,50.06904],[5.92758,50.06407],[5.92554,50.06536],[5.91783,50.06714],[5.91674,50.07018],[5.91691,50.07148],[5.91824,50.07296],[5.91799,50.07374],[5.92112,50.07768],[5.92013,50.07814],[5.92052,50.07871],[5.92259,50.07911],[5.92241,50.08256],[5.92453,50.08251],[5.92711,50.08313],[5.93043,50.08461],[5.93302,50.08631],[5.93975,50.08858],[5.9401,50.08842],[5.94226,50.08945],[5.94693,50.09022],[5.9498,50.09176],[5.95257,50.09158],[5.9553,50.0924],[5.95431,50.0943],[5.95666,50.09662],[5.95687,50.09944],[5.95978,50.10054],[5.96028,50.10035],[5.96147,50.10071],[5.96348,50.10168],[5.96426,50.10254],[5.9664,50.10335],[5.96243,50.10909],[5.9652,50.11029],[5.96469,50.11086],[5.96532,50.11124],[5.96511,50.11169],[5.96749,50.11223],[5.96895,50.10955],[5.9691,50.10828],[5.9729,50.10494],[5.97302,50.10276],[5.97418,50.10109],[5.97126,50.09872],[5.97419,50.09654],[5.97491,50.09542],[5.97424,50.09456],[5.97444,50.09403],[5.97735,50.09138],[5.97962,50.09081],[5.98396,50.09214],[5.98635,50.09405],[5.98749,50.09384],[5.98663,50.09243],[5.98814,50.08974],[5.99134,50.08916],[5.99209,50.08842],[5.98964,50.08629],[5.99024,50.08385],[5.99154,50.08392],[5.99233,50.08477],[5.99572,50.08511],[6.00018,50.08637],[6.00058,50.08732],[5.9992,50.08926],[5.99882,50.09088],[5.99727,50.09283],[5.99718,50.09379],[5.99919,50.09506],[5.99985,50.0961],[6.00204,50.096],[6.00256,50.09551],[6.00414,50.09623],[6.00373,50.09681],[5.9993,50.09709],[5.99798,50.09756],[5.99785,50.09806],[5.99845,50.09803],[5.99759,50.09859],[6.00155,50.09764],[6.00694,50.0976],[6.01071,50.09691],[6.01567,50.09522],[6.01725,50.09516],[6.01943,50.09638],[6.02054,50.09652],[6.02386,50.09522],[6.02626,50.09509],[6.02732,50.09815],[6.02822,50.09917],[6.03096,50.10005],[6.03305,50.10169],[6.0357,50.10257],[6.03673,50.10342],[6.04021,50.10427],[6.04071,50.10636],[6.04518,50.10937],[6.04528,50.10988],[6.04424,50.11054],[6.04421,50.11172],[6.04694,50.11301],[6.04837,50.11477],[6.05049,50.11585],[6.05315,50.11628],[6.0547,50.11772],[6.06254,50.12119],[6.06664,50.12351],[6.07057,50.12361],[6.07232,50.12278],[6.07488,50.12058],[6.07731,50.11949],[6.08325,50.11807],[6.08417,50.11815],[6.08629,50.11609],[6.09062,50.11637],[6.0932,50.11694],[6.09451,50.11857],[6.09636,50.1199],[6.10511,50.12393],[6.10885,50.12339],[6.11012,50.12495],[6.11543,50.1263],[6.12229,50.12895],[6.12685,50.12915],[6.1283,50.12824],[6.13117,50.12825],[6.13376,50.12772],[6.13462,50.12717],[6.13481,50.12827],[6.13421,50.12925],[6.13617,50.12993]]}},{"type":"Feature","properties":{"name":"TET_L-03-SOUTH_20230227","country":"LU","lengthKm":154.8},"geometry":{"type":"LineString","coordinates":[[6.36085,49.44334],[6.35775,49.44157],[6.35479,49.44181],[6.35208,49.44242],[6.34563,49.44637],[6.3442,49.44675],[6.34507,49.44819],[6.34795,49.44948],[6.34402,49.45368],[6.34193,49.45421],[6.34291,49.45465],[6.3451,49.45418],[6.34642,49.4533],[6.34615,49.45258],[6.34852,49.45172],[6.35098,49.44876],[6.35295,49.4473],[6.35644,49.44664],[6.36245,49.449],[6.36501,49.451],[6.36651,49.45345],[6.36738,49.45339],[6.36751,49.45378],[6.36757,49.45571],[6.36619,49.45954],[6.36638,49.46051],[6.3662,49.45981],[6.36471,49.46691],[6.36486,49.46865],[6.36422,49.46985],[6.36352,49.46996],[6.36394,49.47044],[6.36344,49.47028],[6.36574,49.47183],[6.36606,49.47595],[6.36703,49.47593],[6.36698,49.47708],[6.36653,49.47829],[6.3627,49.48074],[6.36206,49.48173],[6.36589,49.4837],[6.36675,49.48469],[6.3668,49.48871],[6.36593,49.49285],[6.35698,49.49254],[6.35528,49.49186],[6.35252,49.4917],[6.3537,49.49886],[6.35307,49.50008],[6.35083,49.50156],[6.35236,49.50165],[6.35445,49.503],[6.35715,49.51062],[6.35648,49.51246],[6.35654,49.5205],[6.35467,49.52512],[6.35424,49.52972],[6.35305,49.52985],[6.34729,49.52769],[6.33966,49.52378],[6.33795,49.52358],[6.3353,49.52387],[6.33293,49.5229],[6.32995,49.52313],[6.32829,49.52151],[6.32858,49.52053],[6.32726,49.52165],[6.32711,49.52295],[6.32962,49.52504],[6.3296,49.52605],[6.3336,49.5277],[6.33493,49.52895],[6.33498,49.53055],[6.33577,49.53141],[6.34001,49.5338],[6.34405,49.53531],[6.34147,49.53643],[6.33897,49.53832],[6.33775,49.53851],[6.33306,49.5381],[6.33228,49.53937],[6.32473,49.54242],[6.32531,49.54399],[6.32942,49.54908],[6.33262,49.55145],[6.33613,49.55246],[6.33363,49.55322],[6.3309,49.55611],[6.33504,49.55914],[6.33706,49.55962],[6.3373,49.56076],[6.34152,49.56548],[6.34242,49.56805],[6.34221,49.56885],[6.34312,49.57058],[6.34696,49.57272],[6.35166,49.57637],[6.35378,49.57862],[6.35909,49.58574],[6.35882,49.5867],[6.36034,49.58699],[6.35958,49.58944],[6.36192,49.59319],[6.36551,49.5935],[6.36552,49.59381],[6.3633,49.59452],[6.36301,49.59507],[6.36696,49.60071],[6.36789,49.60102],[6.36795,49.60319],[6.37037,49.60427],[6.37222,49.60745],[6.3758,49.6108],[6.37905,49.61197],[6.38842,49.61737],[6.39391,49.61909],[6.39787,49.62253],[6.39878,49.62273],[6.39969,49.62353],[6.40386,49.62923],[6.4036,49.63103],[6.4029,49.63112],[6.40228,49.63213],[6.40178,49.63022],[6.39865,49.62706],[6.39651,49.62812],[6.394,49.6264],[6.3918,49.62703],[6.39084,49.62782],[6.39003,49.62996],[6.38808,49.6306],[6.38748,49.63134],[6.38743,49.63177],[6.38973,49.63321],[6.3864,49.63333],[6.38508,49.63371],[6.38013,49.63618],[6.37775,49.63985],[6.37775,49.64304],[6.37367,49.64714],[6.37098,49.64834],[6.36672,49.64932],[6.36268,49.65166],[6.35995,49.65223],[6.35524,49.6541],[6.35176,49.65713],[6.35043,49.6589],[6.34922,49.65944],[6.35617,49.66193],[6.35686,49.66185],[6.35452,49.66341],[6.37204,49.66656],[6.37345,49.66736],[6.37622,49.67046],[6.37884,49.67237],[6.38561,49.67514],[6.38788,49.67588],[6.39028,49.67616],[6.39296,49.67781],[6.39432,49.67991],[6.39642,49.68082],[6.39713,49.68054],[6.39914,49.68197],[6.40134,49.68151],[6.40268,49.68295],[6.40386,49.68264],[6.40342,49.68312],[6.4038,49.68448],[6.40527,49.68723],[6.40904,49.68957],[6.40751,49.69038],[6.41593,49.69404],[6.41962,49.69831],[6.42286,49.70327],[6.42447,49.70434],[6.42381,49.70738],[6.42508,49.70753],[6.42816,49.70909],[6.42767,49.71365],[6.42327,49.71534],[6.41921,49.71514],[6.41734,49.71543],[6.4147,49.71723],[6.4152,49.71949],[6.41223,49.72195],[6.40944,49.72282],[6.40461,49.72686],[6.41003,49.72522],[6.41997,49.72556],[6.42769,49.72473],[6.43107,49.72341],[6.43439,49.72603],[6.43589,49.7256],[6.43689,49.72617],[6.44219,49.72679],[6.44338,49.72738],[6.44716,49.72678],[6.44885,49.72707],[6.45011,49.72636],[6.45457,49.72531],[6.46141,49.72175],[6.46428,49.72149],[6.46718,49.7221],[6.46934,49.72206],[6.47303,49.72071],[6.47283,49.72229],[6.47018,49.72483],[6.47177,49.72611],[6.47259,49.72736],[6.47266,49.72871],[6.47408,49.73052],[6.47392,49.73101],[6.47219,49.73165],[6.47203,49.73225],[6.47459,49.73593],[6.47714,49.74097],[6.47703,49.74302],[6.47457,49.74558],[6.47944,49.74742],[6.48059,49.7486],[6.47951,49.75019],[6.48018,49.75118],[6.48277,49.75284],[6.48451,49.75509],[6.48704,49.75558],[6.48556,49.75875],[6.48797,49.75973],[6.49163,49.76039],[6.49663,49.75869],[6.49765,49.76001],[6.50035,49.7619],[6.5014,49.76181],[6.50394,49.7632],[6.50841,49.76191],[6.50682,49.75972],[6.51168,49.75916],[6.51663,49.76317],[6.51437,49.76807],[6.51066,49.77151],[6.50753,49.77129],[6.5087,49.77209],[6.5078,49.7733],[6.5079,49.77264],[6.50741,49.77245],[6.50369,49.77286],[6.50318,49.77332],[6.50564,49.77343],[6.50673,49.77407],[6.50875,49.77964],[6.5086,49.78196],[6.50774,49.781],[6.50476,49.78328],[6.50442,49.7844],[6.50327,49.7853],[6.50249,49.78462],[6.49712,49.78477],[6.49534,49.78419],[6.49639,49.78657],[6.49555,49.78708],[6.49501,49.78833],[6.49239,49.79008],[6.48586,49.79339],[6.47919,49.78928],[6.47846,49.7881],[6.47694,49.78701],[6.47663,49.78596],[6.47247,49.78354],[6.47118,49.78355],[6.46942,49.78468],[6.46922,49.78545],[6.47023,49.78679],[6.47011,49.78729],[6.46618,49.78781],[6.46458,49.78864],[6.46323,49.78944],[6.46252,49.79082],[6.45995,49.79291],[6.45939,49.792],[6.45561,49.79106],[6.45275,49.78912],[6.45045,49.78954],[6.44774,49.78905],[6.44451,49.78797],[6.44095,49.78549],[6.43975,49.78555],[6.43977,49.78624],[6.4381,49.78709],[6.43678,49.78907],[6.43568,49.78977],[6.43185,49.79036],[6.42953,49.79124],[6.4281,49.79094],[6.42648,49.79163],[6.42537,49.79094],[6.42342,49.79124],[6.42178,49.79081],[6.42098,49.79132],[6.41947,49.79139],[6.42115,49.79215],[6.42204,49.79315],[6.42144,49.79425],[6.41982,49.79506],[6.4182,49.79664],[6.41674,49.80069],[6.41638,49.80516],[6.41201,49.8087],[6.40606,49.8059],[6.40383,49.80539],[6.40357,49.80568],[6.40053,49.80537],[6.39803,49.8047],[6.39632,49.80478],[6.39609,49.80389],[6.39481,49.80356],[6.39223,49.80473],[6.39223,49.80658],[6.39083,49.80799],[6.38766,49.80916],[6.38547,49.80916],[6.38385,49.80963],[6.38189,49.81079],[6.3818,49.81219],[6.37913,49.81394],[6.37654,49.81454],[6.35715,49.81172],[6.35062,49.80993],[6.34751,49.8122],[6.34799,49.81352],[6.34409,49.81652],[6.34638,49.8183],[6.34673,49.81927],[6.34921,49.82067],[6.3493,49.82139],[6.3477,49.82298],[6.33891,49.81942],[6.33246,49.81738],[6.33018,49.81454],[6.32832,49.8107],[6.32775,49.81063],[6.32813,49.81676],[6.32721,49.81925],[6.32602,49.82003],[6.32802,49.82405],[6.32686,49.82291],[6.32587,49.8245],[6.3222,49.82226],[6.31867,49.82208],[6.31368,49.82424],[6.31378,49.82498],[6.31527,49.82605],[6.3154,49.8256],[6.31592,49.82695],[6.31071,49.82758],[6.30853,49.82854],[6.3054,49.82919],[6.30268,49.83058],[6.30094,49.8322],[6.29323,49.83354],[6.29252,49.83532],[6.29471,49.83561],[6.29541,49.83805],[6.29767,49.83959],[6.30021,49.8421],[6.30025,49.84323],[6.30397,49.84403],[6.30584,49.84628],[6.30819,49.84672],[6.31498,49.84662],[6.31645,49.84734],[6.3162,49.84968],[6.3156,49.84973],[6.31454,49.85146],[6.31594,49.85222],[6.31647,49.8533],[6.31873,49.85281],[6.3194,49.85304],[6.31591,49.85682],[6.31437,49.85921],[6.31338,49.86103],[6.31323,49.86354],[6.31132,49.86739],[6.30965,49.86813],[6.30826,49.86796],[6.30227,49.86556],[6.30156,49.86487],[6.29942,49.86399],[6.29586,49.86366],[6.29413,49.86409],[6.29105,49.86421],[6.28958,49.8635],[6.28705,49.86007],[6.28624,49.86101],[6.28489,49.86043],[6.28043,49.86193],[6.27575,49.86257],[6.27468,49.86317],[6.2717,49.86351],[6.26881,49.86327],[6.26887,49.86556],[6.26804,49.86694],[6.26783,49.86635],[6.26714,49.8672],[6.26708,49.86928],[6.26353,49.868],[6.26109,49.86984],[6.26207,49.87094],[6.26175,49.8719],[6.26215,49.87247],[6.26429,49.87407],[6.26283,49.87512],[6.26302,49.87593],[6.26239,49.87609],[6.26146,49.87763],[6.25877,49.87864],[6.25627,49.88038],[6.25665,49.88196],[6.25222,49.88706],[6.24099,49.89038],[6.23695,49.89079],[6.23359,49.89303],[6.22692,49.89451],[6.22073,49.89517],[6.21927,49.89615],[6.21584,49.89996],[6.20758,49.898],[6.20691,49.89889],[6.20884,49.89984],[6.21052,49.90209],[6.205,49.9057],[6.20116,49.90748],[6.19517,49.90842],[6.19528,49.91098],[6.19382,49.91245],[6.19338,49.91445],[6.19093,49.91342],[6.18735,49.91309],[6.18628,49.91266],[6.1771,49.91811],[6.17349,49.91904],[6.17377,49.91977],[6.17755,49.92138],[6.17833,49.92288],[6.17768,49.92383],[6.17464,49.92609],[6.17202,49.92666],[6.17241,49.92712],[6.17511,49.92749],[6.17817,49.92867],[6.18077,49.92915],[6.18262,49.9284],[6.18596,49.92785],[6.18874,49.92783],[6.19176,49.92831],[6.1936,49.92875],[6.19458,49.92956],[6.19652,49.9297],[6.20125,49.93142],[6.20159,49.93202],[6.19897,49.93481],[6.19721,49.93359],[6.19571,49.93311],[6.18967,49.93174],[6.18796,49.93192],[6.1853,49.93372],[6.18601,49.93411],[6.18899,49.93376],[6.19027,49.93429],[6.19045,49.93481],[6.18763,49.93516],[6.18566,49.93598],[6.1817,49.94018],[6.17717,49.9414],[6.17645,49.94225],[6.1793,49.94563],[6.17887,49.94677],[6.17996,49.94677],[6.18288,49.94801],[6.18226,49.94814],[6.18409,49.94985],[6.18917,49.95076],[6.19161,49.95035],[6.19026,49.95161],[6.18813,49.95215],[6.19151,49.95495],[6.19156,49.9557],[6.19067,49.95664],[6.18675,49.95357],[6.18041,49.95204],[6.17922,49.95214],[6.17729,49.95309],[6.1756,49.95695],[6.1742,49.9581],[6.17173,49.95807],[6.1702,49.95758],[6.17102,49.95826],[6.17256,49.9587],[6.17264,49.95975],[6.17092,49.96141],[6.16977,49.96192],[6.16788,49.9615],[6.16561,49.95947],[6.1664,49.96331],[6.16599,49.96258],[6.16588,49.96288],[6.16464,49.96225],[6.16473,49.96114],[6.16241,49.95887],[6.16233,49.95975],[6.15903,49.95771],[6.15687,49.95568],[6.15743,49.95297],[6.1558,49.95155],[6.15888,49.9514],[6.15926,49.95066],[6.15051,49.948],[6.14841,49.94698],[6.14859,49.94505],[6.15214,49.9413],[6.15564,49.93631],[6.15773,49.93449],[6.15702,49.9322],[6.15762,49.93084],[6.15722,49.92649],[6.1532,49.91921],[6.15185,49.911],[6.15024,49.91109],[6.14587,49.90996],[6.14468,49.91012],[6.1449,49.91088],[6.14296,49.91183],[6.14198,49.91314],[6.14183,49.91134],[6.14067,49.9108],[6.13928,49.91293],[6.13889,49.91282],[6.1395,49.91131],[6.13681,49.91173],[6.13672,49.91318],[6.13535,49.9138],[6.13703,49.91346],[6.13529,49.91376],[6.13672,49.91318],[6.13688,49.91173],[6.13568,49.91136],[6.13414,49.91006],[6.13062,49.90878],[6.12162,49.91166],[6.1212,49.91213],[6.12167,49.9137],[6.11911,49.91621],[6.11891,49.91824],[6.11733,49.91962],[6.11528,49.92255],[6.11585,49.92506],[6.11686,49.92608],[6.11249,49.92715],[6.11099,49.92902],[6.10877,49.9295],[6.11177,49.92932],[6.10949,49.92998],[6.10555,49.93326],[6.10537,49.93445],[6.10433,49.93573],[6.10298,49.93608],[6.1015,49.93573],[6.10048,49.93591],[6.09883,49.93835],[6.0971,49.93825],[6.09158,49.93635],[6.08963,49.93498],[6.09028,49.93799],[6.09185,49.93942],[6.08933,49.93852],[6.08829,49.93717],[6.0872,49.93723],[6.08632,49.93587],[6.08631,49.93327],[6.08478,49.9362],[6.08525,49.93815],[6.08458,49.9384],[6.08424,49.93797],[6.08305,49.93782],[6.07947,49.93789],[6.0803,49.94105],[6.07818,49.9406],[6.07477,49.93921],[6.07288,49.93961],[6.07392,49.93797],[6.07354,49.93726],[6.06912,49.93583],[6.06696,49.93608],[6.06891,49.93551],[6.07409,49.93585],[6.07125,49.93479],[6.07125,49.93328],[6.07044,49.93216]]}}]}