{"type":"FeatureCollection","features":[{"type":"Feature","properties":{"name":"TET_MD-01_20260904","country":"MD","lengthKm":201.6},"geometry":{"type":"LineString","coordinates":[[27.24837,47.84478],[27.25134,47.85472],[27.25428,47.85806],[27.25402,47.86013],[27.25453,47.86165],[27.25836,47.86703],[27.25753,47.872],[27.25922,47.8736],[27.25981,47.87291],[27.26366,47.8712],[27.26413,47.87156],[27.26307,47.87459],[27.26416,47.87772],[27.26283,47.88066],[27.26236,47.88678],[27.25754,47.8865],[27.25761,47.88689],[27.2556,47.88841],[27.25656,47.88948],[27.25902,47.89487],[27.26086,47.89721],[27.26349,47.89468],[27.26392,47.8921],[27.27837,47.89997],[27.29218,47.90582],[27.28764,47.91118],[27.28852,47.91276],[27.29555,47.91517],[27.29584,47.91557],[27.29356,47.91666],[27.29234,47.91798],[27.28925,47.9197],[27.2892,47.91907],[27.28799,47.91794],[27.2881,47.91675],[27.28707,47.91705],[27.28602,47.91649],[27.28445,47.91715],[27.28338,47.91525],[27.28218,47.9162],[27.28152,47.91606],[27.28126,47.91541],[27.28051,47.91526],[27.28031,47.91342],[27.27797,47.91296],[27.27831,47.91213],[27.2777,47.9117],[27.27549,47.91158],[27.27524,47.91179],[27.27613,47.91276],[27.27534,47.91335],[27.27429,47.91336],[27.27473,47.91377],[27.2734,47.91564],[27.27415,47.91603],[27.27673,47.91581],[27.27791,47.91725],[27.28044,47.91751],[27.28112,47.91805],[27.28217,47.91821],[27.28044,47.9189],[27.27894,47.92088],[27.27377,47.92432],[27.27283,47.92544],[27.26965,47.92512],[27.26805,47.92454],[27.26655,47.92509],[27.26769,47.92842],[27.27022,47.93227],[27.26994,47.93265],[27.27167,47.93374],[27.2728,47.93612],[27.27376,47.93669],[27.27122,47.93777],[27.26883,47.93765],[27.26679,47.93799],[27.26379,47.94026],[27.2623,47.94222],[27.26075,47.94264],[27.25982,47.94369],[27.26157,47.94577],[27.26486,47.94559],[27.26611,47.94644],[27.26698,47.94954],[27.269,47.95204],[27.26968,47.95377],[27.27048,47.95429],[27.27033,47.95519],[27.27337,47.95491],[27.27677,47.95523],[27.27856,47.95474],[27.28063,47.95577],[27.27887,47.95742],[27.27844,47.95696],[27.27058,47.95991],[27.27059,47.96068],[27.27144,47.96166],[27.27122,47.96299],[27.27295,47.96334],[27.27282,47.96358],[27.2705,47.96371],[27.26677,47.96206],[27.26595,47.96258],[27.26592,47.96313],[27.26756,47.96502],[27.26708,47.96513],[27.26843,47.96693],[27.27048,47.96796],[27.27254,47.96825],[27.27423,47.96774],[27.27582,47.96685],[27.27739,47.96519],[27.27817,47.96551],[27.27785,47.96771],[27.27946,47.9682],[27.28463,47.96771],[27.28536,47.9672],[27.28586,47.96584],[27.28745,47.9661],[27.28882,47.96704],[27.29091,47.96684],[27.29114,47.96726],[27.28876,47.97068],[27.2881,47.97265],[27.2888,47.97399],[27.29154,47.97488],[27.29273,47.97566],[27.29268,47.97605],[27.3017,47.97491],[27.30472,47.97536],[27.30635,47.97416],[27.30821,47.97375],[27.30768,47.97979],[27.30877,47.98],[27.30882,47.98213],[27.30998,47.98399],[27.31301,47.9864],[27.31313,47.98819],[27.314,47.98889],[27.31351,47.9889],[27.31634,47.9874],[27.31786,47.98745],[27.31782,47.98822],[27.31847,47.98815],[27.32012,47.98661],[27.32163,47.98639],[27.32201,47.98487],[27.32343,47.98451],[27.3251,47.98499],[27.32602,47.98545],[27.32648,47.98662],[27.32594,47.98844],[27.32486,47.98955],[27.32803,47.99142],[27.32845,47.99297],[27.32818,47.99445],[27.32598,47.99572],[27.3245,47.99579],[27.32319,47.99674],[27.31964,48.00105],[27.31706,48.00335],[27.31402,48.0087],[27.31381,48.01143],[27.31252,48.01441],[27.30936,48.01731],[27.26934,48.0402],[27.26793,48.054],[27.25934,48.06039],[27.25935,48.06275],[27.25829,48.06518],[27.25818,48.06673],[27.2613,48.06622],[27.26391,48.06773],[27.26185,48.07194],[27.25785,48.07385],[27.25839,48.0755],[27.25807,48.07582],[27.24328,48.08232],[27.23916,48.08287],[27.22711,48.08648],[27.22215,48.08749],[27.22125,48.08723],[27.21908,48.08781],[27.21704,48.0891],[27.21635,48.08916],[27.21031,48.08818],[27.2035,48.0887],[27.19046,48.08647],[27.18767,48.0869],[27.18397,48.08667],[27.18074,48.08527],[27.17914,48.08498],[27.17675,48.08355],[27.17529,48.08326],[27.16838,48.0834],[27.1666,48.08313],[27.16322,48.08082],[27.15978,48.08031],[27.15786,48.07907],[27.15603,48.07935],[27.15455,48.07913],[27.15354,48.07872],[27.15278,48.07764],[27.15293,48.07886],[27.15596,48.08322],[27.1565,48.0862],[27.15767,48.0868],[27.15951,48.08625],[27.16012,48.0871],[27.16149,48.08691],[27.15871,48.08935],[27.15807,48.09174],[27.15915,48.0928],[27.16226,48.09336],[27.16293,48.09398],[27.16153,48.09901],[27.1615,48.09986],[27.16216,48.10066],[27.16343,48.10156],[27.16833,48.10324],[27.16944,48.10438],[27.1678,48.10511],[27.16862,48.10579],[27.16901,48.11129],[27.17099,48.11388],[27.17347,48.11605],[27.174,48.11769],[27.17489,48.11865],[27.17467,48.11966],[27.17527,48.12011],[27.17201,48.12017],[27.17136,48.12052],[27.1709,48.12238],[27.17114,48.12425],[27.17009,48.12594],[27.16874,48.12747],[27.167,48.12874],[27.16496,48.12951],[27.16451,48.13013],[27.16441,48.13182],[27.16347,48.13317],[27.16419,48.13378],[27.16734,48.13356],[27.16771,48.1347],[27.16613,48.13565],[27.16505,48.1372],[27.15917,48.1387],[27.15653,48.14062],[27.1576,48.14153],[27.15898,48.1419],[27.15882,48.14233],[27.16204,48.14234],[27.16246,48.14278],[27.16111,48.14384],[27.1614,48.14432],[27.16004,48.14605],[27.15793,48.14774],[27.15674,48.15017],[27.15581,48.15376],[27.15501,48.15474],[27.15511,48.15512],[27.15567,48.15485],[27.15515,48.15553],[27.15691,48.15599],[27.15708,48.15673],[27.15403,48.15851],[27.15131,48.15942],[27.1488,48.16291],[27.14895,48.16397],[27.1514,48.1651],[27.15215,48.1661],[27.15821,48.16723],[27.15873,48.17021],[27.15314,48.17278],[27.13676,48.17534],[27.11688,48.16645],[27.11597,48.1652],[27.1166,48.16179],[27.11633,48.15911],[27.11383,48.15674],[27.11097,48.15515],[27.10939,48.15549],[27.10349,48.16012],[27.09978,48.16192],[27.09625,48.16468],[27.09655,48.16592],[27.09568,48.16725],[27.09577,48.17001],[27.09817,48.17221],[27.0994,48.17251],[27.10219,48.17713],[27.10221,48.17785],[27.10221,48.17722],[27.10402,48.17926],[27.10327,48.18338],[27.10453,48.18389],[27.10856,48.18346],[27.1111,48.18474],[27.10499,48.18995],[27.10164,48.19114],[27.10205,48.19355],[27.10382,48.19343],[27.10458,48.19239],[27.10528,48.19214],[27.10862,48.19356],[27.1054,48.19827],[27.1036,48.19982],[27.1011,48.20052],[27.10033,48.2011],[27.1016,48.20426],[27.10764,48.20786],[27.10289,48.20936],[27.08756,48.20944],[27.08275,48.20995],[27.05493,48.21754],[27.05063,48.22112],[27.04565,48.22287],[27.04465,48.22484],[27.04498,48.22693],[27.04431,48.2276],[27.04134,48.22872],[27.03519,48.2292],[27.03347,48.23167],[27.04098,48.23364],[27.04167,48.23262],[27.04102,48.23264],[27.0414,48.23368],[27.03901,48.23624],[27.03721,48.23966],[27.03429,48.24116],[27.0327,48.24378],[27.03132,48.24435],[27.03064,48.24523],[27.02568,48.24742],[27.02451,48.24831],[27.02384,48.25007],[27.02446,48.25149],[27.02417,48.25273],[27.0246,48.25411],[27.02725,48.25415],[27.02987,48.25516],[27.0325,48.25501],[27.03307,48.2559],[27.03448,48.25643],[27.03375,48.25862],[27.03533,48.26223],[27.03789,48.2638],[27.03981,48.26317],[27.04274,48.26415],[27.04368,48.26551],[27.04397,48.26932],[27.04501,48.26972],[27.04686,48.26953],[27.04702,48.27036],[27.04512,48.27145],[27.04273,48.27208],[27.04229,48.27332],[27.04258,48.27396],[27.04182,48.27463],[27.04502,48.27572],[27.04666,48.27567],[27.05019,48.27341],[27.05048,48.27222],[27.05142,48.27168],[27.05576,48.27577],[27.05938,48.27827],[27.06628,48.27542],[27.07174,48.26887],[27.07124,48.26855],[27.07202,48.26675],[27.07047,48.26683],[27.06791,48.26522],[27.06493,48.26409],[27.06902,48.26036],[27.06994,48.26099],[27.07141,48.26085],[27.07124,48.25997],[27.0777,48.2564],[27.07919,48.25589],[27.08053,48.25601],[27.07911,48.25855],[27.07995,48.25971],[27.08023,48.26133],[27.0815,48.26174],[27.08154,48.26279],[27.08042,48.26393],[27.08132,48.26504],[27.08282,48.26544],[27.08206,48.26694],[27.08239,48.26929],[27.08176,48.26976],[27.0839,48.27265],[27.08604,48.27401],[27.0888,48.27354],[27.08933,48.27803],[27.09071,48.27972],[27.09276,48.28055],[27.09451,48.28062],[27.09564,48.28148],[27.09774,48.28163],[27.09883,48.28296],[27.09996,48.28298],[27.10062,48.28351],[27.1029,48.28345],[27.10763,48.28111],[27.10997,48.29177],[27.1072,48.29338],[27.10562,48.30054],[27.10342,48.30503],[27.10155,48.30751],[27.10121,48.30891],[27.10464,48.30892],[27.10735,48.30801],[27.11119,48.30902],[27.1219,48.31094],[27.12258,48.30961],[27.12361,48.3094],[27.13241,48.30877],[27.13814,48.3107],[27.14089,48.30957],[27.14181,48.30779],[27.14612,48.30776],[27.14754,48.3097],[27.1473,48.31038],[27.16138,48.31809],[27.16252,48.31942],[27.16395,48.32259],[27.16539,48.32397],[27.16604,48.32624],[27.17056,48.33484],[27.1806,48.34283],[27.18163,48.34763],[27.18247,48.34886],[27.18391,48.34875],[27.18556,48.35177],[27.18651,48.35238],[27.19258,48.35422],[27.19749,48.35508],[27.19899,48.35375],[27.20058,48.35336],[27.20238,48.35345],[27.21367,48.34924],[27.22047,48.34894],[27.23504,48.34733],[27.2473,48.34502],[27.25122,48.34332],[27.25545,48.34617],[27.25985,48.34802],[27.26129,48.34944],[27.27689,48.35495],[27.29847,48.36173],[27.30843,48.37242],[27.31154,48.3751],[27.31291,48.37497],[27.31802,48.37293],[27.32439,48.37173],[27.33197,48.3674],[27.33828,48.37184],[27.34673,48.37207],[27.3686,48.38156],[27.37216,48.38059],[27.37598,48.38081],[27.38177,48.38053],[27.39593,48.37827],[27.42282,48.37583],[27.4358,48.37804],[27.4399,48.38433],[27.44685,48.40782],[27.44895,48.41218],[27.44979,48.41274],[27.46073,48.43037],[27.4638,48.43791],[27.48005,48.43389],[27.48058,48.43559],[27.48724,48.44456],[27.49022,48.44666],[27.49612,48.44853],[27.50176,48.45548],[27.50359,48.45507],[27.50477,48.45529],[27.50968,48.45743],[27.51938,48.46041],[27.53594,48.46265],[27.57176,48.46664],[27.57571,48.46677],[27.57826,48.46647],[27.57961,48.46449],[27.57952,48.46331],[27.57568,48.46035],[27.57579,48.45681],[27.57716,48.45273],[27.5821,48.45117],[27.57882,48.45456],[27.57841,48.45752],[27.5809,48.45833],[27.58096,48.45936],[27.58227,48.46007],[27.58553,48.46025],[27.58227,48.46007],[27.58096,48.45936],[27.5809,48.45833],[27.57849,48.45762],[27.57882,48.45456],[27.5821,48.45117],[27.59553,48.44329],[27.59804,48.44048],[27.60034,48.43902],[27.60182,48.43915],[27.60356,48.44054],[27.60635,48.44151],[27.61617,48.44007],[27.62047,48.43885],[27.62587,48.43827],[27.62834,48.43733],[27.63566,48.4366],[27.64207,48.43664],[27.65267,48.43451],[27.65589,48.43451],[27.6601,48.43353],[27.66574,48.43327],[27.66986,48.43194],[27.67658,48.43203],[27.67808,48.43233],[27.67958,48.43342],[27.68158,48.43709],[27.68625,48.43851],[27.68911,48.44022],[27.69301,48.4413],[27.69576,48.44149],[27.69713,48.44312],[27.69623,48.44432],[27.70175,48.4466],[27.71338,48.44919],[27.72385,48.45078],[27.73095,48.45254],[27.73625,48.45168],[27.74273,48.45198],[27.74408,48.45136],[27.75767,48.45065],[27.76719,48.44943],[27.77009,48.44861],[27.77241,48.44743],[27.77771,48.44681],[27.77807,48.44561],[27.78129,48.44434],[27.78217,48.44321],[27.78451,48.44269],[27.78339,48.44042],[27.78571,48.44065],[27.7858,48.44005],[27.78882,48.43814],[27.79073,48.43561],[27.79269,48.43647],[27.79721,48.43417],[27.79805,48.43055],[27.79919,48.42949],[27.80017,48.42894],[27.80341,48.42844],[27.80728,48.42868],[27.80927,48.42743],[27.81131,48.42503],[27.81279,48.42179],[27.81627,48.41896],[27.81899,48.41784],[27.82369,48.41683],[27.82775,48.41525],[27.83365,48.41411],[27.83556,48.4131],[27.83878,48.41261],[27.84236,48.41278],[27.85182,48.41033],[27.85813,48.40836],[27.85931,48.40765],[27.86397,48.40656],[27.86596,48.40514],[27.86766,48.40484],[27.87311,48.40003],[27.87596,48.39544],[27.87686,48.39276],[27.87669,48.38986],[27.87532,48.38506],[27.87452,48.38531],[27.87304,48.38512],[27.86579,48.38364],[27.86358,48.38235],[27.86277,48.38098],[27.86279,48.37991],[27.85693,48.3787],[27.85676,48.37716],[27.85343,48.37523],[27.85332,48.3736],[27.85167,48.37289],[27.85199,48.37102],[27.85038,48.36802],[27.84845,48.3621],[27.84365,48.35943],[27.84116,48.35495],[27.84805,48.34379],[27.85124,48.33506],[27.85562,48.33723]]}},{"type":"Feature","properties":{"name":"TET_MD-02-REQUIRES PERMIT_20260904","country":"MD","lengthKm":25.3},"geometry":{"type":"LineString","coordinates":[[27.85562,48.33723],[27.87103,48.34386],[27.87204,48.34272],[27.87478,48.34201],[27.88227,48.34416],[27.88388,48.34193],[27.88019,48.34124],[27.88062,48.341],[27.88536,48.3413],[27.88706,48.3413],[27.88708,48.34102],[27.88952,48.34177],[27.8901,48.34162],[27.8913,48.34203],[27.89339,48.34403],[27.89793,48.34579],[27.90362,48.351],[27.906,48.35119],[27.91441,48.3478],[27.93491,48.33669],[27.93862,48.33399],[27.93821,48.33315],[27.94014,48.33124],[27.9422,48.33064],[27.94564,48.32869],[27.94821,48.32824],[27.95293,48.32618],[27.9542,48.32688],[27.95548,48.32693],[27.96297,48.32412],[27.97171,48.32311],[27.98027,48.3227],[27.98877,48.32381],[27.99866,48.32386],[28.00484,48.32339],[28.01848,48.32375],[28.02151,48.32261],[28.02316,48.32306],[28.02413,48.32379],[28.02593,48.32416],[28.03052,48.32433],[28.03389,48.32366],[28.03473,48.32309],[28.03516,48.32203],[28.04134,48.31993],[28.04372,48.32141],[28.04516,48.32169],[28.04522,48.32246],[28.04659,48.32272],[28.05166,48.32195],[28.05333,48.321],[28.0543,48.31918],[28.05513,48.31982],[28.0564,48.31939],[28.05713,48.31954],[28.06,48.3183],[28.06219,48.32032],[28.06462,48.3201],[28.07127,48.31731],[28.08311,48.30783],[28.08698,48.30146],[28.08794,48.29901],[28.08902,48.29813],[28.0917,48.2941],[28.09097,48.2883],[28.08962,48.28611],[28.08741,48.28528],[28.08738,48.2835],[28.08659,48.28171],[28.08687,48.2785],[28.08526,48.27749],[28.08455,48.27463]]}},{"type":"Feature","properties":{"name":"TET_MD-03_20260904","country":"MD","lengthKm":464.1},"geometry":{"type":"LineString","coordinates":[[28.08455,48.27463],[28.08131,48.2668],[28.0811,48.26511],[28.08039,48.26506],[28.07981,48.26399],[28.07869,48.25948],[28.07644,48.25734],[28.075,48.25373],[28.07187,48.24959],[28.07221,48.24822],[28.07178,48.24625],[28.06895,48.24717],[28.06773,48.24663],[28.06666,48.24384],[28.0658,48.2429],[28.06636,48.24152],[28.06488,48.24071],[28.06442,48.23992],[28.06522,48.23801],[28.06488,48.23595],[28.06631,48.23324],[28.06968,48.23178],[28.06342,48.22914],[28.07318,48.21925],[28.07938,48.21711],[28.08717,48.21498],[28.09417,48.21151],[28.09829,48.20736],[28.12421,48.19103],[28.132,48.18468],[28.1373,48.18247],[28.14294,48.17889],[28.14305,48.17835],[28.14502,48.17756],[28.15744,48.16964],[28.16013,48.16887],[28.20169,48.16687],[28.22212,48.16677],[28.22855,48.16705],[28.24411,48.16404],[28.26289,48.16282],[28.28286,48.16224],[28.28986,48.16166],[28.29439,48.16046],[28.29525,48.16093],[28.29578,48.16005],[28.29761,48.16258],[28.30409,48.1614],[28.30198,48.15734],[28.30233,48.15842],[28.29859,48.15923],[28.29484,48.15902],[28.29349,48.15958],[28.29254,48.15717],[28.29151,48.15745],[28.29176,48.15795],[28.29151,48.15745],[28.29104,48.15754],[28.28855,48.15891],[28.27353,48.14906],[28.27246,48.14778],[28.26372,48.14091],[28.26293,48.13967],[28.25017,48.13157],[28.24371,48.1292],[28.24135,48.12789],[28.2374,48.11881],[28.23452,48.11537],[28.22449,48.11129],[28.20741,48.10283],[28.20141,48.1008],[28.20078,48.10023],[28.20194,48.09212],[28.21222,48.085],[28.21221,48.08428],[28.20998,48.08173],[28.21021,48.08073],[28.2168,48.07791],[28.21594,48.07574],[28.22264,48.07346],[28.22369,48.07242],[28.22562,48.06688],[28.22666,48.05772],[28.22636,48.05638],[28.22518,48.05492],[28.22527,48.05276],[28.22902,48.04702],[28.23095,48.04201],[28.22607,48.02409],[28.22497,48.01617],[28.22403,48.01481],[28.22398,48.01372],[28.22536,48.01331],[28.22641,48.0115],[28.22763,48.00627],[28.2291,48.0041],[28.23382,47.99831],[28.23805,47.9941],[28.23332,47.99456],[28.23037,47.99345],[28.23347,47.99458],[28.23811,47.994],[28.24215,47.9907],[28.2414,47.99003],[28.23849,47.9898],[28.23668,47.98915],[28.23358,47.98869],[28.22592,47.9852],[28.2223,47.98522],[28.21885,47.98569],[28.21782,47.98521],[28.2112,47.96799],[28.20881,47.95572],[28.21101,47.95403],[28.21089,47.95327],[28.21484,47.94846],[28.20622,47.94502],[28.20553,47.94395],[28.20356,47.94302],[28.20427,47.93772],[28.20696,47.93377],[28.19979,47.93066],[28.21553,47.91295],[28.21646,47.91289],[28.21965,47.91378],[28.22593,47.90558],[28.24131,47.88748],[28.27901,47.89158],[28.28098,47.89256],[28.28755,47.89889],[28.29131,47.90119],[28.29582,47.9026],[28.30467,47.90431],[28.30765,47.90423],[28.30921,47.90339],[28.31003,47.90201],[28.31249,47.88741],[28.31431,47.88676],[28.31689,47.88693],[28.32001,47.88645],[28.32024,47.88574],[28.32404,47.88359],[28.32442,47.88185],[28.32503,47.88125],[28.32656,47.88104],[28.32837,47.88158],[28.33096,47.88373],[28.33414,47.88552],[28.33667,47.88637],[28.34621,47.88696],[28.34914,47.88753],[28.34969,47.88592],[28.34882,47.88392],[28.34723,47.88391],[28.34585,47.88281],[28.3441,47.88292],[28.34395,47.88227],[28.34479,47.88147],[28.34728,47.88031],[28.34679,47.88118],[28.34705,47.88188],[28.34763,47.88213],[28.34872,47.88194],[28.34854,47.88115],[28.35052,47.87911],[28.35116,47.87734],[28.35117,47.87599],[28.35057,47.87512],[28.35095,47.8735],[28.35215,47.87348],[28.35722,47.87761],[28.35909,47.87835],[28.36221,47.87858],[28.36354,47.87926],[28.36542,47.87906],[28.36829,47.878],[28.37019,47.87679],[28.37199,47.87483],[28.37278,47.87252],[28.37387,47.87126],[28.37398,47.87017],[28.3733,47.86848],[28.37079,47.86609],[28.37068,47.86556],[28.37129,47.86523],[28.37041,47.86352],[28.37077,47.86282],[28.37338,47.86099],[28.375,47.85886],[28.37535,47.85893],[28.37411,47.85484],[28.37462,47.85438],[28.37223,47.85073],[28.37272,47.84801],[28.37359,47.84712],[28.37678,47.84595],[28.37921,47.84644],[28.37964,47.84791],[28.37935,47.8485],[28.3784,47.84875],[28.37764,47.8501],[28.37827,47.85193],[28.37961,47.85315],[28.3816,47.85368],[28.38272,47.85348],[28.38344,47.85274],[28.38461,47.85259],[28.38587,47.85184],[28.38793,47.85016],[28.3935,47.84837],[28.39456,47.84632],[28.39411,47.84283],[28.39561,47.8413],[28.3976,47.84104],[28.39884,47.84191],[28.39919,47.84274],[28.39866,47.84494],[28.40225,47.84505],[28.40352,47.84569],[28.40574,47.84444],[28.40903,47.84148],[28.40926,47.83973],[28.41051,47.83742],[28.41546,47.83402],[28.41618,47.83215],[28.41454,47.83039],[28.41166,47.82901],[28.41104,47.82612],[28.41049,47.82618],[28.41001,47.82771],[28.40942,47.82744],[28.40811,47.8234],[28.40783,47.81924],[28.40543,47.81423],[28.40417,47.81318],[28.40222,47.81277],[28.40398,47.81023],[28.40413,47.80894],[28.40456,47.80884],[28.40639,47.80149],[28.40875,47.8002],[28.41171,47.7998],[28.41376,47.80028],[28.41667,47.80199],[28.41784,47.80467],[28.41718,47.80973],[28.41575,47.81185],[28.41278,47.81482],[28.4123,47.81679],[28.41311,47.81739],[28.41551,47.81784],[28.41807,47.81781],[28.42318,47.81476],[28.42469,47.81241],[28.42557,47.80588],[28.42497,47.80389],[28.42274,47.80114],[28.42228,47.79903],[28.42291,47.79786],[28.42488,47.79653],[28.42619,47.795],[28.42697,47.7932],[28.4256,47.7924],[28.40691,47.79165],[28.40713,47.78992],[28.40843,47.78826],[28.41059,47.78003],[28.41324,47.77742],[28.41508,47.77044],[28.41736,47.76701],[28.42222,47.76671],[28.42437,47.76574],[28.42706,47.76653],[28.42852,47.76598],[28.43032,47.76681],[28.43209,47.767],[28.43557,47.76504],[28.43691,47.7645],[28.4384,47.76453],[28.44098,47.7632],[28.44246,47.76173],[28.44477,47.75697],[28.45029,47.75237],[28.4521,47.74935],[28.4518,47.74885],[28.45525,47.74509],[28.45562,47.74402],[28.45486,47.74149],[28.45352,47.74082],[28.45251,47.73955],[28.44968,47.73861],[28.44944,47.73781],[28.44854,47.7379],[28.44906,47.73696],[28.45036,47.7369],[28.44899,47.73469],[28.44727,47.72983],[28.44316,47.72418],[28.44161,47.7246],[28.44086,47.7223],[28.44211,47.72025],[28.44198,47.71928],[28.43805,47.71896],[28.43731,47.71836],[28.43685,47.71701],[28.43718,47.71489],[28.43872,47.71335],[28.44151,47.71219],[28.44342,47.71185],[28.45062,47.71162],[28.45105,47.71307],[28.45703,47.71209],[28.4662,47.70751],[28.47004,47.70658],[28.47168,47.70657],[28.47445,47.70718],[28.48062,47.70971],[28.4835,47.71029],[28.48528,47.70988],[28.48665,47.7088],[28.48699,47.70819],[28.48644,47.70777],[28.48742,47.70605],[28.48874,47.70752],[28.48878,47.70699],[28.48926,47.70733],[28.49285,47.70735],[28.49111,47.7065],[28.49009,47.70526],[28.49054,47.70445],[28.49262,47.70329],[28.49089,47.70262],[28.49003,47.70173],[28.48972,47.6982],[28.49183,47.69668],[28.4916,47.6963],[28.49281,47.6954],[28.49707,47.69287],[28.49805,47.69133],[28.49708,47.68871],[28.49522,47.68783],[28.49529,47.68739],[28.49304,47.68525],[28.49316,47.68392],[28.49444,47.68366],[28.49395,47.68309],[28.49483,47.68259],[28.49418,47.68194],[28.49478,47.6815],[28.48848,47.67855],[28.48675,47.67511],[28.48533,47.6747],[28.486,47.67243],[28.48511,47.67047],[28.48586,47.66922],[28.48502,47.66832],[28.4839,47.66517],[28.48299,47.66074],[28.48162,47.66014],[28.4815,47.65724],[28.47832,47.65175],[28.47612,47.64595],[28.47643,47.64158],[28.47618,47.63886],[28.47531,47.6367],[28.47563,47.63401],[28.47324,47.6289],[28.47377,47.6277],[28.4728,47.62577],[28.46847,47.62017],[28.46336,47.61513],[28.46334,47.61416],[28.46516,47.6128],[28.46401,47.60645],[28.46664,47.60247],[28.46923,47.60292],[28.47312,47.60422],[28.47902,47.60402],[28.48194,47.60346],[28.48562,47.60396],[28.49415,47.6027],[28.50021,47.6013],[28.50664,47.59801],[28.50902,47.59802],[28.51098,47.59863],[28.51422,47.59455],[28.52244,47.59842],[28.52802,47.59342],[28.54175,47.58728],[28.55023,47.58207],[28.56722,47.57308],[28.57312,47.56477],[28.57514,47.56046],[28.57439,47.54904],[28.57894,47.53812],[28.58106,47.53454],[28.59913,47.5319],[28.60911,47.5269],[28.642,47.49418],[28.67889,47.46319],[28.72399,47.42972],[28.74485,47.41834],[28.74852,47.4142],[28.75081,47.40933],[28.75292,47.40744],[28.75568,47.40618],[28.79806,47.39191],[28.81092,47.3883],[28.81321,47.38721],[28.81692,47.38412],[28.82171,47.37869],[28.82439,47.3783],[28.82081,47.37062],[28.81825,47.37047],[28.81726,47.36988],[28.81905,47.36841],[28.82145,47.3646],[28.82179,47.36453],[28.82211,47.36535],[28.82471,47.3645],[28.83376,47.36369],[28.84195,47.36415],[28.8432,47.36466],[28.84414,47.36562],[28.84846,47.36719],[28.85586,47.3748],[28.85881,47.37632],[28.86315,47.37703],[28.86635,47.37641],[28.87766,47.37671],[28.87889,47.37732],[28.88069,47.37748],[28.88024,47.3784],[28.88061,47.37851],[28.88094,47.37762],[28.88415,47.37801],[28.88813,47.37728],[28.8876,47.37316],[28.89148,47.36598],[28.89378,47.35908],[28.89632,47.35611],[28.89966,47.35485],[28.90412,47.35406],[28.90697,47.35456],[28.91208,47.35381],[28.91432,47.35425],[28.91596,47.35626],[28.91752,47.35993],[28.9174,47.3643],[28.91995,47.36513],[28.92231,47.36514],[28.92236,47.36465],[28.92478,47.36472],[28.92619,47.36333],[28.92678,47.35999],[28.92611,47.35816],[28.92319,47.35448],[28.92345,47.35363],[28.92228,47.3513],[28.92287,47.35026],[28.92435,47.35023],[28.92468,47.34976],[28.92167,47.34956],[28.91967,47.34802],[28.91823,47.34761],[28.91531,47.34431],[28.91601,47.34279],[28.9184,47.34203],[28.92252,47.34169],[28.92256,47.34266],[28.92363,47.34307],[28.92677,47.34299],[28.93055,47.34235],[28.93146,47.34026],[28.93226,47.33961],[28.93146,47.33476],[28.93199,47.33323],[28.93126,47.33339],[28.93076,47.33415],[28.93096,47.33357],[28.93188,47.33317],[28.9362,47.33471],[28.9386,47.33687],[28.94154,47.34106],[28.94462,47.34249],[28.94747,47.34148],[28.94892,47.33932],[28.94986,47.33933],[28.94941,47.33876],[28.94974,47.33789],[28.95207,47.33675],[28.95377,47.3335],[28.95598,47.33165],[28.95815,47.33181],[28.96457,47.33396],[28.96768,47.33458],[28.96889,47.33468],[28.96975,47.33433],[28.97132,47.33318],[28.97357,47.3303],[28.97483,47.32752],[28.9736,47.32577],[28.97313,47.32326],[28.97131,47.32244],[28.96793,47.32223],[28.96371,47.32249],[28.96212,47.32311],[28.96103,47.3231],[28.95968,47.32229],[28.96008,47.32136],[28.95971,47.3208],[28.96036,47.31963],[28.96223,47.31745],[28.96668,47.31461],[28.97188,47.31262],[28.97644,47.31117],[28.98305,47.31048],[28.98924,47.3093],[28.98821,47.30788],[28.98723,47.30733],[28.98024,47.30784],[28.97456,47.30908],[28.97145,47.30572],[28.96551,47.30683],[28.9638,47.30765],[28.96251,47.30751],[28.96104,47.30618],[28.96179,47.30506],[28.96433,47.30302],[28.97235,47.29995],[28.97882,47.29887],[28.9855,47.29828],[29.00027,47.29813],[29.00789,47.29448],[29.01041,47.29392],[29.01471,47.29014],[29.01969,47.28759],[29.03022,47.2808],[29.03459,47.27108],[29.039,47.26464],[29.0422,47.26397],[29.04693,47.26406],[29.0491,47.26564],[29.05236,47.26714],[29.0581,47.26951],[29.0595,47.26969],[29.06607,47.26904],[29.06933,47.26814],[29.07192,47.26685],[29.07343,47.26672],[29.07432,47.26604],[29.07548,47.26453],[29.07566,47.26109],[29.07667,47.2586],[29.07477,47.25537],[29.07248,47.25366],[29.06786,47.249],[29.06377,47.24625],[29.06322,47.24336],[29.06365,47.24114],[29.06796,47.24009],[29.06988,47.24194],[29.07064,47.24216],[29.07452,47.24225],[29.07703,47.24152],[29.08379,47.24278],[29.08664,47.24241],[29.0883,47.24264],[29.09022,47.24198],[29.09432,47.23906],[29.09798,47.23512],[29.10118,47.23405],[29.10674,47.2347],[29.11409,47.23832],[29.12219,47.24403],[29.12531,47.2471],[29.12805,47.24832],[29.12631,47.24993],[29.12663,47.25235],[29.12182,47.25298],[29.12015,47.25366],[29.12538,47.25896],[29.1278,47.25971],[29.12941,47.25724],[29.13119,47.25597],[29.13332,47.25338],[29.13579,47.25284],[29.13512,47.25016],[29.13699,47.24786],[29.14623,47.24179],[29.14978,47.24037],[29.15432,47.2364],[29.15651,47.23535],[29.13295,47.22816],[29.12076,47.22261],[29.09338,47.21952],[29.08208,47.21892],[29.06955,47.21447],[29.06802,47.21469],[29.06703,47.21553],[29.06637,47.21941],[29.06459,47.22222],[29.06193,47.22332],[29.05735,47.22438],[29.04958,47.22504],[29.04339,47.22496],[29.03566,47.22275],[29.03151,47.22013],[29.02734,47.21967],[29.01603,47.22149],[29.01276,47.22275],[29.00303,47.22331],[28.9943,47.22447],[28.98775,47.2299],[28.97919,47.23422],[28.97708,47.2347],[28.97306,47.23465],[28.97144,47.23395],[28.9699,47.22984],[28.96934,47.22955],[28.95659,47.23145],[28.95601,47.23171],[28.95453,47.23424],[28.95352,47.2349],[28.95222,47.23512],[28.94857,47.23478],[28.93892,47.23177],[28.94167,47.22843],[28.94193,47.22741],[28.93916,47.22581],[28.93697,47.22381],[28.935,47.22048],[28.93422,47.21773],[28.93184,47.21627],[28.92739,47.20871],[28.92332,47.20499],[28.92027,47.19835],[28.91352,47.18653],[28.91049,47.18708],[28.90675,47.18284],[28.89252,47.18709],[28.88915,47.18452],[28.87808,47.17797],[28.87382,47.1756],[28.86816,47.17325],[28.86729,47.17221],[28.86886,47.1678],[28.86821,47.16714],[28.86536,47.16593],[28.86227,47.17019],[28.85138,47.16724],[28.84901,47.16568],[28.85095,47.16258],[28.84687,47.15929],[28.84857,47.15836],[28.8446,47.15636],[28.84215,47.15645],[28.83918,47.15542],[28.83845,47.15306],[28.83643,47.15205],[28.83102,47.15169],[28.83049,47.15263],[28.82858,47.15276],[28.82405,47.15409],[28.82186,47.15036],[28.821,47.1506],[28.82008,47.14886],[28.81617,47.13798],[28.80424,47.14137],[28.80139,47.13545],[28.79673,47.13017],[28.80027,47.12654],[28.8013,47.12274],[28.80083,47.1197],[28.80126,47.11787],[28.80081,47.11719],[28.79918,47.11656],[28.81341,47.10697],[28.818,47.10062],[28.81598,47.09974],[28.81555,47.09873],[28.8145,47.09779],[28.8133,47.09755],[28.81283,47.09678],[28.81345,47.09579],[28.813,47.09534],[28.81345,47.09296],[28.81467,47.09073],[28.81238,47.08957],[28.81341,47.0886],[28.81356,47.08704],[28.80534,47.0833],[28.80117,47.08094],[28.79944,47.07948],[28.79622,47.07635],[28.79236,47.07028],[28.78448,47.05964],[28.78345,47.05964],[28.78238,47.05803],[28.78081,47.0594],[28.77974,47.06112],[28.77851,47.0673],[28.77375,47.07114],[28.77111,47.0726],[28.76935,47.07107],[28.76914,47.06983],[28.75742,47.07064],[28.75457,47.07212],[28.73854,47.07646],[28.73652,47.07356],[28.7353,47.07326],[28.73335,47.07174],[28.73674,47.07013],[28.73227,47.06612],[28.72403,47.06863],[28.72041,47.06918],[28.7127,47.07142],[28.7059,47.07112],[28.69127,47.07266],[28.68509,47.07223],[28.68157,47.06921],[28.67421,47.06511],[28.67406,47.06034],[28.67289,47.05808],[28.66029,47.06966],[28.65436,47.0678],[28.6514,47.06731],[28.6495,47.06745],[28.64631,47.06655],[28.64484,47.06579],[28.64337,47.06435],[28.64135,47.0638],[28.64063,47.06219],[28.63794,47.06299],[28.63523,47.0627],[28.63134,47.06368],[28.62577,47.06155],[28.62325,47.06102],[28.61798,47.06489],[28.61483,47.06615],[28.61153,47.0664],[28.60922,47.06709],[28.60419,47.06589],[28.60357,47.06657],[28.60162,47.06636],[28.60046,47.06573],[28.59983,47.06438],[28.59634,47.06428],[28.59373,47.06377],[28.59198,47.06252],[28.59153,47.06084],[28.59196,47.05972],[28.5894,47.05272],[28.58861,47.05174],[28.57644,47.05485],[28.57268,47.0567],[28.57047,47.05639],[28.56684,47.05093],[28.5693,47.04973],[28.56815,47.04853],[28.56776,47.04596],[28.54911,47.05191],[28.53957,47.05681],[28.5332,47.05905],[28.52464,47.06387],[28.52239,47.0656],[28.51879,47.06959],[28.51595,47.07588],[28.50871,47.08069],[28.50563,47.08387],[28.50328,47.08753],[28.49138,47.09861],[28.49273,47.10121],[28.49583,47.10476],[28.49827,47.10635],[28.49938,47.10835],[28.50228,47.10915],[28.50592,47.10806],[28.50848,47.10914],[28.51018,47.11074],[28.50676,47.11551],[28.50496,47.11632],[28.50611,47.1177],[28.50443,47.11996],[28.50349,47.12309],[28.50156,47.12536],[28.49874,47.13006],[28.49983,47.13316],[28.49825,47.13591],[28.49604,47.13837],[28.49636,47.13973],[28.49852,47.13862],[28.49916,47.13868],[28.49942,47.14128],[28.50056,47.14272],[28.49665,47.14704],[28.49903,47.15114],[28.49873,47.15205],[28.50062,47.15272],[28.50132,47.15374],[28.50052,47.15441],[28.50139,47.15674],[28.50375,47.1587],[28.5045,47.15842],[28.50902,47.15935],[28.51023,47.15997],[28.50852,47.16279],[28.50651,47.16322],[28.50389,47.16892],[28.50215,47.16888],[28.49842,47.16734],[28.49601,47.1672],[28.49531,47.16785],[28.4955,47.16862],[28.49343,47.1695],[28.49301,47.16949],[28.49266,47.16873],[28.49049,47.16778],[28.48586,47.16841],[28.4855,47.16859],[28.48592,47.1694],[28.48517,47.16832],[28.48339,47.16866],[28.48233,47.16683],[28.48261,47.16736],[28.48134,47.16761],[28.4771,47.16348],[28.4728,47.16182],[28.47238,47.161],[28.46886,47.16209],[28.46862,47.16265],[28.46703,47.1622],[28.46626,47.16239],[28.46527,47.16126],[28.46192,47.162],[28.45793,47.15643],[28.46029,47.15555],[28.46181,47.15394],[28.4688,47.14416],[28.47076,47.14245],[28.47116,47.14227],[28.47218,47.14269],[28.47339,47.14148],[28.47225,47.14085],[28.469,47.14003],[28.46347,47.14003],[28.45748,47.14119],[28.45051,47.14367],[28.4488,47.14335],[28.44726,47.14498],[28.44566,47.14534],[28.4468,47.14416],[28.44558,47.14362],[28.44531,47.14237],[28.44333,47.14164],[28.44277,47.13954],[28.44198,47.13938],[28.44189,47.13756],[28.44046,47.13819],[28.44036,47.14011],[28.43941,47.14171],[28.43724,47.14281],[28.43758,47.14355],[28.4346,47.14703],[28.43413,47.14914],[28.43269,47.15109],[28.42884,47.15484],[28.42797,47.1544],[28.42365,47.15986],[28.42152,47.15933],[28.41404,47.16282],[28.40778,47.16723],[28.40395,47.16925],[28.37262,47.18419],[28.36704,47.1866],[28.3609,47.18836],[28.35902,47.18942],[28.35519,47.19058],[28.3398,47.19127],[28.33267,47.19238],[28.32496,47.19577],[28.31534,47.19747],[28.3138,47.19764],[28.31263,47.19622],[28.30563,47.19664],[28.29948,47.19942],[28.29767,47.19957],[28.29641,47.20042],[28.29565,47.19547],[28.29099,47.19845],[28.28978,47.2003],[28.28793,47.20181],[28.28827,47.20228],[28.28735,47.20515],[28.28792,47.20681],[28.28733,47.20791],[28.28219,47.20789],[28.27892,47.20864],[28.27643,47.21091],[28.27607,47.2121],[28.27323,47.21488],[28.27291,47.21619],[28.27069,47.21926],[28.27327,47.22098],[28.27299,47.2212],[28.27172,47.22091],[28.25893,47.22212],[28.25684,47.22339],[28.25534,47.22558],[28.25137,47.2268],[28.2496,47.2268],[28.24131,47.22542],[28.23416,47.227],[28.2295,47.22323],[28.22763,47.22222],[28.22451,47.22147],[28.22191,47.22136],[28.21724,47.22205],[28.21386,47.22352],[28.21198,47.22378],[28.21153,47.22336],[28.21031,47.22351],[28.21087,47.22482],[28.20922,47.22472],[28.20854,47.2235],[28.2053,47.22186],[28.20307,47.22349],[28.19972,47.22416],[28.19532,47.22639],[28.19332,47.22665],[28.19153,47.22547],[28.18746,47.22617],[28.1865,47.2251],[28.18244,47.226],[28.17957,47.22554],[28.1774,47.22618],[28.17109,47.22661],[28.16007,47.22321],[28.16194,47.22535],[28.1624,47.22655],[28.16416,47.22752],[28.16251,47.22894],[28.15867,47.22888],[28.15712,47.22856],[28.15555,47.22717],[28.15286,47.22697],[28.14887,47.22608],[28.1476,47.2248],[28.1431,47.22377],[28.14014,47.2241],[28.13679,47.2239],[28.11741,47.22083],[28.11472,47.22112],[28.1124,47.22],[28.11133,47.22049],[28.10822,47.22079],[28.10391,47.22038],[28.10229,47.22124],[28.09943,47.21814],[28.09761,47.21809],[28.09385,47.22048],[28.09213,47.22101],[28.08956,47.21909],[28.08632,47.22053],[28.0861,47.2194],[28.08495,47.2199],[28.08334,47.21889],[28.0834,47.21804],[28.08258,47.21755],[28.07594,47.21453],[28.07375,47.21411],[28.07252,47.2126],[28.06968,47.21338],[28.0677,47.21146],[28.06349,47.21055],[28.0631,47.21019],[28.06468,47.20272],[28.06424,47.20143],[28.06533,47.19757],[28.06506,47.19637],[28.06179,47.19972],[28.05983,47.20364],[28.05521,47.21534],[28.05472,47.21789],[28.05211,47.22109],[28.04924,47.2211],[28.04758,47.22203],[28.04482,47.22535],[28.04282,47.22477],[28.03701,47.22527],[28.03901,47.22349],[28.04046,47.22286],[28.04327,47.22281],[28.04352,47.22249],[28.04331,47.21921],[28.04421,47.21838],[28.04312,47.21471],[28.04427,47.21177],[28.03742,47.21032],[28.03586,47.21025],[28.03458,47.21091],[28.02767,47.2176],[28.02693,47.22295],[28.02664,47.23146],[28.02466,47.23611],[28.02107,47.24114],[28.01039,47.24539],[28.00521,47.24554],[28.00205,47.2462],[27.9945,47.25696],[27.99192,47.25834],[27.98366,47.25975],[27.97864,47.2651],[27.97756,47.27902],[27.98041,47.28439],[27.98557,47.28858],[27.99267,47.29149],[27.9948,47.29482],[27.99586,47.29555],[27.99907,47.29626],[28.00074,47.29735],[28.00422,47.29844],[28.00955,47.29739],[28.01145,47.29772],[28.02228,47.29741],[28.03198,47.29476],[28.04002,47.2962],[28.04454,47.29593],[28.05244,47.29625],[28.05555,47.2983],[28.05762,47.29896],[28.05971,47.2989],[28.06239,47.29815],[28.06734,47.29801],[28.07832,47.30128],[28.08603,47.30641],[28.08783,47.30697],[28.0893,47.30666],[28.09156,47.30501],[28.094,47.30397],[28.09984,47.30289],[28.10289,47.3028],[28.10594,47.30374],[28.10886,47.30541],[28.11007,47.30683],[28.10988,47.30853],[28.10782,47.31184],[28.10792,47.31273],[28.11311,47.31793],[28.10838,47.3216],[28.10798,47.32153],[28.1005,47.32685],[28.09219,47.32882],[28.08841,47.33052],[28.08093,47.3312],[28.07606,47.33442],[28.06775,47.33631],[28.06578,47.33788],[28.06367,47.33869],[28.06249,47.33874],[28.0608,47.33818],[28.05865,47.33839],[28.05619,47.34043],[28.05413,47.34069],[28.05198,47.3417],[28.04962,47.34369],[28.04852,47.34562],[28.04698,47.34668],[28.04421,47.34708],[28.04192,47.34633],[28.03936,47.34622],[28.03728,47.34678],[28.03578,47.34925],[28.03164,47.35328],[28.02084,47.35773],[28.01754,47.35991],[28.00462,47.36464],[27.99763,47.36616],[27.99572,47.36923],[27.99544,47.37142],[27.99138,47.3729],[27.99085,47.37442],[27.98924,47.3744],[27.98909,47.37532],[27.98604,47.37502],[27.98145,47.37562],[27.96851,47.37298],[27.966,47.37039],[27.96151,47.36764],[27.95885,47.36303],[27.95551,47.35882],[27.95089,47.35547],[27.94851,47.35466],[27.94231,47.35534],[27.93836,47.35457],[27.93085,47.34981],[27.92051,47.34558],[27.91748,47.34466],[27.90873,47.34305],[27.9074,47.34243],[27.90637,47.34086],[27.90656,47.33438],[27.90611,47.33316],[27.90205,47.33084],[27.89817,47.32957],[27.8953,47.32588],[27.89289,47.32513],[27.88909,47.32239],[27.87925,47.31764],[27.87791,47.31668],[27.86611,47.30342],[27.85983,47.28925],[27.84317,47.27325],[27.84,47.27138],[27.83139,47.26874],[27.8212,47.26419],[27.81144,47.26157],[27.80178,47.25413],[27.79082,47.24814],[27.78899,47.24758],[27.77769,47.24924],[27.77114,47.24836],[27.76732,47.24911],[27.76608,47.24973],[27.76179,47.2581],[27.75932,47.26076],[27.75842,47.26355],[27.75902,47.27511],[27.7596,47.27584],[27.76121,47.27642],[27.76179,47.28378],[27.76065,47.28466],[27.75541,47.28638],[27.747,47.2885],[27.74153,47.29569],[27.73958,47.30101],[27.73072,47.30754],[27.72445,47.30842],[27.71906,47.30992],[27.71771,47.3097],[27.71739,47.30833],[27.71653,47.30988],[27.71569,47.31026],[27.70977,47.31033],[27.69994,47.30906],[27.69158,47.3102],[27.67776,47.31451],[27.65862,47.31689],[27.65111,47.3193],[27.64188,47.32305],[27.63446,47.32528],[27.6301,47.32627],[27.61905,47.32773],[27.6151,47.32794],[27.61469,47.3276],[27.61263,47.32751],[27.61225,47.32402],[27.61072,47.32009],[27.6106,47.31824]]}},{"type":"Feature","properties":{"name":"TET_MD-04_20260904","country":"MD","lengthKm":70.2},"geometry":{"type":"LineString","coordinates":[[28.10842,47.32155],[28.11269,47.32346],[28.11554,47.32269],[28.11785,47.32407],[28.12138,47.32276],[28.12084,47.32847],[28.12121,47.33144],[28.12211,47.33368],[28.12324,47.33464],[28.12332,47.33545],[28.12556,47.33619],[28.12975,47.33903],[28.12055,47.34097],[28.11952,47.34066],[28.11914,47.3418],[28.11576,47.34376],[28.11723,47.3478],[28.11997,47.3482],[28.11859,47.35121],[28.12761,47.35151],[28.13037,47.35054],[28.13536,47.35041],[28.13772,47.34997],[28.14417,47.34738],[28.14649,47.34767],[28.14899,47.34687],[28.15343,47.34644],[28.15118,47.34852],[28.15113,47.34932],[28.14676,47.35081],[28.14676,47.35226],[28.14762,47.35337],[28.15308,47.35163],[28.15459,47.35512],[28.15527,47.35589],[28.15619,47.35585],[28.15692,47.35672],[28.15698,47.35728],[28.15574,47.35726],[28.15535,47.35763],[28.15585,47.35932],[28.15436,47.36022],[28.15349,47.36186],[28.15447,47.36255],[28.15528,47.36262],[28.15605,47.36345],[28.15925,47.36972],[28.15931,47.37228],[28.16136,47.37181],[28.1642,47.37252],[28.16429,47.37286],[28.16316,47.37425],[28.16084,47.37494],[28.15939,47.37797],[28.15783,47.3846],[28.15897,47.38629],[28.16307,47.38869],[28.1629,47.38967],[28.16632,47.39502],[28.16683,47.39799],[28.16852,47.39793],[28.16851,47.39976],[28.16921,47.40085],[28.1705,47.40139],[28.17083,47.40258],[28.17308,47.40296],[28.1727,47.40539],[28.18462,47.40718],[28.19194,47.40729],[28.21164,47.41067],[28.21402,47.41172],[28.21569,47.41478],[28.21938,47.41374],[28.22189,47.41345],[28.22289,47.41401],[28.22343,47.41589],[28.22343,47.42373],[28.22156,47.42927],[28.22151,47.43414],[28.221,47.43613],[28.22186,47.43636],[28.22116,47.43854],[28.22349,47.43912],[28.22267,47.44034],[28.22279,47.44125],[28.22508,47.44265],[28.22551,47.4438],[28.22881,47.44221],[28.23072,47.43997],[28.24203,47.43963],[28.24373,47.4389],[28.24932,47.43516],[28.25411,47.43367],[28.26024,47.43236],[28.2721,47.43075],[28.27436,47.43153],[28.27642,47.43172],[28.27904,47.43156],[28.28081,47.431],[28.28325,47.43212],[28.28563,47.43155],[28.2989,47.4326],[28.31537,47.42812],[28.3173,47.42588],[28.31985,47.42473],[28.33845,47.4227],[28.33867,47.42322],[28.33682,47.42885],[28.33716,47.43017],[28.33914,47.43262],[28.34038,47.43553],[28.34147,47.44882],[28.34314,47.44952],[28.35016,47.45035],[28.35286,47.4495],[28.35524,47.44936],[28.35493,47.45],[28.35644,47.45164],[28.3601,47.45009],[28.36165,47.45033],[28.36253,47.45227],[28.36259,47.45512],[28.36027,47.45656],[28.35908,47.45817],[28.35985,47.45997],[28.35943,47.46131],[28.35969,47.46305],[28.36014,47.46228],[28.36595,47.45827],[28.36809,47.45804],[28.37041,47.45728],[28.37552,47.45478],[28.38084,47.45295],[28.38189,47.45358],[28.38204,47.45295],[28.38568,47.45356],[28.38572,47.45475],[28.38686,47.45638],[28.38834,47.45654],[28.38986,47.45477],[28.39362,47.45898],[28.3975,47.45903],[28.39798,47.46068],[28.39735,47.46473],[28.4003,47.46417],[28.40036,47.46518],[28.40234,47.46724],[28.40591,47.4672],[28.4096,47.46629],[28.41108,47.46637],[28.41465,47.46827],[28.41699,47.46878],[28.42001,47.46868],[28.42424,47.46769],[28.42612,47.46604],[28.42881,47.4648],[28.4295,47.46585],[28.42939,47.47117],[28.43031,47.47143],[28.43085,47.47211],[28.43257,47.47192],[28.43377,47.47339],[28.43489,47.47328],[28.43664,47.4743],[28.43683,47.4777],[28.43484,47.4796],[28.43236,47.47993],[28.43109,47.48079],[28.43219,47.48212],[28.4457,47.48565],[28.44991,47.48528],[28.45662,47.48548],[28.45918,47.48945],[28.45895,47.49037],[28.45601,47.49279],[28.46276,47.5031],[28.45887,47.50712],[28.46001,47.51338],[28.4635,47.5208],[28.46565,47.5307],[28.46778,47.53115],[28.46742,47.53275],[28.46917,47.53708],[28.47017,47.5436],[28.47371,47.54824],[28.47078,47.54956],[28.46717,47.55349],[28.46613,47.55399],[28.46816,47.55338],[28.46967,47.55175],[28.47327,47.5554],[28.46975,47.55792],[28.47408,47.56071],[28.47044,47.56372],[28.47371,47.57051],[28.47453,47.5715],[28.47573,47.57197],[28.47716,47.57161],[28.47856,47.57035],[28.47809,47.57088],[28.47887,47.57178],[28.48132,47.5716],[28.48191,47.57115],[28.48236,47.5687],[28.48179,47.57171],[28.48235,47.57315],[28.48967,47.58001],[28.49652,47.58726],[28.50394,47.59309],[28.50439,47.5948],[28.51068,47.59846]]}}]}