{"type":"FeatureCollection","features":[{"type":"Feature","properties":{"name":"TET_MNE-01_20260728","country":"ME","lengthKm":332.7},"geometry":{"type":"LineString","coordinates":[[18.84863,43.3487],[18.85618,43.35031],[18.85928,43.3497],[18.86216,43.35046],[18.86923,43.34982],[18.87355,43.35205],[18.87445,43.35163],[18.87683,43.35171],[18.88278,43.34972],[18.88786,43.35092],[18.88904,43.35033],[18.88982,43.34911],[18.89201,43.34752],[18.894,43.34743],[18.89563,43.34671],[18.89876,43.34877],[18.90193,43.34911],[18.90588,43.35189],[18.90829,43.35245],[18.91146,43.35139],[18.91292,43.35036],[18.91532,43.3464],[18.91344,43.3478],[18.91202,43.34971],[18.91078,43.34955],[18.90974,43.34864],[18.90906,43.34952],[18.90472,43.34646],[18.90245,43.34618],[18.90073,43.34502],[18.89891,43.34187],[18.89748,43.34055],[18.89774,43.33899],[18.89627,43.33722],[18.89647,43.33606],[18.89595,43.33397],[18.89406,43.33179],[18.89433,43.32948],[18.89179,43.32824],[18.89041,43.32814],[18.89003,43.32775],[18.89033,43.32688],[18.8877,43.32693],[18.88588,43.32544],[18.88449,43.32489],[18.88289,43.32289],[18.88066,43.32218],[18.88024,43.32149],[18.87884,43.32078],[18.87875,43.31937],[18.87793,43.31983],[18.87836,43.31871],[18.87948,43.31782],[18.87897,43.31734],[18.87922,43.31691],[18.87805,43.31644],[18.87744,43.31567],[18.87751,43.31143],[18.87597,43.31041],[18.87519,43.30766],[18.87557,43.30667],[18.87459,43.30576],[18.87514,43.3051],[18.87423,43.30369],[18.87451,43.30238],[18.87345,43.3014],[18.87323,43.30026],[18.87178,43.29892],[18.87134,43.29598],[18.86921,43.29387],[18.86883,43.2929],[18.87106,43.29045],[18.87149,43.28876],[18.87016,43.28709],[18.87046,43.2862],[18.86855,43.28508],[18.86885,43.28448],[18.8679,43.28309],[18.86947,43.28187],[18.86945,43.28134],[18.86855,43.28059],[18.86906,43.27887],[18.86842,43.27881],[18.86863,43.27772],[18.86579,43.27659],[18.86617,43.27578],[18.8627,43.2747],[18.86215,43.27377],[18.86293,43.27329],[18.86558,43.27303],[18.86676,43.27245],[18.86682,43.27165],[18.86775,43.27104],[18.86869,43.26881],[18.86991,43.26811],[18.86906,43.26703],[18.87082,43.26483],[18.8694,43.26384],[18.87067,43.26178],[18.87176,43.26156],[18.87269,43.26085],[18.87522,43.26061],[18.87533,43.26009],[18.87724,43.25968],[18.87573,43.2565],[18.87657,43.25584],[18.87803,43.25584],[18.87906,43.25487],[18.88031,43.25448],[18.87996,43.25308],[18.88104,43.25229],[18.88038,43.25222],[18.88087,43.25172],[18.87966,43.25128],[18.87771,43.25199],[18.87594,43.25189],[18.87549,43.25145],[18.87702,43.24787],[18.87137,43.24804],[18.86988,43.24709],[18.86691,43.2463],[18.86593,43.24643],[18.86476,43.24719],[18.86065,43.24815],[18.85986,43.24966],[18.85847,43.25054],[18.85682,43.25019],[18.85643,43.24962],[18.855,43.24942],[18.85441,43.24888],[18.85574,43.2477],[18.85479,43.24737],[18.85472,43.24681],[18.85523,43.24645],[18.85407,43.24564],[18.85415,43.24513],[18.85491,43.24502],[18.8548,43.24465],[18.85403,43.24474],[18.8538,43.24423],[18.85517,43.24296],[18.85669,43.24241],[18.85626,43.24191],[18.85654,43.24058],[18.8559,43.24014],[18.85959,43.23803],[18.86144,43.23637],[18.86099,43.23565],[18.85844,43.23451],[18.85775,43.23373],[18.85736,43.23107],[18.85824,43.23009],[18.85761,43.22819],[18.85967,43.22561],[18.86494,43.22269],[18.86704,43.22016],[18.87011,43.21843],[18.86947,43.21783],[18.87005,43.21677],[18.86936,43.21011],[18.87168,43.2072],[18.87434,43.20536],[18.87477,43.20273],[18.87425,43.20121],[18.8746,43.20021],[18.8705,43.19724],[18.87095,43.19518],[18.86635,43.1928],[18.86654,43.19225],[18.86759,43.19219],[18.86844,43.19156],[18.86708,43.19085],[18.86667,43.18992],[18.86511,43.18942],[18.86241,43.19011],[18.8616,43.18963],[18.86151,43.18908],[18.86214,43.18829],[18.86461,43.1873],[18.8646,43.18662],[18.8673,43.18502],[18.86773,43.18429],[18.87239,43.18304],[18.87286,43.18239],[18.87244,43.18124],[18.87361,43.18015],[18.87639,43.17905],[18.88108,43.17819],[18.88488,43.17677],[18.88674,43.17672],[18.88657,43.17606],[18.8849,43.17595],[18.87812,43.17713],[18.87498,43.17669],[18.87835,43.17505],[18.87846,43.1743],[18.87787,43.17367],[18.87868,43.17146],[18.88219,43.17079],[18.88462,43.16876],[18.88496,43.1675],[18.88735,43.16686],[18.89006,43.16284],[18.8919,43.1609],[18.89756,43.15933],[18.89846,43.15948],[18.89908,43.15805],[18.9004,43.15708],[18.90523,43.15705],[18.91266,43.15431],[18.9175,43.15326],[18.91762,43.15097],[18.92002,43.14923],[18.91947,43.14831],[18.91968,43.14757],[18.91835,43.14695],[18.91762,43.14527],[18.91779,43.14361],[18.93803,43.13945],[18.93925,43.13868],[18.94135,43.13885],[18.94168,43.13848],[18.94064,43.13749],[18.94079,43.13667],[18.942,43.13628],[18.9426,43.13668],[18.94355,43.13653],[18.94497,43.13406],[18.94614,43.13337],[18.94795,43.13361],[18.94658,43.13309],[18.94655,43.13271],[18.94994,43.13383],[18.95152,43.13324],[18.95302,43.13186],[18.95476,43.13216],[18.95652,43.13177],[18.95764,43.132],[18.95942,43.13316],[18.96305,43.13304],[18.96383,43.13396],[18.96501,43.13445],[18.96727,43.13446],[18.97081,43.13518],[18.9742,43.13347],[18.97582,43.13359],[18.97863,43.13273],[18.98145,43.1327],[18.98295,43.13086],[18.98469,43.13046],[18.98633,43.12943],[18.98766,43.12745],[18.98635,43.12428],[18.9872,43.12267],[18.9883,43.12231],[18.98849,43.1218],[18.98787,43.12095],[18.98637,43.12236],[18.98666,43.12124],[18.9862,43.12056],[18.98761,43.11932],[18.98901,43.11904],[18.99043,43.11769],[18.99256,43.11756],[18.99276,43.11101],[18.99366,43.11026],[18.99262,43.1092],[18.99303,43.10816],[18.99262,43.10758],[18.99123,43.10716],[18.99091,43.10632],[18.99123,43.1014],[18.99052,43.10034],[18.98979,43.09719],[18.98979,43.09618],[18.99054,43.09554],[18.99091,43.09441],[18.991,43.08938],[18.99202,43.08445],[18.99152,43.08166],[18.99211,43.07717],[18.99592,43.07011],[18.99669,43.06709],[19.00081,43.06396],[19.00154,43.06287],[19.00443,43.06093],[19.00255,43.05798],[19.00424,43.05571],[19.00567,43.05498],[19.00539,43.05282],[19.00644,43.05258],[19.00657,43.05043],[19.00981,43.04746],[19.00805,43.04672],[19.00857,43.04546],[19.00807,43.04589],[19.00703,43.0453],[19.00603,43.04542],[19.00572,43.04429],[19.00433,43.04438],[19.00349,43.04359],[19.00414,43.0411],[19.00616,43.0402],[19.00733,43.04013],[19.00748,43.03956],[19.00839,43.03941],[19.00783,43.03801],[19.00942,43.03738],[19.00916,43.03823],[19.01169,43.03728],[19.01311,43.03768],[19.01435,43.03742],[19.01658,43.03779],[19.02298,43.03252],[19.02564,43.028],[19.0257,43.02724],[19.02678,43.02655],[19.02718,43.0252],[19.02662,43.02485],[19.02662,43.023],[19.0278,43.0209],[19.02828,43.01594],[19.02768,43.01078],[19.02858,43.00921],[19.02778,43.00693],[19.02607,43.00656],[19.02585,43.00243],[19.02905,42.99935],[19.02821,42.99945],[19.0295,42.99245],[19.03012,42.99186],[19.03492,42.99116],[19.03563,42.99048],[19.03561,42.98966],[19.03623,42.98927],[19.02718,42.98349],[19.03142,42.98404],[19.03495,42.98404],[19.03883,42.98485],[19.04281,42.9846],[19.04376,42.98476],[19.04586,42.98602],[19.04613,42.98532],[19.04759,42.98507],[19.04963,42.98532],[19.05235,42.98465],[19.05585,42.9849],[19.05786,42.9856],[19.06277,42.98553],[19.06406,42.9863],[19.06528,42.98867],[19.06598,42.98895],[19.06579,42.98732],[19.06776,42.98762],[19.06895,42.98612],[19.0672,42.98735],[19.06776,42.98766],[19.06905,42.98606],[19.06982,42.9795],[19.07463,42.97752],[19.07583,42.98066],[19.07775,42.97999],[19.08121,42.98021],[19.08255,42.97953],[19.0838,42.97693],[19.08396,42.97504],[19.08553,42.9726],[19.08611,42.97078],[19.08898,42.96793],[19.08986,42.96525],[19.09311,42.96146],[19.09406,42.95896],[19.09399,42.95937],[19.09579,42.95862],[19.0944,42.96004],[19.09644,42.9592],[19.09545,42.96023],[19.09612,42.96093],[19.09464,42.96135],[19.09608,42.96277],[19.09371,42.96293],[19.09312,42.96346],[19.09209,42.96576],[19.09175,42.96815],[19.08965,42.97301],[19.09323,42.96785],[19.09427,42.96564],[19.09603,42.96523],[19.09823,42.96589],[19.10224,42.96226],[19.10271,42.96108],[19.10593,42.96005],[19.11048,42.95667],[19.11243,42.9558],[19.11366,42.95617],[19.11536,42.95596],[19.12125,42.95364],[19.12456,42.95393],[19.12709,42.95305],[19.1302,42.95373],[19.13412,42.95398],[19.136,42.95481],[19.13841,42.95829],[19.14025,42.95885],[19.14088,42.95954],[19.14204,42.95941],[19.14264,42.95971],[19.14337,42.96031],[19.14331,42.96091],[19.14451,42.96175],[19.14852,42.96238],[19.15015,42.96159],[19.15165,42.9617],[19.15366,42.9608],[19.15583,42.95843],[19.15812,42.95719],[19.15939,42.95695],[19.15972,42.95627],[19.16279,42.95467],[19.16615,42.95208],[19.16797,42.95176],[19.17105,42.9522],[19.17206,42.95184],[19.17357,42.95055],[19.17474,42.94757],[19.17528,42.94722],[19.17931,42.94758],[19.18292,42.94687],[19.1858,42.94581],[19.18826,42.94672],[19.19606,42.94767],[19.19973,42.94674],[19.20328,42.94439],[19.2059,42.94397],[19.2084,42.94194],[19.20734,42.94107],[19.2065,42.94133],[19.20663,42.94105],[19.20502,42.94196],[19.20486,42.94137],[19.20287,42.94086],[19.20027,42.94076],[19.19944,42.94057],[19.19892,42.93998],[19.198,42.93996],[19.19934,42.93828],[19.1992,42.93768],[19.20329,42.93361],[19.20303,42.93308],[19.2035,42.93221],[19.19342,42.9338],[19.19869,42.93198],[19.19994,42.9308],[19.19994,42.92904],[19.19912,42.92832],[19.1994,42.92756],[19.19884,42.92697],[19.19513,42.92716],[19.19372,42.92636],[19.19275,42.92626],[19.19277,42.92478],[19.19146,42.92232],[19.188,42.92105],[19.18687,42.91909],[19.18678,42.91781],[19.18773,42.91449],[19.1874,42.91415],[19.1873,42.91511],[19.18627,42.9158],[19.18405,42.91642],[19.18325,42.91576],[19.18447,42.91485],[19.18458,42.91415],[19.1833,42.9117],[19.17886,42.91135],[19.17861,42.91103],[19.18076,42.90938],[19.18426,42.909],[19.18527,42.90838],[19.18681,42.90337],[19.18629,42.90103],[19.18731,42.8997],[19.18721,42.89796],[19.19001,42.89546],[19.19153,42.89462],[19.19256,42.89327],[19.19237,42.89278],[19.19399,42.89092],[19.19607,42.88967],[19.19758,42.88813],[19.19829,42.88642],[19.19927,42.88633],[19.19838,42.88482],[19.19984,42.88358],[19.20066,42.88197],[19.20043,42.88124],[19.20195,42.88001],[19.20267,42.87883],[19.20185,42.87528],[19.20046,42.87486],[19.19954,42.87312],[19.19833,42.87342],[19.19774,42.87404],[19.19691,42.87316],[19.19573,42.87274],[19.19509,42.87488],[19.19358,42.87521],[19.19158,42.87639],[19.18834,42.87911],[19.18688,42.87935],[19.18575,42.87822],[19.18329,42.87921],[19.1797,42.87938],[19.17786,42.88034],[19.17741,42.88146],[19.17439,42.88267],[19.17317,42.88244],[19.17412,42.88126],[19.17421,42.8804],[19.17361,42.87973],[19.17047,42.88149],[19.16844,42.88171],[19.16736,42.88154],[19.16599,42.88013],[19.16499,42.87987],[19.16427,42.87575],[19.16207,42.87436],[19.16234,42.8735],[19.15943,42.87289],[19.16019,42.87123],[19.16008,42.86932],[19.15941,42.86833],[19.15707,42.86668],[19.15638,42.86526],[19.15604,42.8674],[19.15003,42.87117],[19.14883,42.86777],[19.1466,42.86488],[19.13423,42.87105],[19.1369,42.86797],[19.13218,42.86495],[19.12522,42.86633],[19.11913,42.86659],[19.12093,42.86309],[19.11776,42.86363],[19.11295,42.86212],[19.11381,42.86133],[19.1177,42.86109],[19.12043,42.85988],[19.1227,42.85854],[19.12364,42.85711],[19.12528,42.85639],[19.12687,42.85399],[19.13118,42.85225],[19.13326,42.8506],[19.14205,42.84781],[19.14338,42.84772],[19.14621,42.84552],[19.15046,42.84338],[19.15433,42.83931],[19.15973,42.83829],[19.16227,42.83853],[19.1634,42.83797],[19.16426,42.83653],[19.17113,42.83302],[19.17594,42.82873],[19.17616,42.82814],[19.17563,42.82686],[19.17814,42.8259],[19.17657,42.82513],[19.17391,42.82195],[19.17382,42.82099],[19.17456,42.81959],[19.17616,42.82023],[19.17832,42.8191],[19.17889,42.81837],[19.18371,42.82192],[19.18459,42.82364],[19.1842,42.82497],[19.18446,42.82296],[19.18317,42.82111],[19.18295,42.81969],[19.18697,42.8215],[19.18147,42.81915],[19.17965,42.81595],[19.1799,42.81506],[19.1817,42.81536],[19.18381,42.81376],[19.18703,42.8127],[19.1857,42.81089],[19.18316,42.80918],[19.17899,42.80844],[19.1756,42.80702],[19.16994,42.80319],[19.1671,42.80248],[19.1643,42.80093],[19.15866,42.80087],[19.15786,42.80192],[19.15292,42.80372],[19.15235,42.80319],[19.1497,42.80273],[19.14661,42.80127],[19.14588,42.80291],[19.14027,42.80394],[19.13363,42.80581],[19.13106,42.807],[19.12382,42.80653],[19.12186,42.80585],[19.12025,42.8047],[19.1184,42.80281],[19.11817,42.80102],[19.11593,42.79902],[19.1158,42.798],[19.11686,42.79749],[19.11672,42.79719],[19.11518,42.79587],[19.11312,42.79526],[19.11159,42.79398],[19.11007,42.79336],[19.11094,42.79111],[19.11078,42.78856],[19.11157,42.78657],[19.11134,42.78547],[19.11029,42.78467],[19.11144,42.78497],[19.11226,42.78592],[19.11429,42.784],[19.1146,42.78319],[19.11387,42.78174],[19.11033,42.77892],[19.11182,42.77875],[19.10978,42.77712],[19.11008,42.77591],[19.11176,42.77488],[19.11158,42.77442],[19.10896,42.77238],[19.10788,42.771],[19.10662,42.77042],[19.10927,42.76975],[19.11124,42.76711],[19.11146,42.76778],[19.11112,42.7678],[19.11156,42.76799],[19.11252,42.76723],[19.1127,42.76408],[19.11434,42.7634],[19.11491,42.76394],[19.11584,42.76407],[19.11541,42.76224],[19.11616,42.76147],[19.11572,42.75993],[19.11693,42.75805],[19.11934,42.75717],[19.12153,42.75708],[19.1237,42.75802],[19.12917,42.75608],[19.13089,42.75596],[19.13251,42.75691],[19.13341,42.75825],[19.13491,42.75923],[19.13591,42.75923],[19.13707,42.75844],[19.1384,42.75813],[19.14275,42.75919],[19.14396,42.75994],[19.14582,42.75959],[19.14653,42.75929],[19.14617,42.75889],[19.14645,42.75848],[19.1479,42.75838],[19.14973,42.7572],[19.14864,42.75396],[19.14942,42.75241],[19.14873,42.75205],[19.14849,42.75122],[19.14937,42.75048],[19.15036,42.75039],[19.15132,42.74947],[19.1523,42.74927],[19.1539,42.74951],[19.15586,42.75109],[19.15671,42.75249],[19.15923,42.75242],[19.15804,42.75344],[19.16026,42.75413],[19.16077,42.7549],[19.16408,42.75589],[19.16443,42.7563],[19.1702,42.75773],[19.17123,42.75856],[19.17136,42.75797],[19.17238,42.75726],[19.17198,42.75616],[19.17361,42.75583],[19.17398,42.75481],[19.17638,42.75425],[19.1811,42.75489],[19.18382,42.75343],[19.18566,42.75323],[19.18563,42.75254],[19.18459,42.75165],[19.18443,42.75039],[19.18262,42.74871],[19.18265,42.74791],[19.18288,42.74753],[19.18544,42.74678],[19.18518,42.74572],[19.18623,42.74548],[19.18655,42.74458],[19.18783,42.74403],[19.18834,42.74305],[19.1882,42.742],[19.18875,42.7415],[19.19001,42.7413],[19.19114,42.7416],[19.19189,42.74122],[19.19371,42.74123],[19.19431,42.74026],[19.19496,42.7413],[19.19588,42.74061],[19.19791,42.74037],[19.19876,42.73948],[19.19866,42.73779],[19.19819,42.73727],[19.20157,42.73727],[19.20491,42.73636],[19.2086,42.73411],[19.21491,42.73229],[19.21704,42.73242],[19.22033,42.73445],[19.22177,42.73513],[19.2226,42.73508],[19.22596,42.73184],[19.22653,42.7319],[19.22699,42.73046],[19.22834,42.72925],[19.22938,42.72918],[19.23,42.72819],[19.23257,42.72638],[19.23365,42.72659],[19.23404,42.72561],[19.23535,42.72508],[19.23849,42.72245],[19.23993,42.72185],[19.24149,42.72179],[19.24185,42.72045],[19.24349,42.72005],[19.24664,42.72056],[19.24886,42.72039],[19.24943,42.71949],[19.25191,42.71815],[19.25324,42.71815],[19.25471,42.7186],[19.25633,42.72011],[19.25954,42.7219],[19.26086,42.7209],[19.26184,42.71838],[19.26393,42.71758],[19.2675,42.71873],[19.2679,42.71934],[19.27033,42.72036],[19.27166,42.72015],[19.27303,42.72057],[19.27451,42.72026],[19.27577,42.71938],[19.2791,42.71982],[19.27857,42.71932],[19.27723,42.71908],[19.27679,42.71846],[19.28021,42.71873],[19.28446,42.72005],[19.28652,42.71972],[19.29041,42.7208],[19.2915,42.72052],[19.2929,42.72077],[19.29561,42.7198],[19.29912,42.71922],[19.3,42.71987],[19.30128,42.71979],[19.3032,42.72044],[19.30575,42.72042],[19.3036,42.71909],[19.3061,42.71921],[19.30799,42.71869],[19.30643,42.71787],[19.30606,42.71808],[19.3024,42.71706],[19.30066,42.71546],[19.30243,42.71551],[19.30284,42.71434],[19.3025,42.71413],[19.30321,42.71408],[19.30534,42.71542],[19.30589,42.71503],[19.30605,42.71298],[19.30728,42.71175],[19.3068,42.71329],[19.30735,42.71456],[19.30764,42.71293],[19.30827,42.71412],[19.30844,42.71276],[19.30903,42.71368],[19.3097,42.71389],[19.31387,42.71158],[19.3165,42.71161],[19.31649,42.71066],[19.3181,42.70885],[19.31987,42.70863],[19.32143,42.70731],[19.3212,42.70548],[19.32277,42.70455],[19.32213,42.70102],[19.32397,42.69949],[19.32341,42.69829],[19.32359,42.69752],[19.32819,42.69783],[19.32913,42.69818],[19.32989,42.69788],[19.33104,42.69883],[19.33176,42.69884],[19.33261,42.69976],[19.33538,42.69944],[19.33627,42.69821],[19.33644,42.7007],[19.33738,42.70095],[19.33812,42.70063],[19.3386,42.70116],[19.34006,42.70144],[19.34261,42.70417],[19.34239,42.70504],[19.34375,42.70752],[19.34414,42.70749],[19.34406,42.70689],[19.34676,42.70938],[19.34531,42.70711],[19.34515,42.70575],[19.34705,42.70817],[19.34924,42.70925],[19.35158,42.70901],[19.35248,42.70851],[19.35364,42.70886],[19.35484,42.7104],[19.35422,42.71104],[19.35478,42.71159],[19.35489,42.71115],[19.35554,42.71155],[19.35528,42.7124],[19.35605,42.7125],[19.35627,42.71339],[19.35652,42.71226],[19.35802,42.71172],[19.35932,42.7129],[19.36043,42.71302],[19.36053,42.71351],[19.36124,42.71315],[19.36122,42.71212],[19.36233,42.71323],[19.36181,42.71049],[19.36052,42.70988],[19.36044,42.70902],[19.36124,42.70851],[19.36174,42.70868],[19.36185,42.70781],[19.36336,42.70822],[19.36342,42.70771],[19.36452,42.7084],[19.36431,42.70695],[19.3636,42.70663],[19.36513,42.70577],[19.36645,42.70535],[19.36739,42.70647],[19.36803,42.70654],[19.36898,42.70737],[19.36917,42.70708],[19.3697,42.70734],[19.37122,42.70612],[19.37513,42.70505],[19.37439,42.70569],[19.3738,42.70726],[19.37256,42.70836],[19.37256,42.71126],[19.37072,42.7146],[19.37014,42.71727],[19.37097,42.71891],[19.37472,42.72133],[19.37736,42.72398],[19.3792,42.72712],[19.38163,42.72935],[19.38074,42.73273],[19.38158,42.73444],[19.38142,42.73746],[19.38349,42.74065],[19.38305,42.74236],[19.38407,42.74311],[19.38761,42.74301],[19.38973,42.74395],[19.39002,42.74851],[19.38966,42.75086],[19.39019,42.75209],[19.39193,42.75397],[19.39179,42.75484],[19.38984,42.75679],[19.38937,42.76072],[19.38843,42.76272],[19.3916,42.76946],[19.39138,42.77325],[19.39358,42.77527],[19.39388,42.77604],[19.39276,42.77833],[19.39329,42.78071],[19.39273,42.78313],[19.3904,42.78468],[19.38932,42.78603],[19.39082,42.78844],[19.39443,42.7908],[19.39413,42.79309],[19.39226,42.7951],[19.3908,42.7981],[19.39241,42.80396],[19.39078,42.80697],[19.39217,42.80926],[19.39269,42.81177],[19.39605,42.81319],[19.399,42.8137],[19.40216,42.81617],[19.40208,42.81848],[19.40264,42.81899],[19.40299,42.81837],[19.40257,42.81737],[19.40268,42.8156],[19.40031,42.81391],[19.39958,42.81245],[19.39717,42.81204],[19.39484,42.81074],[19.39523,42.80884],[19.39473,42.80702],[19.39561,42.8058],[19.39457,42.80431],[19.39489,42.80211],[19.39635,42.80108],[19.39743,42.80136],[19.39931,42.80281],[19.4021,42.80363],[19.40316,42.80339],[19.40321,42.80252],[19.3999,42.7993],[19.40044,42.79696],[19.40267,42.79562],[19.40343,42.7958],[19.40432,42.79678],[19.40461,42.79869],[19.40587,42.80035],[19.40844,42.80261],[19.41154,42.80418],[19.41541,42.80218],[19.4164,42.79969],[19.41745,42.79958],[19.41891,42.80032],[19.42314,42.80144],[19.42449,42.80021],[19.42717,42.7996],[19.42703,42.79826],[19.42837,42.79612],[19.4305,42.79618],[19.43267,42.79497],[19.43514,42.79527],[19.43712,42.79602],[19.43904,42.79609],[19.44078,42.79712],[19.44801,42.79819],[19.4507,42.80039],[19.45263,42.79969],[19.45601,42.79949],[19.45956,42.79972],[19.46207,42.80059],[19.46416,42.79949],[19.46705,42.79939],[19.47007,42.80004],[19.47405,42.79987],[19.47722,42.80128],[19.4797,42.80061],[19.48154,42.80226],[19.4829,42.80286],[19.48801,42.80426],[19.49047,42.80435],[19.49373,42.80543],[19.50042,42.80596],[19.50333,42.80729],[19.50642,42.80795],[19.50742,42.80869],[19.50863,42.81097],[19.51055,42.81257],[19.51087,42.81431],[19.51186,42.81537],[19.51327,42.81529],[19.51594,42.81329],[19.51578,42.81214],[19.51705,42.81133],[19.51722,42.80599],[19.51545,42.80419],[19.51483,42.80293],[19.5134,42.80179],[19.51429,42.80091],[19.51505,42.79678],[19.51695,42.79533],[19.51663,42.79421],[19.51698,42.79343],[19.51851,42.79215],[19.52174,42.79201],[19.52374,42.79058],[19.53039,42.78988],[19.53602,42.79077],[19.53802,42.79027],[19.53895,42.78966],[19.54123,42.78647],[19.54129,42.78443],[19.54277,42.78291],[19.54519,42.777],[19.5443,42.77504],[19.54112,42.77343],[19.54097,42.77165],[19.54165,42.77066],[19.54424,42.76907],[19.5463,42.76869],[19.54833,42.76769],[19.54973,42.76487],[19.5517,42.76383],[19.55126,42.76185],[19.55158,42.76026],[19.55123,42.75818],[19.5505,42.75717],[19.546,42.75554],[19.54096,42.75286],[19.54077,42.75072],[19.54234,42.74854],[19.54137,42.74817],[19.54039,42.74715],[19.53655,42.74635],[19.53469,42.74469],[19.53347,42.74262],[19.53467,42.73834],[19.53444,42.73771],[19.53315,42.73735],[19.53013,42.73782],[19.52383,42.73627],[19.5204,42.73333],[19.51985,42.73235],[19.51795,42.73131],[19.51484,42.7303],[19.51334,42.7289],[19.51227,42.72696],[19.51309,42.72313],[19.51215,42.72188],[19.5132,42.72347],[19.51267,42.72438],[19.51315,42.7233],[19.51077,42.71973],[19.51034,42.71762],[19.50709,42.71522],[19.50561,42.71289],[19.50558,42.7121],[19.5066,42.71037],[19.50754,42.70943],[19.51044,42.70799],[19.51471,42.70718],[19.51587,42.70601],[19.51748,42.70522],[19.52021,42.70545],[19.52112,42.70493],[19.52002,42.70173],[19.52121,42.69975],[19.52195,42.69516],[19.52028,42.69248],[19.52004,42.68962],[19.52217,42.68691],[19.52419,42.6853],[19.52557,42.68595],[19.52696,42.68588],[19.53063,42.68682],[19.53205,42.68595],[19.53335,42.68385],[19.53459,42.68278],[19.53986,42.6791],[19.54229,42.67861],[19.5436,42.67894],[19.54728,42.67867],[19.54949,42.67781],[19.55087,42.6777],[19.55252,42.67654],[19.55337,42.67668],[19.55482,42.67815],[19.55698,42.67862],[19.55871,42.67876],[19.56177,42.67803],[19.56397,42.67846],[19.56656,42.67838],[19.56932,42.67654],[19.57109,42.67597],[19.57167,42.67485],[19.57273,42.67429],[19.57252,42.67074],[19.57455,42.66953],[19.57481,42.66806],[19.57602,42.66693],[19.57573,42.66566],[19.57655,42.66385],[19.57803,42.66291],[19.57904,42.66311],[19.58066,42.6624],[19.58241,42.65937],[19.5878,42.6553],[19.59311,42.65328],[19.59435,42.65341],[19.59419,42.65315],[19.59685,42.65224],[19.59992,42.6524],[19.60058,42.65183],[19.60375,42.65133],[19.6065,42.65042],[19.60897,42.64902],[19.6107,42.64899],[19.61292,42.64735],[19.61318,42.64658],[19.61607,42.64528],[19.62324,42.64297],[19.62374,42.64171],[19.61699,42.64234],[19.61509,42.64179],[19.61688,42.64187],[19.61988,42.6409],[19.62654,42.63755],[19.62578,42.63736],[19.62328,42.63839],[19.62476,42.63736],[19.62319,42.63722],[19.62714,42.6357],[19.62592,42.63525],[19.62571,42.63396],[19.62474,42.6334],[19.62525,42.63172],[19.62596,42.6314],[19.62506,42.6294],[19.62903,42.62684],[19.63114,42.62449],[19.63035,42.62449],[19.62778,42.62585],[19.62748,42.62548],[19.62955,42.62389],[19.63126,42.62333],[19.62889,42.62323],[19.6272,42.62411],[19.62703,42.62381],[19.62806,42.6227],[19.62967,42.62219],[19.63036,42.62062],[19.62854,42.62122],[19.629,42.61991],[19.62695,42.62079],[19.62593,42.62019],[19.62627,42.6199],[19.62513,42.6197],[19.62388,42.61873],[19.62182,42.61884],[19.62306,42.61801],[19.62145,42.6168],[19.62405,42.61706],[19.62621,42.61632],[19.6261,42.61578],[19.62467,42.61627],[19.62191,42.61484],[19.62402,42.61447],[19.62686,42.61214],[19.62442,42.61252],[19.62278,42.6118],[19.62234,42.6105],[19.62362,42.61096],[19.62539,42.61084],[19.62569,42.61049],[19.62403,42.60979],[19.62301,42.60726],[19.62184,42.6066],[19.62096,42.60491],[19.61759,42.60316],[19.61678,42.60172],[19.61773,42.60059],[19.61758,42.59991],[19.61543,42.59914],[19.61166,42.59863],[19.61081,42.5964],[19.61195,42.59679],[19.61244,42.59646],[19.61338,42.59348],[19.6131,42.59301],[19.61146,42.59211],[19.60945,42.59012],[19.60658,42.5895],[19.60525,42.58734],[19.60442,42.58709],[19.60371,42.58581],[19.60223,42.58498],[19.60083,42.58479],[19.59729,42.58589],[19.59577,42.58526],[19.59238,42.58186],[19.59083,42.58234],[19.59051,42.58212],[19.59079,42.58143],[19.59037,42.58132],[19.59117,42.58141],[19.59271,42.5804],[19.59153,42.58051],[19.59244,42.57968],[19.59183,42.5792],[19.59248,42.57848],[19.59291,42.57857],[19.59427,42.57779],[19.59672,42.57749],[19.59486,42.57686],[19.59706,42.57644],[19.59562,42.57534],[19.59688,42.575],[19.59598,42.57435],[19.59743,42.57444],[19.59558,42.57331],[19.59812,42.57321],[19.59736,42.57257],[19.59721,42.57165],[19.59652,42.57179],[19.59445,42.56923],[19.59456,42.57001],[19.59319,42.56943],[19.59325,42.56844],[19.59172,42.56728],[19.59074,42.56489],[19.5898,42.56488],[19.59016,42.56574],[19.58574,42.56366],[19.58444,42.56401],[19.58306,42.5639],[19.58238,42.56512],[19.58324,42.56556],[19.5826,42.56646],[19.58196,42.56603],[19.58117,42.56674],[19.58036,42.56654],[19.57937,42.56682],[19.57616,42.56536],[19.57291,42.56603],[19.56922,42.56358],[19.56578,42.56252],[19.56537,42.56175],[19.56546,42.56299],[19.56604,42.56332],[19.56558,42.56334],[19.56444,42.56158],[19.56419,42.56193],[19.56209,42.55986],[19.56211,42.56062],[19.55873,42.55832],[19.55773,42.55657],[19.55728,42.55683],[19.55604,42.55515],[19.5538,42.55343],[19.55273,42.55197],[19.55249,42.55058],[19.55111,42.55052],[19.54954,42.54993],[19.54478,42.54751],[19.54406,42.54502],[19.54189,42.54294],[19.54109,42.53974],[19.53982,42.53805],[19.54038,42.5375],[19.54019,42.53462],[19.54107,42.53252],[19.5408,42.53153],[19.54139,42.53071],[19.54161,42.5288],[19.54081,42.52583],[19.54133,42.52432],[19.54231,42.52346],[19.54013,42.5242],[19.54042,42.52497],[19.53846,42.52732],[19.53807,42.52629],[19.53485,42.52415],[19.53166,42.52095],[19.5314,42.51793],[19.53073,42.51732],[19.53061,42.51625],[19.53186,42.51486],[19.53158,42.51259],[19.53196,42.51287],[19.53244,42.51262],[19.53143,42.51053],[19.53311,42.50628],[19.53197,42.50408],[19.53285,42.50377],[19.53287,42.50291],[19.53426,42.50221],[19.53325,42.49838],[19.53441,42.49474],[19.53428,42.4937],[19.53991,42.49249],[19.54052,42.49169],[19.53871,42.49019],[19.53313,42.48839],[19.53416,42.48784],[19.53485,42.48622],[19.5361,42.48559],[19.53678,42.48388],[19.53484,42.48271],[19.5329,42.48212],[19.53008,42.48026],[19.52841,42.48014],[19.52754,42.4779],[19.52762,42.47716],[19.52833,42.47687],[19.52616,42.47337],[19.51934,42.46936],[19.51979,42.46856],[19.52168,42.46763],[19.51858,42.46626],[19.51784,42.46523],[19.51806,42.46474],[19.51685,42.46326],[19.51445,42.46242],[19.51429,42.46179],[19.5154,42.46023],[19.5171,42.45951],[19.51529,42.4583],[19.51393,42.45667],[19.50807,42.45359],[19.5076,42.45341],[19.50601,42.45384],[19.49941,42.45048],[19.49758,42.44994],[19.49715,42.44884],[19.49594,42.44904],[19.49487,42.44849],[19.49351,42.44838],[19.49397,42.44809],[19.49261,42.44784],[19.49165,42.44708],[19.48849,42.44582],[19.48602,42.44554],[19.48538,42.4458],[19.48265,42.44503],[19.47941,42.44343],[19.47879,42.44251],[19.47056,42.44312],[19.469,42.44252],[19.46719,42.44378],[19.46599,42.44411],[19.46481,42.44519],[19.46026,42.44472],[19.45535,42.44585],[19.44873,42.44404],[19.44764,42.44335],[19.44782,42.44271],[19.4468,42.44267],[19.44484,42.44174],[19.44369,42.44203],[19.43968,42.43964],[19.43829,42.43951],[19.4367,42.43876],[19.43483,42.43727],[19.4326,42.43616],[19.4305,42.43644],[19.4273,42.43554],[19.42687,42.43456],[19.42758,42.43385],[19.42659,42.43213],[19.42742,42.43124],[19.42652,42.43064],[19.42769,42.42921],[19.42718,42.42859],[19.42822,42.42775],[19.42913,42.4276],[19.42942,42.42677],[19.42979,42.42677],[19.42863,42.42407],[19.42997,42.42014],[19.42464,42.41675],[19.42486,42.41509],[19.42155,42.41249],[19.4175,42.40988],[19.4108,42.40729],[19.41966,42.40698],[19.41982,42.40634],[19.42119,42.40659],[19.42117,42.40581],[19.41807,42.40474],[19.41511,42.40422],[19.41511,42.40369],[19.41398,42.4038],[19.40474,42.40116],[19.4032,42.40125],[19.40002,42.40242],[19.40054,42.4018],[19.39767,42.40184],[19.39485,42.40234],[19.39353,42.40201],[19.39002,42.40218],[19.38588,42.40412],[19.38566,42.40499],[19.38431,42.40596],[19.38291,42.40615],[19.38163,42.40573],[19.37962,42.40582],[19.37833,42.40496],[19.37765,42.405],[19.37537,42.40381],[19.37347,42.40331],[19.36765,42.40324],[19.36593,42.4045],[19.36483,42.40421],[19.36582,42.40414],[19.36541,42.40386],[19.36326,42.40411],[19.36195,42.405],[19.36008,42.40718],[19.35871,42.40784],[19.36033,42.40618],[19.3594,42.407],[19.35702,42.40769],[19.35212,42.40755],[19.35046,42.40798],[19.34875,42.41035],[19.34633,42.4118],[19.34259,42.41167],[19.33138,42.41219],[19.3313,42.41138],[19.33228,42.41022],[19.33059,42.40683],[19.32442,42.40149],[19.32664,42.39771],[19.32469,42.39469],[19.32414,42.39003],[19.32674,42.38278],[19.32765,42.37843],[19.32813,42.37366],[19.32797,42.37203],[19.32702,42.36992],[19.32756,42.36908],[19.32728,42.36855],[19.32998,42.36522],[19.32935,42.36278],[19.33145,42.35239],[19.33481,42.33843],[19.33721,42.33312],[19.338,42.3325],[19.34393,42.33042],[19.34663,42.328],[19.348,42.32788],[19.34984,42.32695],[19.35215,42.32638],[19.353,42.32461],[19.35467,42.3234],[19.3559,42.32404],[19.35815,42.3244],[19.35921,42.32508],[19.36211,42.32539],[19.36368,42.32636],[19.36446,42.32624],[19.36687,42.32164],[19.36947,42.31979],[19.36843,42.31759],[19.36985,42.31581],[19.37045,42.31422],[19.36967,42.31237],[19.36858,42.31132],[19.36647,42.31082],[19.36603,42.30997],[19.36679,42.30942],[19.3704,42.30867],[19.37546,42.30864],[19.37796,42.31029],[19.38081,42.31138],[19.38422,42.3137],[19.38814,42.31441],[19.38944,42.31621],[19.39411,42.31813],[19.397,42.31827],[19.3987,42.31984],[19.39943,42.32123],[19.40185,42.32103],[19.40311,42.32135],[19.40889,42.32385],[19.41125,42.32588]]}},{"type":"Feature","properties":{"name":"TET_MNE-02-Asphalt-only_20260728","country":"ME","lengthKm":39.2},"geometry":{"type":"LineString","coordinates":[[19.20979,42.94141],[19.21182,42.94116],[19.21378,42.93982],[19.21499,42.93839],[19.22006,42.93424],[19.22404,42.93288],[19.23056,42.92839],[19.23715,42.92573],[19.24285,42.92523],[19.24483,42.9247],[19.24956,42.92503],[19.25501,42.92481],[19.2575,42.92514],[19.26045,42.92487],[19.2617,42.9251],[19.2646,42.92672],[19.26957,42.92693],[19.27102,42.92637],[19.27284,42.92696],[19.27897,42.92461],[19.28136,42.92213],[19.28511,42.91959],[19.29614,42.91566],[19.29604,42.9151],[19.2939,42.91452],[19.29237,42.91474],[19.29082,42.91433],[19.28693,42.91534],[19.28064,42.91612],[19.2799,42.91578],[19.28078,42.91592],[19.2811,42.91508],[19.28255,42.91518],[19.28542,42.91465],[19.28651,42.91374],[19.28627,42.91314],[19.28588,42.91399],[19.28321,42.91426],[19.28131,42.91269],[19.28038,42.91266],[19.27911,42.91346],[19.27593,42.91368],[19.27555,42.91461],[19.27427,42.91564],[19.2735,42.91586],[19.27273,42.91553],[19.27199,42.91632],[19.26981,42.91679],[19.26852,42.9184],[19.26755,42.91858],[19.26825,42.91831],[19.26933,42.91562],[19.27067,42.91518],[19.27131,42.91415],[19.27307,42.91323],[19.27247,42.91103],[19.27122,42.90885],[19.27149,42.90703],[19.27094,42.90681],[19.27043,42.90737],[19.26893,42.90725],[19.26842,42.90775],[19.26583,42.90679],[19.26333,42.90648],[19.26309,42.90511],[19.26381,42.90614],[19.26537,42.90534],[19.26866,42.90466],[19.27133,42.90314],[19.27441,42.89893],[19.2784,42.89507],[19.27747,42.89524],[19.2772,42.89591],[19.27019,42.90025],[19.27182,42.8979],[19.27473,42.89518],[19.27516,42.89364],[19.27905,42.89173],[19.28012,42.89023],[19.28527,42.8861],[19.29025,42.88478],[19.29164,42.88495],[19.29463,42.88443],[19.29655,42.88359],[19.29775,42.88246],[19.29912,42.879],[19.30013,42.87819],[19.30235,42.87778],[19.30357,42.87694],[19.30861,42.87638],[19.31186,42.87436],[19.31455,42.87485],[19.31206,42.87408],[19.30787,42.87522],[19.30639,42.87509],[19.30559,42.87545],[19.30175,42.875],[19.2974,42.87606],[19.30101,42.87444],[19.30503,42.87408],[19.30561,42.87334],[19.30907,42.87216],[19.31133,42.87051],[19.31323,42.87008],[19.31275,42.86917],[19.3156,42.86567],[19.3188,42.86248],[19.32072,42.86126],[19.32578,42.85465],[19.32971,42.85231],[19.33264,42.84936],[19.33503,42.84967],[19.33452,42.8484],[19.33917,42.84501],[19.33945,42.84411],[19.34077,42.84318],[19.3423,42.84272],[19.34285,42.84179],[19.34259,42.8413],[19.34415,42.83944],[19.34521,42.83892],[19.34737,42.83938],[19.34643,42.83787],[19.34687,42.83687],[19.34886,42.83618],[19.35176,42.83438],[19.35372,42.83258],[19.3543,42.83268],[19.35485,42.83356],[19.35572,42.83355],[19.35612,42.8313],[19.36115,42.83195],[19.3617,42.82979],[19.36252,42.82938],[19.36396,42.82958],[19.3626,42.8283],[19.36317,42.82641],[19.36559,42.82614],[19.3676,42.82506],[19.37111,42.82602],[19.37275,42.82487],[19.37379,42.82474],[19.37415,42.82396],[19.37606,42.82413],[19.37757,42.82341],[19.37881,42.82345],[19.37875,42.82132],[19.38003,42.82026],[19.38117,42.81991],[19.38156,42.81785],[19.38422,42.81821],[19.3842,42.82015],[19.38502,42.8207],[19.38678,42.81779],[19.38796,42.81752],[19.39001,42.81777],[19.3899,42.81709],[19.39055,42.8165],[19.39097,42.81482],[19.39339,42.81518],[19.39552,42.81646],[19.39651,42.81602],[19.3976,42.81644],[19.39829,42.81574],[19.39977,42.8173],[19.40002,42.81843],[19.40206,42.81952],[19.40264,42.81899]]}}]}