{"type":"FeatureCollection","features":[{"type":"Feature","properties":{"name":"TET_NL-01_20260710 (Liason paved roads)","country":"NL","lengthKm":215.3},"geometry":{"type":"LineString","coordinates":[[4.59444,52.45944],[4.59726,52.45821],[4.59907,52.45927],[4.60033,52.4609],[4.60782,52.46341],[4.62838,52.46358],[4.63007,52.46324],[4.6323,52.46199],[4.63462,52.46229],[4.64411,52.46223],[4.64559,52.46156],[4.64655,52.46047],[4.65198,52.45787],[4.65357,52.45774],[4.66286,52.45888],[4.66556,52.458],[4.66788,52.4557],[4.66614,52.45197],[4.66464,52.45013],[4.66565,52.44884],[4.66582,52.44667],[4.67026,52.44401],[4.6694,52.44238],[4.67071,52.44034],[4.67127,52.43811],[4.67387,52.43648],[4.67421,52.43558],[4.67679,52.43309],[4.67915,52.43311],[4.68303,52.42974],[4.68335,52.42899],[4.68155,52.42708],[4.67764,52.43086],[4.677,52.43099],[4.67734,52.4288],[4.6759,52.42781],[4.67798,52.42622],[4.67985,52.42277],[4.67873,52.42107],[4.6784,52.41774],[4.67582,52.41659],[4.6785,52.41375],[4.67966,52.41339],[4.68168,52.41341],[4.68438,52.41221],[4.68365,52.41139],[4.68374,52.41041],[4.68138,52.40805],[4.68159,52.40586],[4.67966,52.40191],[4.67983,52.39916],[4.67885,52.39775],[4.67833,52.39294],[4.68468,52.38869],[4.68777,52.38912],[4.68966,52.38869],[4.69005,52.38728],[4.68859,52.38436],[4.73425,52.38747],[4.73611,52.38938],[4.74149,52.38718],[4.74411,52.38656],[4.74406,52.387],[4.74458,52.38702],[4.74413,52.38618],[4.7362,52.38718],[4.7355,52.38613],[4.73413,52.38631],[4.73341,52.38488],[4.73566,52.38364],[4.73887,52.38279],[4.73853,52.38197],[4.74083,52.38069],[4.74474,52.38348],[4.74815,52.38251],[4.7541,52.37957],[4.7568,52.37663],[4.75802,52.37371],[4.75815,52.37144],[4.75457,52.35854],[4.75481,52.35666],[4.7562,52.35545],[4.76676,52.35093],[4.77309,52.34872],[4.79085,52.34133],[4.79111,52.34099],[4.78819,52.33924],[4.78196,52.33746],[4.77982,52.33563],[4.77939,52.33252],[4.77836,52.33182],[4.81448,52.31222],[4.81266,52.30911],[4.80916,52.30625],[4.81092,52.30462],[4.81407,52.30548],[4.81553,52.30702],[4.81815,52.30707],[4.82051,52.30771],[4.82296,52.31063],[4.82253,52.31183],[4.81802,52.31389],[4.81738,52.31466],[4.81849,52.31956],[4.82205,52.32307],[4.85094,52.32762],[4.85291,52.32689],[4.85437,52.32724],[4.85469,52.32779],[4.88514,52.32801],[4.88853,52.32878],[4.8902,52.32878],[4.89055,52.32496],[4.89308,52.32436],[4.89458,52.32458],[4.89514,52.3226],[4.89638,52.32166],[4.90192,52.32089],[4.90844,52.31861],[4.90819,52.31788],[4.9057,52.31698],[4.90475,52.31582],[4.90548,52.31402],[4.90458,52.31183],[4.90475,52.31029],[4.90724,52.30737],[4.9069,52.30629],[4.89849,52.30054],[4.89829,52.29879],[4.89696,52.29805],[4.89539,52.29785],[4.89518,52.29715],[4.89286,52.29621],[4.89274,52.29561],[4.8911,52.29475],[4.8902,52.29153],[4.88677,52.29003],[4.88657,52.28852],[4.88408,52.28425],[4.87908,52.28008],[4.87826,52.27872],[4.88125,52.27451],[4.88076,52.27329],[4.88115,52.27158],[4.87906,52.2669],[4.88192,52.26424],[4.8788,52.262],[4.87637,52.26146],[4.87393,52.26139],[4.87303,52.26093],[4.87248,52.25991],[4.8731,52.25851],[4.87278,52.2576],[4.8685,52.25193],[4.86621,52.25147],[4.85998,52.24833],[4.85671,52.24788],[4.8564,52.24679],[4.85485,52.24577],[4.85423,52.24233],[4.85087,52.24227],[4.85142,52.23934],[4.8506,52.239],[4.84763,52.24027],[4.84701,52.24013],[4.84554,52.23783],[4.83903,52.23613],[4.83681,52.23515],[4.83422,52.23328],[4.83111,52.23281],[4.82954,52.2341],[4.82891,52.23338],[4.83013,52.23197],[4.83351,52.23009],[4.83143,52.231],[4.82993,52.23037],[4.82404,52.22953],[4.82132,52.22859],[4.81834,52.22689],[4.81752,52.22624],[4.81702,52.22456],[4.81917,52.22182],[4.81995,52.21994],[4.81995,52.21923],[4.81885,52.21817],[4.82014,52.21645],[4.81972,52.21535],[4.81681,52.21329],[4.81372,52.21196],[4.81356,52.20987],[4.81556,52.2052],[4.81475,52.20168],[4.81386,52.20092],[4.81435,52.19982],[4.82227,52.19634],[4.82382,52.19438],[4.82384,52.19332],[4.82676,52.1914],[4.82866,52.19078],[4.82897,52.18984],[4.83584,52.1863],[4.83803,52.18394],[4.84099,52.18275],[4.84488,52.18019],[4.85101,52.17951],[4.85253,52.17998],[4.8541,52.17903],[4.856,52.17893],[4.86753,52.17339],[4.86866,52.17037],[4.86846,52.16607],[4.8662,52.15773],[4.86699,52.15694],[4.86856,52.15736],[4.86894,52.15716],[4.86997,52.15561],[4.89175,52.16167],[4.90295,52.16197],[4.90917,52.16137],[4.90891,52.16223],[4.9111,52.16253],[4.91402,52.1636],[4.92805,52.16725],[4.92874,52.16824],[4.93239,52.16785],[4.94496,52.17085],[4.95861,52.17549],[4.97552,52.17515],[4.97874,52.17613],[4.98397,52.17545],[4.98457,52.17506],[4.98397,52.17197],[4.98462,52.17171],[4.98895,52.1721],[4.99273,52.17193],[4.99354,52.17137],[4.99397,52.17012],[4.9941,52.16755],[4.99818,52.16785],[5.00401,52.16905],[5.00436,52.16922],[5.00153,52.17244],[5.00299,52.17819],[5.00487,52.18141],[5.00582,52.18596],[5.00483,52.18888],[5.00281,52.1909],[5.00316,52.19326],[5.00522,52.19527],[5.00865,52.19665],[5.01127,52.19686],[5.01453,52.19905],[5.01723,52.20008],[5.01882,52.20218],[5.01861,52.20514],[5.04032,52.20145],[5.04268,52.20042],[5.04539,52.20081],[5.06083,52.19922],[5.06169,52.19965],[5.06766,52.20707],[5.12027,52.20686],[5.12353,52.20634],[5.12817,52.20501],[5.13938,52.20842],[5.14469,52.20196],[5.14561,52.20032],[5.14574,52.19841],[5.14972,52.19788],[5.15096,52.19559],[5.15389,52.19381],[5.15205,52.19002],[5.15448,52.1871],[5.15453,52.18616],[5.14934,52.18167],[5.14607,52.18091],[5.14648,52.17985],[5.17708,52.17823],[5.1649,52.15843],[5.18485,52.15818],[5.19687,52.16014],[5.1997,52.15983],[5.22658,52.16596],[5.24137,52.16848],[5.23118,52.15826],[5.23191,52.15756],[5.23356,52.15286],[5.23983,52.14335],[5.24689,52.13963],[5.2498,52.13707],[5.25046,52.13459],[5.24945,52.13022],[5.24978,52.12851],[5.25961,52.11402],[5.27248,52.11773],[5.27659,52.11928],[5.28209,52.12241],[5.28489,52.12316],[5.29064,52.12314],[5.29667,52.12399],[5.34694,52.13784],[5.35323,52.13923],[5.35562,52.13935],[5.3575,52.13888],[5.36342,52.13619],[5.37181,52.13337],[5.37164,52.13298],[5.37498,52.1297],[5.37803,52.1307],[5.3975,52.13383],[5.39898,52.12633],[5.40212,52.12588],[5.40514,52.12386],[5.41034,52.12345],[5.41242,52.12416],[5.4153,52.128],[5.41636,52.13279],[5.41957,52.13921],[5.4201,52.1449],[5.42081,52.14528],[5.42385,52.14557],[5.42367,52.1488],[5.42414,52.15036],[5.43007,52.1536],[5.43317,52.1538],[5.43867,52.15084],[5.44738,52.14877],[5.4512,52.1472],[5.46342,52.15062],[5.47017,52.15071],[5.47663,52.14898],[5.47851,52.14927],[5.49118,52.145],[5.49792,52.1435],[5.49896,52.14734],[5.49674,52.15416],[5.4972,52.1553],[5.50079,52.1576],[5.50477,52.15892],[5.51036,52.15776],[5.5143,52.15835],[5.51881,52.15615],[5.52407,52.15491],[5.52748,52.15149],[5.53173,52.15023],[5.53425,52.1501],[5.53964,52.14876],[5.54122,52.14906],[5.54503,52.1487],[5.54726,52.14667],[5.55052,52.14594],[5.55093,52.14449],[5.55337,52.14196],[5.55731,52.14168],[5.56201,52.1419],[5.56151,52.13281],[5.56102,52.13245],[5.55863,52.13224],[5.55916,52.13158],[5.56184,52.13122],[5.56313,52.12683],[5.56111,52.12515],[5.55434,52.12241],[5.5542,52.12181],[5.55732,52.12172],[5.56839,52.12245],[5.57106,52.12228],[5.57653,52.12075],[5.57718,52.11744],[5.58107,52.11772],[5.58697,52.11522],[5.5934,52.11736],[5.59672,52.11656],[5.59551,52.11815],[5.59523,52.12027],[5.60192,52.11802],[5.60418,52.12028],[5.60707,52.11895],[5.6083,52.11879],[5.6118,52.1221],[5.61873,52.11893],[5.62239,52.11816],[5.62321,52.11885],[5.61974,52.12367],[5.62662,52.1257],[5.62841,52.1267],[5.6335,52.1271],[5.63522,52.12651],[5.63501,52.1233],[5.63726,52.12147],[5.6432,52.12064],[5.64419,52.12339],[5.64367,52.12527],[5.6455,52.12752],[5.64974,52.12701],[5.65264,52.1247],[5.65635,52.12333],[5.65942,52.11706],[5.66521,52.11899],[5.66724,52.1189],[5.66824,52.11995],[5.67673,52.11856],[5.67713,52.11943],[5.68388,52.12353],[5.68473,52.12508],[5.71011,52.11756],[5.7117,52.11818],[5.71226,52.12045],[5.71432,52.12185],[5.72279,52.1249],[5.72129,52.12613],[5.71758,52.12671],[5.71587,52.12735],[5.71549,52.12772],[5.71629,52.12833],[5.72192,52.12852],[5.72752,52.12992],[5.73114,52.12993],[5.73568,52.12915],[5.73717,52.12963],[5.74406,52.12924],[5.7422,52.13136],[5.74862,52.13355],[5.74783,52.13448],[5.74992,52.13508],[5.75121,52.13139],[5.7581,52.1249],[5.7524,52.12387],[5.76003,52.10844],[5.75898,52.10505],[5.75594,52.10368],[5.7548,52.10372],[5.7532,52.10075],[5.76398,52.10086],[5.76983,52.1036],[5.77187,52.10278],[5.77135,52.10091],[5.77191,52.09827],[5.77709,52.08645],[5.77991,52.08156],[5.7903,52.07084],[5.8145,52.03618],[5.81675,52.03535],[5.82342,52.03495],[5.83378,52.03315],[5.87069,52.03166],[5.88791,52.03446],[5.89439,52.01474],[5.89677,52.01382],[5.90063,52.0137],[5.9027,52.01299],[5.90361,52.01194],[5.90469,52.0083],[5.9083,52.00534],[5.9064,52.00738],[5.90667,52.00758],[5.91829,52.00829],[5.92388,52.00931],[5.92979,52.00943],[5.94429,52.01059],[5.9535,52.01001],[5.95919,52.00698],[5.96183,52.00062],[5.96384,51.99319],[5.96317,51.99041],[5.96185,51.98913],[5.9588,51.98716],[5.95426,51.98572],[5.95424,51.98543],[5.96361,51.97637],[5.95967,51.97456],[5.95611,51.97229],[5.95431,51.97029],[5.95126,51.97148],[5.95264,51.97254],[5.95442,51.97255],[5.96746,51.9638],[5.96714,51.96352],[5.95957,51.96326],[5.95947,51.9627],[5.96034,51.95865],[5.96257,51.95655],[5.96429,51.95577],[5.96375,51.95474],[5.96549,51.95188],[5.96498,51.95055],[5.96636,51.94956],[5.96717,51.94679],[5.96707,51.9428],[5.96919,51.9412],[5.96869,51.93575],[5.97035,51.93366],[5.97059,51.93216],[5.97989,51.92902],[5.98452,51.92879],[5.98581,51.92841],[5.98833,51.9258],[5.99146,51.92386],[5.99279,51.92239],[6.00969,51.92536],[6.01304,51.92688],[6.01702,51.92971],[6.01991,51.93108],[6.02362,51.93226],[6.02608,51.93246],[6.02997,51.93175],[6.0309,51.93187],[6.0343,51.93019],[6.03818,51.92956],[6.04134,51.92833],[6.04506,51.92821],[6.05015,51.92548],[6.0534,51.92449],[6.0544,51.92442],[6.0552,51.92645],[6.05636,51.92615],[6.05743,51.92637],[6.08883,51.91859]]}},{"type":"Feature","properties":{"name":"TET_NL-02_20260710","country":"NL","lengthKm":413.9},"geometry":{"type":"LineString","coordinates":[[7.1803,53.12668],[7.18763,53.10135],[7.18685,53.09894],[7.16372,53.08604],[7.12573,53.06073],[7.12422,53.05935],[7.12406,53.05799],[7.12702,53.05375],[7.12681,53.05325],[7.1154,53.04729],[7.09624,53.04131],[7.09678,53.04091],[7.09846,53.04179],[7.11522,53.04684],[7.12757,53.05298],[7.13644,53.03953],[7.13976,53.01936],[7.15717,53.00758],[7.15775,53.00788],[7.15895,53.00693],[7.17452,53.00895],[7.1836,53.00863],[7.18547,53.01029],[7.18604,53.00997],[7.18451,53.00842],[7.17412,53.00859],[7.15958,53.00646],[7.16373,52.98812],[7.16282,52.98812],[7.16731,52.96553],[7.1634,52.94444],[7.16182,52.94027],[7.1578,52.93246],[7.13127,52.92261],[7.11479,52.91544],[7.1017,52.90219],[7.10002,52.89018],[7.09894,52.87146],[7.09761,52.87008],[7.09644,52.86982],[7.08176,52.86989],[7.08178,52.86953],[7.07749,52.86951],[7.07649,52.86907],[7.07243,52.87367],[7.07177,52.87386],[7.06594,52.87387],[7.06588,52.87353],[7.04169,52.87366],[7.04352,52.86944],[7.02544,52.86725],[7.02364,52.86745],[7.01129,52.86461],[7.01257,52.86339],[7.00466,52.85763],[7.00271,52.85669],[7.00977,52.84937],[7.00961,52.84894],[6.98383,52.83899],[6.98132,52.84086],[6.96519,52.83467],[6.95466,52.84463],[6.94869,52.84469],[6.94828,52.8452],[6.94527,52.84568],[6.91011,52.83261],[6.9056,52.83683],[6.90208,52.8416],[6.89509,52.84098],[6.8953,52.83777],[6.89227,52.83588],[6.88236,52.83434],[6.88286,52.83235],[6.87747,52.83397],[6.87453,52.83431],[6.87254,52.83638],[6.87282,52.83854],[6.87413,52.83895],[6.87345,52.8396],[6.84861,52.82435],[6.84256,52.83129],[6.83715,52.8337],[6.83607,52.83519],[6.83966,52.83869],[6.84035,52.84344],[6.83834,52.84209],[6.8321,52.83955],[6.8295,52.83731],[6.83549,52.83452],[6.82728,52.8254],[6.82447,52.82469],[6.82275,52.82342],[6.8243,52.8216],[6.83923,52.81238],[6.8409,52.81036],[6.85155,52.80377],[6.86006,52.80164],[6.86663,52.78654],[6.85839,52.78802],[6.85645,52.78795],[6.85023,52.7868],[6.84503,52.78496],[6.84236,52.78446],[6.83639,52.78524],[6.82523,52.78776],[6.82074,52.78824],[6.81833,52.78787],[6.81972,52.78609],[6.81813,52.78297],[6.81913,52.77955],[6.82055,52.77889],[6.82311,52.77841],[6.82504,52.77735],[6.82547,52.7765],[6.82489,52.77443],[6.81905,52.77307],[6.81804,52.7723],[6.82022,52.77105],[6.8212,52.76897],[6.81677,52.76688],[6.81427,52.76465],[6.81,52.76346],[6.80835,52.76363],[6.80773,52.76409],[6.78754,52.75851],[6.78519,52.75255],[6.7894,52.74311],[6.78544,52.74241],[6.78431,52.74256],[6.77967,52.74602],[6.77446,52.75341],[6.76362,52.7572],[6.76045,52.76023],[6.75729,52.75976],[6.75534,52.76042],[6.75319,52.76397],[6.75305,52.7655],[6.75388,52.76599],[6.75223,52.7687],[6.75112,52.76824],[6.7457,52.77044],[6.73898,52.77182],[6.73427,52.77494],[6.73486,52.77587],[6.73229,52.77883],[6.73262,52.78111],[6.73194,52.78446],[6.73436,52.78538],[6.7327,52.78716],[6.727,52.78692],[6.72551,52.78846],[6.72258,52.78864],[6.71974,52.78803],[6.71943,52.78708],[6.71962,52.78252],[6.72063,52.77924],[6.72026,52.77571],[6.71794,52.77605],[6.71632,52.77567],[6.71303,52.77581],[6.70226,52.77208],[6.70247,52.77067],[6.7057,52.76469],[6.69991,52.76316],[6.69869,52.76366],[6.69479,52.76133],[6.69248,52.75473],[6.69731,52.75367],[6.69307,52.75134],[6.69046,52.74899],[6.67832,52.75414],[6.67452,52.75467],[6.67262,52.75601],[6.65065,52.75497],[6.63156,52.7586],[6.62743,52.76279],[6.61691,52.76296],[6.60545,52.76769],[6.59935,52.76913],[6.58216,52.77154],[6.57952,52.77088],[6.57451,52.76791],[6.57049,52.76186],[6.56366,52.7616],[6.56105,52.761],[6.55746,52.76113],[6.55302,52.75939],[6.54884,52.75966],[6.54637,52.74629],[6.54417,52.74641],[6.54374,52.74262],[6.5289,52.74374],[6.52632,52.74343],[6.52015,52.75187],[6.51689,52.75253],[6.5166,52.75213],[6.51316,52.75243],[6.51272,52.75191],[6.50638,52.7536],[6.50596,52.75346],[6.50731,52.75204],[6.50578,52.75149],[6.49694,52.75392],[6.49664,52.75703],[6.495,52.7567],[6.48799,52.75739],[6.48384,52.75881],[6.46189,52.76175],[6.45687,52.76297],[6.45392,52.76209],[6.44333,52.76078],[6.42055,52.74821],[6.41861,52.74538],[6.42016,52.74433],[6.42325,52.74331],[6.43382,52.73233],[6.43052,52.72848],[6.43168,52.72578],[6.42929,52.72521],[6.42754,52.72526],[6.41564,52.72274],[6.41435,52.71964],[6.40893,52.71574],[6.40089,52.71622],[6.39945,52.71535],[6.39878,52.71243],[6.39896,52.71177],[6.40043,52.71082],[6.40066,52.7077],[6.40471,52.70708],[6.40643,52.70721],[6.40964,52.70822],[6.4128,52.70496],[6.42005,52.70153],[6.43379,52.697],[6.43075,52.69134],[6.42914,52.68944],[6.42924,52.68691],[6.43792,52.68692],[6.44292,52.68852],[6.44507,52.68964],[6.44775,52.69225],[6.44856,52.69499],[6.44798,52.69614],[6.45091,52.69627],[6.45156,52.69672],[6.45464,52.69704],[6.45536,52.69451],[6.45199,52.69412],[6.45253,52.69212],[6.47733,52.69457],[6.47952,52.68443],[6.48013,52.68348],[6.48916,52.67667],[6.48896,52.67439],[6.47412,52.67369],[6.47476,52.6676],[6.47239,52.66374],[6.46781,52.65377],[6.46986,52.64487],[6.46708,52.63608],[6.44876,52.63837],[6.44437,52.64212],[6.44122,52.64384],[6.43419,52.64455],[6.42989,52.64552],[6.42616,52.6411],[6.42088,52.64186],[6.42297,52.65303],[6.41177,52.65381],[6.40722,52.65033],[6.40638,52.65039],[6.40571,52.64823],[6.40133,52.64806],[6.40022,52.65187],[6.3993,52.65179],[6.39793,52.6541],[6.3875,52.65168],[6.38702,52.65098],[6.37156,52.64562],[6.37093,52.6415],[6.37231,52.64079],[6.37665,52.64072],[6.37545,52.63957],[6.37247,52.63823],[6.37121,52.63914],[6.36804,52.63955],[6.36707,52.64035],[6.36225,52.6393],[6.36622,52.63521],[6.36435,52.62907],[6.36404,52.62674],[6.36456,52.62464],[6.36732,52.62195],[6.36985,52.62105],[6.37392,52.61771],[6.37498,52.616],[6.38015,52.61058],[6.38138,52.60757],[6.38437,52.60718],[6.3878,52.60533],[6.3913,52.60175],[6.3924,52.59354],[6.39754,52.5941],[6.39842,52.59125],[6.39502,52.59072],[6.39621,52.58706],[6.39605,52.58525],[6.39487,52.58477],[6.39519,52.57501],[6.40995,52.57888],[6.41761,52.56507],[6.42332,52.566],[6.42893,52.56791],[6.43163,52.56366],[6.43132,52.56328],[6.43266,52.56196],[6.44628,52.56319],[6.44986,52.55695],[6.4368,52.55508],[6.44071,52.54832],[6.45485,52.55123],[6.47509,52.55421],[6.47828,52.55285],[6.48026,52.55269],[6.4796,52.55165],[6.48135,52.54553],[6.47225,52.54495],[6.47342,52.54073],[6.477,52.54147],[6.49267,52.54306],[6.49969,52.54507],[6.50106,52.53668],[6.5008,52.53271],[6.50394,52.53106],[6.50518,52.52984],[6.50352,52.52942],[6.503,52.52874],[6.4987,52.52814],[6.49711,52.52726],[6.4951,52.52507],[6.49211,52.52426],[6.49072,52.52036],[6.4892,52.52],[6.48855,52.51871],[6.4845,52.51692],[6.48036,52.51284],[6.49305,52.51175],[6.49529,52.50743],[6.50149,52.507],[6.505,52.50597],[6.50795,52.50563],[6.50955,52.50653],[6.51413,52.50799],[6.51551,52.50585],[6.51565,52.50243],[6.51492,52.49832],[6.51267,52.49787],[6.50065,52.50062],[6.50324,52.49778],[6.50654,52.4928],[6.51006,52.49099],[6.50534,52.48447],[6.50323,52.47828],[6.50443,52.47522],[6.50195,52.47284],[6.5011,52.46597],[6.499,52.46447],[6.50114,52.4626],[6.5031,52.46165],[6.50333,52.46106],[6.50581,52.46083],[6.50641,52.46047],[6.50742,52.46106],[6.51822,52.4623],[6.5197,52.45905],[6.52477,52.45653],[6.53232,52.45146],[6.54154,52.45151],[6.5469,52.45206],[6.54703,52.45178],[6.55871,52.45048],[6.55989,52.44995],[6.56163,52.449],[6.56345,52.44719],[6.56504,52.4444],[6.57282,52.42387],[6.57408,52.42328],[6.58733,52.42677],[6.57814,52.4422],[6.57877,52.44209],[6.58267,52.43649],[6.59585,52.44269],[6.59599,52.44316],[6.59428,52.44455],[6.59431,52.44505],[6.59705,52.44628],[6.60427,52.44584],[6.62825,52.45192],[6.62903,52.4461],[6.62994,52.44577],[6.6319,52.44613],[6.63271,52.4412],[6.63781,52.44242],[6.63889,52.44416],[6.64272,52.44513],[6.64388,52.44458],[6.65437,52.44706],[6.6551,52.44313],[6.65558,52.44295],[6.66015,52.44278],[6.69115,52.43952],[6.70011,52.43473],[6.70382,52.43387],[6.70577,52.43591],[6.70598,52.43718],[6.70874,52.43589],[6.74387,52.44541],[6.7446,52.446],[6.7455,52.44882],[6.74838,52.45282],[6.75053,52.45476],[6.75531,52.45602],[6.75617,52.45539],[6.75801,52.45529],[6.7633,52.45125],[6.77414,52.45082],[6.77804,52.45148],[6.78581,52.44974],[6.78426,52.4462],[6.78658,52.44347],[6.79876,52.44618],[6.80264,52.44505],[6.81133,52.44868],[6.81592,52.44783],[6.81967,52.44807],[6.82078,52.44642],[6.82317,52.44453],[6.82444,52.44406],[6.82454,52.44285],[6.82521,52.44278],[6.83011,52.44362],[6.83466,52.44394],[6.84011,52.44528],[6.84384,52.44572],[6.84413,52.44443],[6.84338,52.44313],[6.84608,52.44198],[6.84934,52.43764],[6.85211,52.43642],[6.85411,52.43452],[6.85711,52.429],[6.86116,52.42823],[6.86682,52.42932],[6.86742,52.43097],[6.86879,52.43163],[6.87054,52.43177],[6.87147,52.42956],[6.87559,52.42343],[6.86449,52.42201],[6.8638,52.42162],[6.86469,52.41964],[6.8644,52.419],[6.868,52.41701],[6.86538,52.41459],[6.85984,52.41372],[6.85644,52.41229],[6.85522,52.41287],[6.85329,52.41257],[6.8537,52.41105],[6.85064,52.41043],[6.8522,52.40981],[6.85237,52.40938],[6.84599,52.40819],[6.84528,52.40973],[6.84551,52.41138],[6.83322,52.41347],[6.83195,52.42052],[6.83269,52.42237],[6.83066,52.42175],[6.8302,52.42289],[6.8309,52.42408],[6.82999,52.42484],[6.82138,52.42573],[6.81716,52.42655],[6.81655,52.42588],[6.81126,52.4286],[6.79472,52.42667],[6.78573,52.42724],[6.78097,52.42795],[6.78101,52.43122],[6.77661,52.43038],[6.77174,52.43005],[6.7582,52.43053],[6.75753,52.42944],[6.75683,52.42932],[6.75871,52.42556],[6.75501,52.42555],[6.75404,52.42423],[6.75489,52.41952],[6.75796,52.41651],[6.76125,52.41634],[6.76366,52.41529],[6.76299,52.41234],[6.76483,52.40977],[6.76181,52.40807],[6.76238,52.40321],[6.75999,52.40095],[6.76059,52.39838],[6.75315,52.39348],[6.74588,52.39021],[6.7477,52.3888],[6.74688,52.38604],[6.75174,52.38614],[6.75308,52.3842],[6.74549,52.38282],[6.74555,52.38323],[6.74394,52.38381],[6.74206,52.383],[6.74165,52.38137],[6.73992,52.38183],[6.74052,52.37998],[6.74327,52.38092],[6.74634,52.38027],[6.74971,52.38062],[6.75211,52.38014],[6.74943,52.3792],[6.74786,52.37915],[6.74081,52.37721],[6.74011,52.37642],[6.7392,52.37625],[6.72504,52.37695],[6.72325,52.37687],[6.71751,52.37544],[6.71631,52.37569],[6.71922,52.37145],[6.7227,52.36785],[6.71758,52.36672],[6.74366,52.36094],[6.74742,52.36081],[6.74838,52.35961],[6.75303,52.3588],[6.75157,52.3573],[6.75169,52.35185],[6.75183,52.35116],[6.75552,52.34781],[6.75467,52.34719],[6.76415,52.3457],[6.76604,52.34377],[6.77036,52.34335],[6.764,52.33949],[6.76433,52.33419],[6.76506,52.3341],[6.77562,52.32668],[6.77941,52.32343],[6.77597,52.32025],[6.77144,52.31919],[6.7693,52.31609],[6.76649,52.31608],[6.76252,52.31812],[6.76128,52.31511],[6.75891,52.31338],[6.75607,52.31343],[6.75487,52.31215],[6.75259,52.31125],[6.7526,52.31019],[6.75091,52.31041],[6.74632,52.30974],[6.74691,52.31487],[6.74523,52.31953],[6.74119,52.31652],[6.74134,52.31518],[6.73687,52.31551],[6.73744,52.31716],[6.73316,52.32114],[6.73043,52.32194],[6.72672,52.32111],[6.72414,52.32273],[6.72015,52.31893],[6.7157,52.31842],[6.71404,52.31746],[6.715,52.317],[6.71496,52.31495],[6.71418,52.31419],[6.71497,52.31171],[6.71434,52.31003],[6.71263,52.30822],[6.71267,52.30519],[6.71111,52.30389],[6.71122,52.30291],[6.71284,52.30131],[6.71379,52.29891],[6.703,52.2982],[6.70535,52.28895],[6.70168,52.28965],[6.69352,52.28927],[6.69162,52.28211],[6.6896,52.27702],[6.68728,52.27709],[6.68287,52.27621],[6.68123,52.27495],[6.66958,52.27399],[6.67125,52.26874],[6.68677,52.26581],[6.69037,52.26557],[6.69777,52.26586],[6.69861,52.26836],[6.70048,52.26746],[6.70213,52.26567],[6.7025,52.26349],[6.70139,52.26055],[6.70157,52.25587],[6.69888,52.25208],[6.70985,52.25184],[6.71383,52.23825],[6.71514,52.2267],[6.71724,52.22337],[6.72062,52.21868],[6.73986,52.21689],[6.74233,52.21575],[6.74352,52.21579],[6.74047,52.21046],[6.73945,52.20988],[6.74026,52.21054],[6.73924,52.21174],[6.73624,52.21196],[6.73291,52.21171],[6.73214,52.21036],[6.73067,52.20952],[6.72917,52.2097],[6.72673,52.20696],[6.72625,52.207],[6.70917,52.20947],[6.6921,52.21688],[6.6895,52.21055],[6.68328,52.21145],[6.67888,52.21077],[6.67772,52.21123],[6.67682,52.20978],[6.67693,52.2073],[6.67218,52.20264],[6.66782,52.20535],[6.66503,52.20768],[6.66168,52.20896],[6.65741,52.2114],[6.65487,52.21391],[6.65261,52.21764],[6.66047,52.22212],[6.66695,52.22501],[6.6416,52.22752],[6.63228,52.22343],[6.6338,52.22214],[6.63408,52.22138],[6.63311,52.22065],[6.63521,52.21712],[6.62585,52.21832],[6.62095,52.21372],[6.62111,52.213],[6.62521,52.20875],[6.61739,52.20416],[6.60971,52.20361],[6.60721,52.204],[6.60514,52.20484],[6.60345,52.20389],[6.60249,52.19949],[6.60366,52.1968],[6.60332,52.19598],[6.59993,52.19415],[6.59808,52.19384],[6.59564,52.19449],[6.59122,52.195],[6.58962,52.19453],[6.58816,52.1947],[6.58755,52.19588],[6.58612,52.19648],[6.58479,52.19591],[6.58312,52.19586],[6.58171,52.19652],[6.57459,52.19576],[6.57344,52.19248],[6.57907,52.19002],[6.58195,52.18693],[6.57919,52.18353],[6.56727,52.18547],[6.56702,52.18488],[6.5683,52.18087],[6.56227,52.17935],[6.54864,52.17868],[6.54867,52.17802],[6.54537,52.17313],[6.54602,52.16623],[6.54772,52.16581],[6.56233,52.154],[6.54553,52.15256],[6.54213,52.14857],[6.5368,52.14627],[6.53551,52.14513],[6.53218,52.1471],[6.53076,52.14275],[6.53437,52.14024],[6.53358,52.13784],[6.54141,52.13461],[6.53009,52.13121],[6.52697,52.12798],[6.51749,52.12829],[6.51823,52.12503],[6.5229,52.12011],[6.52302,52.11667],[6.5182,52.11487],[6.51436,52.11618],[6.50989,52.11709],[6.50997,52.11987],[6.50876,52.12164],[6.50587,52.12288],[6.50278,52.12322],[6.50156,52.1216],[6.49841,52.12032],[6.49801,52.11898],[6.49598,52.11756],[6.49688,52.10906],[6.4976,52.10687],[6.49561,52.10692],[6.49423,52.10849],[6.49111,52.10804],[6.48621,52.10654],[6.48625,52.10128],[6.48435,52.09988],[6.48411,52.0974],[6.48455,52.09676],[6.48398,52.09644],[6.48795,52.09426],[6.48609,52.0913],[6.48574,52.08656],[6.47805,52.08931],[6.47661,52.08892],[6.47152,52.08899],[6.46751,52.08773],[6.47482,52.08293],[6.47803,52.08365],[6.48326,52.08326],[6.48434,52.08009],[6.48329,52.08004],[6.48002,52.07757],[6.47564,52.07637],[6.47759,52.07396],[6.48467,52.06761],[6.48649,52.0669],[6.4853,52.06702],[6.48135,52.06359],[6.47141,52.0599],[6.46327,52.05608],[6.46881,52.05384],[6.47403,52.04675],[6.47004,52.04032],[6.46308,52.04637],[6.45203,52.04433],[6.45776,52.03217],[6.4535,52.03112],[6.4595,52.01842],[6.46338,52.01664],[6.46409,52.01529],[6.46595,52.0141],[6.45801,52.01186],[6.44597,52.00613],[6.44033,52.00208],[6.44006,52.00011],[6.4435,51.99972],[6.44971,51.99653],[6.45048,51.99568],[6.44731,51.99519],[6.44914,51.9942],[6.4453,51.9913],[6.44679,51.99061],[6.44621,51.98759],[6.45258,51.98471],[6.44629,51.98297],[6.44512,51.98142],[6.44431,51.98109],[6.4416,51.98241],[6.43174,51.98467],[6.42461,51.97689],[6.42061,51.97505],[6.418,51.96959],[6.41282,51.96702],[6.40942,51.96244],[6.40191,51.96365],[6.39869,51.9658],[6.39308,51.96709],[6.38206,51.96061],[6.37756,51.95929],[6.37339,51.95721],[6.37314,51.95564],[6.36921,51.95683],[6.36062,51.95262],[6.35285,51.95123],[6.35294,51.95482],[6.3516,51.95582],[6.35051,51.95815],[6.34901,51.95909],[6.34575,51.95978],[6.34133,51.96261],[6.34241,51.96581],[6.34608,51.96657],[6.3485,51.96626],[6.35284,51.96393],[6.35952,51.96953],[6.36494,51.9696],[6.36795,51.96853],[6.38016,51.96742],[6.37499,51.97279],[6.36994,51.97627],[6.36913,51.98055],[6.36703,51.9841],[6.36268,51.98313],[6.36352,51.97943],[6.35855,51.97988],[6.35817,51.98124],[6.36029,51.98378],[6.3573,51.98536],[6.35375,51.9864],[6.35216,51.98488],[6.3452,51.98097],[6.34428,51.98097],[6.3397,51.98345],[6.33827,51.98148],[6.33015,51.98189],[6.32603,51.97919],[6.316,51.98162],[6.31335,51.98448],[6.31144,51.98435],[6.3092,51.98533],[6.30923,51.98749],[6.31069,51.98829],[6.30732,51.99262],[6.30603,51.99293],[6.30348,51.99144],[6.29534,51.98869],[6.29052,51.98448],[6.28642,51.9873],[6.28958,51.99052],[6.28967,51.99124],[6.28124,51.99675],[6.27961,52.00033],[6.27956,52.00168],[6.27217,52.00127],[6.2684,52.00222],[6.26663,52.00304],[6.26406,52.00584],[6.25773,52.00555],[6.25276,52.00682],[6.2377,52.00208],[6.2323,52.00084],[6.22892,52.00087],[6.22623,51.99798],[6.22534,51.99547],[6.22389,51.99416],[6.22077,51.98938],[6.21499,51.97427],[6.21206,51.97647],[6.21054,51.97666],[6.20872,51.97628],[6.20589,51.97678],[6.20134,51.97615],[6.19932,51.97747],[6.19252,51.97603],[6.18399,51.97738],[6.18395,51.97424],[6.18161,51.97481],[6.17971,51.97462],[6.17235,51.97305],[6.17192,51.97197],[6.17271,51.97018],[6.17236,51.96744],[6.17185,51.96493],[6.17094,51.96386],[6.17004,51.96114],[6.16402,51.96199],[6.16001,51.96325],[6.1581,51.96118],[6.15276,51.96048],[6.1424,51.95807],[6.14315,51.95622],[6.14009,51.95477],[6.13874,51.95531],[6.13722,51.95847],[6.13489,51.95875],[6.13371,51.95705],[6.12989,51.95667],[6.12745,51.95581],[6.12543,51.95448],[6.12214,51.95378],[6.12088,51.95208],[6.11951,51.9521],[6.11693,51.95126],[6.10948,51.95011],[6.11011,51.94891],[6.11167,51.94764],[6.1089,51.94654],[6.10925,51.94595],[6.11216,51.94456],[6.11513,51.94224],[6.11762,51.94318],[6.11932,51.9417],[6.11851,51.94069],[6.11953,51.93964],[6.11849,51.93841],[6.11876,51.93785],[6.12081,51.93854],[6.12118,51.93772],[6.12071,51.93634],[6.12098,51.93322],[6.1203,51.93114],[6.11709,51.92925],[6.11139,51.92761],[6.10568,51.92752],[6.10227,51.92787],[6.09119,51.9258],[6.09142,51.92399],[6.09037,51.91721],[6.09152,51.91588],[6.09395,51.91526],[6.0941,51.91565],[6.09197,51.91786],[6.08907,51.91845]]}},{"type":"Feature","properties":{"name":"TET_NL-03_20260710","country":"NL","lengthKm":208.2},"geometry":{"type":"LineString","coordinates":[[6.08907,51.91845],[6.08526,51.91662],[6.08303,51.91373],[6.08007,51.9142],[6.07457,51.91395],[6.07177,51.9149],[6.06746,51.91424],[6.06038,51.91501],[6.05885,51.91483],[6.05767,51.91382],[6.04989,51.91361],[6.04628,51.91276],[6.04425,51.91339],[6.03769,51.91117],[6.03624,51.91103],[6.03574,51.90704],[6.03805,51.90407],[6.03902,51.90172],[6.0359,51.89583],[6.03638,51.89246],[6.0335,51.89228],[6.02703,51.89097],[6.02582,51.89331],[6.02334,51.89317],[6.02236,51.89244],[6.02325,51.8892],[6.02291,51.88876],[6.02123,51.88818],[6.0143,51.88704],[6.00717,51.88657],[6.00487,51.88549],[6.00326,51.88534],[6.00112,51.88326],[5.99794,51.88191],[5.99584,51.87945],[5.99125,51.8782],[5.98757,51.87546],[5.98255,51.87613],[5.98089,51.87672],[5.97553,51.87654],[5.97336,51.87416],[5.97074,51.87327],[5.96739,51.87121],[5.96192,51.86899],[5.95314,51.86819],[5.95162,51.86828],[5.94731,51.86948],[5.94521,51.87057],[5.93934,51.87527],[5.93443,51.87989],[5.93143,51.88083],[5.92795,51.88255],[5.92649,51.8841],[5.9221,51.88441],[5.91771,51.88614],[5.91367,51.8859],[5.91134,51.8873],[5.90715,51.88591],[5.90247,51.88605],[5.90062,51.8865],[5.89916,51.88612],[5.89518,51.88737],[5.89001,51.8879],[5.88805,51.88859],[5.88709,51.88651],[5.88749,51.8833],[5.87966,51.88163],[5.87955,51.87957],[5.87701,51.87651],[5.88001,51.86946],[5.87844,51.86828],[5.87838,51.86591],[5.87953,51.86396],[5.87759,51.86296],[5.87649,51.86376],[5.87516,51.86351],[5.87516,51.86263],[5.87431,51.86209],[5.8708,51.86088],[5.86931,51.85823],[5.86793,51.85747],[5.87367,51.84694],[5.8737,51.84291],[5.88503,51.83692],[5.88647,51.83553],[5.88796,51.83553],[5.89895,51.83094],[5.90428,51.82745],[5.91333,51.82453],[5.91761,51.8215],[5.92246,51.81932],[5.92375,51.81834],[5.92591,51.81765],[5.93184,51.81676],[5.936,51.815],[5.94281,51.81443],[5.94816,51.81123],[5.95552,51.81002],[5.96208,51.80747],[5.96557,51.80559],[5.96666,51.80439],[5.96588,51.80395],[5.97039,51.80052],[5.9715,51.79993],[5.97329,51.79994],[5.97719,51.79788],[5.97365,51.79569],[5.97286,51.79198],[5.97163,51.79112],[5.96982,51.78743],[5.97118,51.78205],[5.97098,51.77842],[5.96914,51.77221],[5.96656,51.77244],[5.96617,51.76998],[5.96209,51.76445],[5.95953,51.76379],[5.95624,51.76377],[5.94677,51.7656],[5.94065,51.76206],[5.93382,51.76978],[5.92909,51.76718],[5.92029,51.76051],[5.92232,51.75943],[5.92096,51.75833],[5.92496,51.75654],[5.93228,51.75158],[5.93271,51.75169],[5.9378,51.74904],[5.94223,51.75205],[5.95106,51.74922],[5.95298,51.74826],[5.95223,51.74251],[5.95468,51.73923],[5.95527,51.73763],[5.95597,51.72992],[5.97109,51.72724],[5.987,51.72569],[5.99653,51.72387],[5.99758,51.72237],[5.99563,51.717],[5.99389,51.71444],[5.99452,51.7128],[5.99534,51.71222],[5.99604,51.70824],[5.99869,51.70823],[5.99981,51.70607],[5.9955,51.70523],[5.99121,51.70375],[5.99668,51.70116],[6.00138,51.69999],[6.00412,51.69773],[6.00706,51.6938],[6.01017,51.69324],[6.01629,51.69042],[6.01539,51.68976],[6.01697,51.68864],[6.01778,51.6875],[6.01751,51.68709],[6.01895,51.68567],[6.02037,51.6827],[6.0212,51.68201],[6.01399,51.67603],[6.01321,51.67593],[6.01232,51.67656],[6.01162,51.67632],[6.01592,51.67383],[6.02024,51.67253],[6.0168,51.67068],[6.01313,51.66969],[6.0135,51.66732],[6.0161,51.66291],[6.01499,51.66218],[6.01423,51.66029],[6.01662,51.65745],[6.01769,51.65691],[6.02035,51.6588],[6.02507,51.65673],[6.02992,51.65842],[6.03408,51.65707],[6.03387,51.6557],[6.04546,51.654],[6.04608,51.65317],[6.05624,51.65199],[6.05771,51.65096],[6.05669,51.64974],[6.0439,51.64667],[6.05131,51.6403],[6.05253,51.63679],[6.07314,51.63728],[6.07699,51.63512],[6.09199,51.63038],[6.08893,51.6294],[6.08487,51.62581],[6.07976,51.62838],[6.07601,51.63119],[6.07066,51.62679],[6.06935,51.62728],[6.06182,51.6282],[6.06017,51.61735],[6.05657,51.614],[6.06022,51.60752],[6.05972,51.6058],[6.06237,51.6016],[6.06358,51.597],[6.06791,51.59275],[6.06788,51.59108],[6.06845,51.59015],[6.06632,51.59005],[6.06049,51.58827],[6.06319,51.5862],[6.06231,51.58548],[6.06276,51.58468],[6.06085,51.58411],[6.06701,51.57855],[6.06081,51.57675],[6.05955,51.57507],[6.05931,51.57267],[6.05689,51.57212],[6.05736,51.5704],[6.05473,51.56987],[6.05902,51.56623],[6.06417,51.56339],[6.06736,51.56299],[6.07134,51.56303],[6.07444,51.56233],[6.07868,51.56203],[6.08108,51.56136],[6.08402,51.55927],[6.07893,51.55509],[6.07691,51.55467],[6.07603,51.55355],[6.0799,51.55241],[6.08618,51.54969],[6.09176,51.54825],[6.09946,51.55015],[6.0994,51.55107],[6.09851,51.55138],[6.09823,51.55341],[6.09932,51.55497],[6.09483,51.55692],[6.0937,51.5579],[6.09487,51.55855],[6.09779,51.55887],[6.10465,51.56444],[6.11309,51.56189],[6.11771,51.56251],[6.12078,51.56166],[6.12156,51.56069],[6.12661,51.5602],[6.12833,51.55864],[6.13024,51.55821],[6.13343,51.55801],[6.13532,51.55885],[6.13768,51.55806],[6.13789,51.55674],[6.13975,51.55605],[6.14474,51.55521],[6.14534,51.55381],[6.14994,51.55155],[6.16658,51.54108],[6.17042,51.54186],[6.17805,51.53122],[6.17959,51.53083],[6.18389,51.53166],[6.1851,51.53151],[6.19038,51.52695],[6.195,51.52516],[6.19615,51.52299],[6.2,51.52111],[6.20441,51.51505],[6.20523,51.51249],[6.20803,51.5113],[6.20809,51.50797],[6.20158,51.50845],[6.20088,51.50518],[6.20471,51.49406],[6.21277,51.49331],[6.21214,51.48907],[6.20828,51.48865],[6.20811,51.4861],[6.20408,51.48453],[6.20199,51.4831],[6.20245,51.48225],[6.20417,51.48205],[6.20677,51.48335],[6.20796,51.48227],[6.20701,51.48138],[6.20901,51.47972],[6.21186,51.47818],[6.21354,51.4766],[6.2101,51.47583],[6.21053,51.47257],[6.21273,51.4693],[6.20851,51.46298],[6.20942,51.46198],[6.2098,51.4605],[6.21066,51.45212],[6.20375,51.45251],[6.20337,51.45154],[6.19982,51.44917],[6.19916,51.44794],[6.20337,51.44805],[6.20395,51.44514],[6.20547,51.44418],[6.2057,51.44273],[6.20358,51.43953],[6.19774,51.43499],[6.20353,51.43335],[6.20614,51.43354],[6.20593,51.42817],[6.20962,51.42829],[6.20741,51.42535],[6.20903,51.42511],[6.20923,51.42478],[6.20527,51.41055],[6.20059,51.40818],[6.19769,51.40734],[6.19106,51.40823],[6.18867,51.4011],[6.19482,51.40257],[6.1952,51.4016],[6.20553,51.39947],[6.20708,51.39978],[6.20359,51.39526],[6.21115,51.40089],[6.21622,51.40043],[6.21693,51.40016],[6.21578,51.39918],[6.2221,51.39548],[6.21775,51.39184],[6.21037,51.38726],[6.20914,51.38498],[6.2064,51.38328],[6.20458,51.38154],[6.20275,51.38076],[6.19784,51.38138],[6.19523,51.37776],[6.19452,51.37783],[6.19366,51.37693],[6.19288,51.37702],[6.20414,51.37553],[6.20488,51.37481],[6.20466,51.3731],[6.20168,51.37063],[6.19665,51.36031],[6.19091,51.35437],[6.19484,51.35292],[6.18516,51.34875],[6.1865,51.34692],[6.18756,51.34646],[6.18704,51.34597],[6.19139,51.34102],[6.1893,51.34011],[6.19071,51.33853],[6.19052,51.33805],[6.18669,51.33763],[6.1826,51.33638],[6.17872,51.33573],[6.17732,51.33817],[6.17836,51.34058],[6.17706,51.34234],[6.17054,51.3432],[6.1689,51.33502],[6.1665,51.33493],[6.16255,51.33243],[6.15316,51.33804],[6.15064,51.33904],[6.14573,51.33995],[6.1455,51.33903],[6.14418,51.3382],[6.1429,51.33893],[6.14056,51.33764],[6.13523,51.33333],[6.13522,51.33203],[6.133,51.33134],[6.13297,51.33106],[6.13405,51.3309],[6.13599,51.32833],[6.1381,51.32724],[6.13863,51.32652],[6.13646,51.32527],[6.13441,51.32622],[6.13176,51.3265],[6.12897,51.32768],[6.11211,51.31245],[6.11168,51.31168],[6.11683,51.30868],[6.12279,51.30414],[6.13092,51.2995],[6.1331,51.29883],[6.11458,51.27973],[6.10947,51.2818],[6.10625,51.27823],[6.10533,51.27502],[6.09512,51.26787],[6.0928,51.26897],[6.09142,51.2703],[6.08761,51.26924],[6.0897,51.26706],[6.08149,51.26132],[6.0894,51.25689],[6.0701,51.24349],[6.0629,51.24638],[6.06384,51.24183],[6.05762,51.24151],[6.06329,51.23612],[6.06404,51.23425],[6.06838,51.23301],[6.06868,51.23162],[6.06797,51.22746],[6.06563,51.22739],[6.06566,51.2215],[6.0578,51.22195],[6.05835,51.21919],[6.06067,51.21719],[6.06382,51.21795],[6.06683,51.21275],[6.05941,51.21127],[6.05619,51.20939],[6.05448,51.20976],[6.05165,51.20553],[6.04717,51.20412],[6.04577,51.20233],[6.04199,51.20047],[6.03963,51.20103],[6.03782,51.2021],[6.02965,51.20147],[6.03167,51.19466],[6.03156,51.19309],[6.03256,51.19133],[6.03127,51.18708],[6.03048,51.18725],[6.02288,51.18138],[6.01956,51.18075],[6.02154,51.17781],[6.01787,51.17765],[6.01694,51.17711],[6.01534,51.17784],[6.01395,51.1777],[6.0123,51.1756],[6.01856,51.17153],[6.02161,51.17279],[6.02327,51.1713],[6.02632,51.17289],[6.03274,51.17153],[6.05823,51.16113],[6.05725,51.15804],[6.05185,51.15847],[6.05205,51.15935],[6.04915,51.15956],[6.04883,51.15732],[6.05159,51.15667],[6.05584,51.15479],[6.05468,51.15423],[6.05382,51.15292],[6.05196,51.15221],[6.05176,51.15166],[6.05026,51.15137],[6.04693,51.14912],[6.04614,51.14684],[6.04764,51.14675],[6.05083,51.14754],[6.05825,51.14731],[6.06231,51.14785],[6.06832,51.14792],[6.06991,51.14877],[6.07234,51.14766],[6.07801,51.1467],[6.07892,51.14625],[6.08349,51.14198],[6.08736,51.1371],[6.08716,51.13652],[6.08433,51.13472],[6.07815,51.1322],[6.07812,51.13174],[6.07493,51.13141],[6.07327,51.1308],[6.07022,51.13118],[6.06212,51.12943],[6.04706,51.12789],[6.03917,51.12937],[6.03187,51.12993],[6.02968,51.12919],[6.02566,51.13355],[6.02232,51.13279],[6.02097,51.13203],[6.01806,51.13181],[6.01353,51.12878],[6.01081,51.12982],[6.00064,51.12997],[5.99936,51.12464],[5.9995,51.12295],[5.99768,51.11936],[6.00085,51.11422],[6.00067,51.11016],[5.99391,51.10755],[5.98957,51.10491],[5.98654,51.10372],[5.97939,51.1084],[5.97359,51.11373],[5.96852,51.11176],[5.97026,51.11009],[5.97719,51.10696],[5.97282,51.10397],[5.96951,51.10483],[5.96787,51.10666],[5.96742,51.11158],[5.95816,51.11094],[5.95337,51.1125],[5.94893,51.1147],[5.94748,51.11355],[5.94553,51.11317],[5.93911,51.11697],[5.9387,51.1155],[5.9318,51.11538],[5.93169,51.11417],[5.9216,51.11352],[5.91137,51.11176],[5.91021,51.11232],[5.90813,51.11452],[5.90707,51.11461],[5.90292,51.11211],[5.90985,51.10981],[5.91031,51.10917],[5.91594,51.10602],[5.91601,51.10536],[5.91083,51.10114],[5.9096,51.09942],[5.90388,51.09451],[5.90204,51.09377],[5.90106,51.09391],[5.90028,51.09336],[5.89925,51.09356],[5.89783,51.09135],[5.89832,51.08943],[5.89477,51.08466],[5.89668,51.08424],[5.89447,51.08057],[5.88886,51.08072],[5.88726,51.08024],[5.88144,51.07266],[5.87687,51.07027],[5.86936,51.06717],[5.85986,51.06713],[5.85755,51.06801],[5.85267,51.06428],[5.84943,51.06801],[5.84536,51.06991],[5.83935,51.07721],[5.83422,51.07838],[5.82867,51.07849],[5.82159,51.08063],[5.81793,51.08094]]}},{"type":"Feature","properties":{"name":"TET_NL-04_20260710","country":"NL","lengthKm":372.6},"geometry":{"type":"LineString","coordinates":[[4.29753,51.4297],[4.30132,51.42883],[4.30406,51.42913],[4.30577,51.42888],[4.30885,51.42427],[4.29962,51.42186],[4.30269,51.41701],[4.30264,51.41652],[4.3006,51.41521],[4.30215,51.41225],[4.30212,51.40903],[4.30118,51.40799],[4.29519,51.40491],[4.29491,51.40434],[4.31578,51.40425],[4.31677,51.40182],[4.32372,51.40175],[4.33017,51.39451],[4.32992,51.39336],[4.33739,51.39155],[4.34181,51.39095],[4.35315,51.39177],[4.35557,51.39242],[4.35787,51.39387],[4.35614,51.39638],[4.35583,51.39958],[4.35443,51.40388],[4.36099,51.40364],[4.36368,51.40403],[4.36484,51.40561],[4.37075,51.40769],[4.36773,51.41787],[4.36881,51.42102],[4.36718,51.42707],[4.37711,51.43064],[4.37783,51.4262],[4.38221,51.42425],[4.38703,51.42717],[4.38711,51.4284],[4.37981,51.43238],[4.38409,51.43435],[4.38375,51.43598],[4.38468,51.43871],[4.37882,51.44017],[4.3709,51.44083],[4.37038,51.44243],[4.36583,51.44329],[4.36466,51.44345],[4.36451,51.44304],[4.36247,51.44233],[4.35796,51.44504],[4.35665,51.44692],[4.36113,51.44805],[4.36857,51.44877],[4.37994,51.44807],[4.3823,51.45278],[4.38434,51.45237],[4.3854,51.45251],[4.38695,51.45362],[4.39043,51.45194],[4.4216,51.46236],[4.42207,51.46193],[4.42841,51.46398],[4.42348,51.47071],[4.42568,51.47227],[4.42621,51.47332],[4.43147,51.47472],[4.43227,51.476],[4.4342,51.47758],[4.42953,51.47836],[4.42716,51.47916],[4.42322,51.47915],[4.42026,51.47982],[4.4215,51.48183],[4.42426,51.48411],[4.42055,51.48584],[4.42428,51.49008],[4.42791,51.4889],[4.42855,51.4896],[4.43039,51.4898],[4.43184,51.49219],[4.44419,51.48755],[4.44302,51.48652],[4.44221,51.48432],[4.44152,51.48438],[4.44022,51.47855],[4.4439,51.47887],[4.44669,51.48065],[4.44907,51.48117],[4.45521,51.48185],[4.45624,51.48289],[4.46183,51.48218],[4.47221,51.48263],[4.48532,51.48155],[4.48674,51.47739],[4.49312,51.47793],[4.50426,51.47976],[4.50276,51.4836],[4.50874,51.4842],[4.53189,51.48851],[4.53927,51.48285],[4.52877,51.47558],[4.52895,51.47504],[4.53866,51.47295],[4.54833,51.47326],[4.54172,51.46459],[4.55119,51.46181],[4.56083,51.46107],[4.56152,51.46065],[4.56686,51.46139],[4.57022,51.45872],[4.57053,51.45664],[4.56685,51.4565],[4.55871,51.45235],[4.56131,51.45097],[4.55932,51.44941],[4.55828,51.44946],[4.55564,51.44817],[4.55988,51.4457],[4.56537,51.4448],[4.56244,51.44308],[4.56526,51.44109],[4.56648,51.4385],[4.57237,51.44225],[4.57701,51.43716],[4.57886,51.4378],[4.57955,51.43672],[4.58159,51.43575],[4.58349,51.43576],[4.58804,51.43449],[4.5938,51.43875],[4.58914,51.44436],[4.58983,51.44608],[4.58818,51.4495],[4.58506,51.45315],[4.58741,51.45391],[4.58496,51.45759],[4.58345,51.45876],[4.58477,51.46114],[4.58518,51.4626],[4.58481,51.46331],[4.58795,51.46678],[4.58809,51.46906],[4.58879,51.4705],[4.59651,51.47378],[4.59732,51.47459],[4.59716,51.4755],[4.60155,51.47875],[4.61123,51.48441],[4.61282,51.48383],[4.61384,51.48292],[4.61901,51.48586],[4.63351,51.49686],[4.63391,51.49774],[4.64882,51.48814],[4.65358,51.49205],[4.65565,51.49879],[4.6587,51.50099],[4.65866,51.50608],[4.66024,51.5114],[4.66262,51.50762],[4.66553,51.50551],[4.66817,51.5044],[4.66928,51.50472],[4.67132,51.50404],[4.67215,51.50417],[4.67459,51.50277],[4.67682,51.50272],[4.67535,51.50007],[4.67295,51.50013],[4.67098,51.49911],[4.66416,51.49689],[4.66967,51.49176],[4.68057,51.48797],[4.68572,51.48517],[4.69016,51.48392],[4.69375,51.48231],[4.69411,51.48164],[4.69615,51.48237],[4.69914,51.48478],[4.70448,51.48786],[4.70715,51.48759],[4.71077,51.48974],[4.71218,51.49178],[4.71402,51.4921],[4.71702,51.49197],[4.72127,51.48909],[4.7232,51.48986],[4.7247,51.49164],[4.72543,51.49173],[4.73462,51.48963],[4.73522,51.48996],[4.7356,51.49195],[4.73651,51.49285],[4.73736,51.49514],[4.736,51.49745],[4.7351,51.50193],[4.73796,51.50566],[4.74824,51.50497],[4.7526,51.50547],[4.75742,51.50857],[4.76491,51.51061],[4.76819,51.51067],[4.77268,51.51146],[4.7749,51.51254],[4.777,51.51073],[4.77629,51.50907],[4.7742,51.50676],[4.7741,51.50518],[4.77454,51.50504],[4.77839,51.50446],[4.77906,51.50522],[4.78503,51.50539],[4.78683,51.50618],[4.79274,51.5057],[4.79382,51.50387],[4.79578,51.50255],[4.79696,51.50107],[4.80954,51.50167],[4.81281,51.5012],[4.8173,51.50261],[4.8265,51.50161],[4.83395,51.49849],[4.84322,51.49586],[4.85252,51.49056],[4.85498,51.49112],[4.85732,51.49077],[4.85984,51.49163],[4.86558,51.49214],[4.86736,51.49322],[4.86773,51.49085],[4.86557,51.48916],[4.86764,51.48393],[4.87133,51.48029],[4.87649,51.4728],[4.88264,51.46932],[4.89654,51.4739],[4.90293,51.47383],[4.90418,51.47646],[4.91862,51.47481],[4.91778,51.47356],[4.91859,51.47285],[4.91666,51.47138],[4.92903,51.46796],[4.93985,51.46552],[4.93849,51.46372],[4.94041,51.46239],[4.94047,51.45982],[4.94523,51.4586],[4.94734,51.45858],[4.95693,51.45979],[4.95903,51.46112],[4.95772,51.4635],[4.95715,51.46677],[4.95758,51.4692],[4.95989,51.47142],[4.96244,51.47521],[4.9659,51.47663],[4.96734,51.47617],[4.97103,51.47355],[4.97671,51.47312],[4.98396,51.47479],[4.9933,51.47621],[4.99691,51.4745],[5.00095,51.47162],[5.00656,51.4749],[5.01068,51.47613],[5.01991,51.48226],[5.02291,51.48291],[5.02995,51.48545],[5.03197,51.48738],[5.03202,51.48832],[5.03337,51.49038],[5.03268,51.49168],[5.03312,51.4945],[5.03635,51.49983],[5.03963,51.50329],[5.04708,51.50874],[5.04825,51.50831],[5.05226,51.50071],[5.0536,51.50093],[5.05398,51.50148],[5.05947,51.50243],[5.06476,51.50231],[5.06504,51.50101],[5.06711,51.50016],[5.06708,51.5008],[5.06947,51.50096],[5.0883,51.51141],[5.0988,51.50948],[5.10476,51.50773],[5.11723,51.50151],[5.11823,51.49955],[5.12,51.49825],[5.12366,51.4968],[5.12532,51.49653],[5.1303,51.49772],[5.13191,51.49708],[5.13541,51.49262],[5.1378,51.48636],[5.13595,51.48582],[5.13568,51.48444],[5.13197,51.4816],[5.13009,51.48101],[5.12961,51.47965],[5.12639,51.47625],[5.12639,51.47202],[5.12535,51.46978],[5.12773,51.46546],[5.13327,51.46316],[5.1352,51.46157],[5.13124,51.4606],[5.13206,51.45924],[5.13155,51.45896],[5.13612,51.44968],[5.14038,51.45061],[5.14013,51.44989],[5.14133,51.4497],[5.14143,51.45109],[5.14479,51.4531],[5.14981,51.4499],[5.15195,51.44745],[5.15207,51.44596],[5.1483,51.44606],[5.14504,51.44559],[5.15705,51.43421],[5.15849,51.43223],[5.15787,51.42891],[5.15937,51.42681],[5.16096,51.41031],[5.16002,51.40808],[5.15307,51.4065],[5.15057,51.40644],[5.14967,51.40704],[5.14897,51.40661],[5.14913,51.40578],[5.14608,51.40429],[5.14218,51.40101],[5.14057,51.40016],[5.13851,51.4052],[5.13268,51.40904],[5.12916,51.41329],[5.1235,51.41118],[5.12008,51.41035],[5.11743,51.40897],[5.116,51.41019],[5.11092,51.4118],[5.10635,51.40694],[5.11123,51.40391],[5.10072,51.39708],[5.10704,51.39419],[5.11315,51.39018],[5.11483,51.38793],[5.11175,51.38741],[5.10684,51.38843],[5.10314,51.39181],[5.10085,51.39234],[5.09077,51.38644],[5.09783,51.38139],[5.10149,51.38088],[5.11662,51.38106],[5.12037,51.38252],[5.12254,51.38401],[5.12479,51.37903],[5.12463,51.37697],[5.12311,51.37435],[5.12989,51.37322],[5.13726,51.3692],[5.14252,51.36699],[5.14464,51.36222],[5.14909,51.36108],[5.15152,51.35876],[5.14525,51.35687],[5.13673,51.35198],[5.12743,51.34965],[5.13676,51.35203],[5.14534,51.35687],[5.14639,51.35589],[5.15077,51.3562],[5.15093,51.35329],[5.14963,51.3529],[5.15084,51.35008],[5.15013,51.34795],[5.15171,51.34572],[5.15504,51.34654],[5.15459,51.34427],[5.16196,51.34401],[5.16758,51.34466],[5.17015,51.344],[5.1715,51.34309],[5.17477,51.33912],[5.17662,51.33472],[5.17572,51.32841],[5.18131,51.32844],[5.18411,51.33073],[5.1961,51.33347],[5.20075,51.32325],[5.20465,51.32523],[5.20818,51.32366],[5.20871,51.35425],[5.2157,51.3535],[5.21659,51.35482],[5.21772,51.35442],[5.21735,51.35278],[5.21991,51.35004],[5.22278,51.34826],[5.22394,51.34803],[5.22882,51.35016],[5.23201,51.3468],[5.23458,51.3471],[5.23492,51.34642],[5.23891,51.34616],[5.24038,51.34512],[5.24441,51.34396],[5.25072,51.34517],[5.2568,51.35095],[5.25907,51.35231],[5.26373,51.35273],[5.26753,51.35382],[5.26844,51.35141],[5.27248,51.34849],[5.27469,51.34802],[5.27926,51.34846],[5.2809,51.34737],[5.28241,51.34727],[5.29477,51.35529],[5.29756,51.35432],[5.29942,51.35449],[5.29771,51.34995],[5.30137,51.3483],[5.29948,51.34645],[5.30625,51.34313],[5.31121,51.34297],[5.31073,51.3402],[5.30537,51.33269],[5.30936,51.32869],[5.30071,51.31802],[5.28982,51.31528],[5.28536,51.31496],[5.28381,51.31337],[5.28348,51.31214],[5.28294,51.31212],[5.28497,51.30987],[5.28931,51.3077],[5.29181,51.30718],[5.29501,51.30171],[5.29494,51.30078],[5.2932,51.29959],[5.29555,51.29829],[5.28583,51.29409],[5.28275,51.29377],[5.2782,51.29215],[5.27511,51.29322],[5.26929,51.29307],[5.26844,51.29365],[5.26664,51.29298],[5.26516,51.29293],[5.26623,51.28402],[5.26047,51.28273],[5.26487,51.27727],[5.26041,51.27554],[5.2568,51.27535],[5.25012,51.27882],[5.2315,51.26553],[5.23791,51.2616],[5.26326,51.26684],[5.26901,51.27065],[5.27192,51.26697],[5.28915,51.26409],[5.28947,51.26791],[5.29071,51.26875],[5.29083,51.27077],[5.29933,51.27356],[5.30773,51.27708],[5.30979,51.27544],[5.31355,51.27726],[5.31296,51.26809],[5.31581,51.26845],[5.3158,51.26355],[5.32787,51.26333],[5.32787,51.26046],[5.33382,51.26314],[5.3366,51.26314],[5.34019,51.26453],[5.33936,51.2685],[5.34153,51.27332],[5.34198,51.27663],[5.34639,51.27583],[5.39692,51.27147],[5.39877,51.27088],[5.40857,51.28577],[5.4133,51.28211],[5.42924,51.27978],[5.42859,51.28127],[5.42509,51.28388],[5.42557,51.28483],[5.42846,51.28667],[5.43333,51.29211],[5.42868,51.29342],[5.42758,51.29316],[5.42697,51.29476],[5.42772,51.29592],[5.42415,51.2954],[5.41279,51.2922],[5.40804,51.29342],[5.40179,51.29277],[5.40345,51.28682],[5.39346,51.28096],[5.39018,51.28342],[5.39884,51.28853],[5.39654,51.29589],[5.40072,51.29634],[5.40049,51.29713],[5.40293,51.29736],[5.40162,51.30571],[5.39969,51.3057],[5.40083,51.31246],[5.40591,51.31218],[5.40683,51.31857],[5.41106,51.318],[5.41068,51.32003],[5.41271,51.32047],[5.41353,51.31897],[5.41494,51.31921],[5.41618,51.31965],[5.41583,51.32036],[5.41628,51.32068],[5.43099,51.32498],[5.43323,51.32332],[5.42735,51.3146],[5.42984,51.31313],[5.42918,51.30528],[5.43057,51.30389],[5.43232,51.30054],[5.43998,51.29754],[5.44793,51.29952],[5.45066,51.29737],[5.45406,51.2966],[5.45592,51.29787],[5.45842,51.29799],[5.46117,51.29887],[5.45985,51.30035],[5.45994,51.30111],[5.45901,51.30121],[5.45812,51.30206],[5.45736,51.30408],[5.45782,51.30593],[5.46026,51.31046],[5.45977,51.30955],[5.46025,51.31045],[5.46406,51.30954],[5.46541,51.31026],[5.46613,51.31363],[5.46527,51.31675],[5.46964,51.31728],[5.46924,51.32361],[5.46971,51.32347],[5.47131,51.32023],[5.48337,51.30752],[5.48464,51.30515],[5.48526,51.30496],[5.48591,51.30629],[5.48598,51.31098],[5.48446,51.31477],[5.48591,51.3156],[5.48509,51.31717],[5.483,51.31902],[5.48125,51.31968],[5.47267,51.32679],[5.4749,51.32919],[5.47853,51.32897],[5.48065,51.32816],[5.48279,51.32828],[5.48117,51.33148],[5.4814,51.33719],[5.47601,51.33886],[5.47474,51.33998],[5.47633,51.34245],[5.47935,51.34277],[5.48254,51.34377],[5.48528,51.34513],[5.48925,51.34848],[5.48944,51.35099],[5.49242,51.35154],[5.49252,51.35239],[5.49337,51.35256],[5.53889,51.35026],[5.54184,51.34954],[5.54518,51.35008],[5.5466,51.3478],[5.55115,51.34579],[5.55093,51.34462],[5.54609,51.34652],[5.54386,51.34464],[5.54578,51.34242],[5.54498,51.34171],[5.54143,51.33998],[5.5404,51.34091],[5.53296,51.3367],[5.53483,51.33464],[5.53975,51.33205],[5.54197,51.33228],[5.54415,51.33133],[5.55081,51.32995],[5.55203,51.32926],[5.55145,51.32854],[5.55163,51.3263],[5.55042,51.32451],[5.54552,51.31958],[5.55297,51.31503],[5.55563,51.31682],[5.55638,51.31653],[5.55814,51.31764],[5.55765,51.3181],[5.55809,51.31852],[5.55616,51.31982],[5.56161,51.32312],[5.56582,51.32041],[5.57092,51.32185],[5.57335,51.32027],[5.577,51.31863],[5.57764,51.31702],[5.57917,51.316],[5.58033,51.31206],[5.58282,51.30978],[5.58233,51.30895],[5.58522,51.3059],[5.58174,51.3042],[5.57971,51.30383],[5.57893,51.30227],[5.57947,51.30088],[5.58286,51.30097],[5.58491,51.30152],[5.58712,51.30278],[5.59046,51.30116],[5.59219,51.3018],[5.59418,51.30001],[5.59675,51.29867],[5.59547,51.29793],[5.59477,51.29654],[5.59375,51.29623],[5.59569,51.29287],[5.59697,51.28755],[5.59609,51.28693],[5.59675,51.28474],[5.5988,51.28183],[5.59764,51.28142],[5.59667,51.2805],[5.59931,51.28119],[5.60026,51.27761],[5.5997,51.27577],[5.60195,51.27551],[5.61086,51.27225],[5.61386,51.27173],[5.61421,51.27489],[5.61634,51.27722],[5.6167,51.28111],[5.62006,51.28117],[5.62006,51.2828],[5.62409,51.28675],[5.63428,51.28167],[5.64919,51.27936],[5.65026,51.28041],[5.6522,51.28098],[5.65379,51.28199],[5.6555,51.28044],[5.65326,51.28143],[5.64902,51.28466],[5.64425,51.29024],[5.63954,51.29286],[5.63733,51.29557],[5.63721,51.29647],[5.63879,51.29873],[5.6388,51.29988],[5.63601,51.30567],[5.63121,51.31218],[5.62825,51.31481],[5.62584,51.31462],[5.62565,51.3151],[5.63639,51.32556],[5.64171,51.32409],[5.65173,51.33083],[5.65488,51.33343],[5.65272,51.33526],[5.62638,51.34465],[5.61879,51.35023],[5.63806,51.35441],[5.63371,51.35841],[5.62953,51.3585],[5.62775,51.35904],[5.62627,51.36067],[5.62234,51.35954],[5.62541,51.36751],[5.62662,51.37266],[5.6238,51.37876],[5.64571,51.38282],[5.64631,51.38144],[5.64276,51.38065],[5.65958,51.34303],[5.6652,51.34128],[5.67682,51.33948],[5.67902,51.33855],[5.68121,51.33832],[5.68638,51.33696],[5.69366,51.33458],[5.69362,51.33132],[5.69912,51.33124],[5.70976,51.33279],[5.7076,51.33868],[5.7238,51.3397],[5.72594,51.3294],[5.74622,51.33066],[5.74693,51.3308],[5.74745,51.3319],[5.76125,51.33361],[5.75708,51.34309],[5.76514,51.34434],[5.75977,51.35226],[5.762,51.35284],[5.76657,51.355],[5.76972,51.35946],[5.76854,51.36075],[5.7689,51.36148],[5.7681,51.36266],[5.76911,51.3644],[5.76456,51.36461],[5.76456,51.36667],[5.7692,51.36689],[5.77445,51.3666],[5.78762,51.3598],[5.80138,51.36236],[5.7996,51.36811],[5.80016,51.37154],[5.8049,51.37135],[5.80821,51.37439],[5.81124,51.37267],[5.81148,51.371],[5.81503,51.37073],[5.82108,51.36956],[5.823,51.36827],[5.82702,51.37003],[5.82194,51.37402],[5.81354,51.37831],[5.83132,51.38659],[5.83106,51.3871],[5.82656,51.39117],[5.82177,51.3896],[5.82155,51.39059],[5.81716,51.3952],[5.8177,51.39932],[5.81739,51.40098],[5.81261,51.40191],[5.80884,51.40197],[5.80112,51.40137],[5.80597,51.41019],[5.80258,51.41251],[5.80613,51.41381],[5.80648,51.41462],[5.80536,51.41499],[5.80631,51.41636],[5.8073,51.41641],[5.80742,51.41708],[5.80604,51.41782],[5.80612,51.41924],[5.80471,51.41953],[5.80493,51.4208],[5.80406,51.42122],[5.80395,51.42486],[5.80018,51.43038],[5.809,51.43294],[5.80588,51.43742],[5.81623,51.43841],[5.81535,51.43982],[5.81653,51.44442],[5.82096,51.44477],[5.82473,51.44388],[5.85797,51.44323],[5.86629,51.44771],[5.86586,51.45017],[5.85017,51.4518],[5.84795,51.4578],[5.84937,51.45799],[5.84754,51.4659],[5.86317,51.46995],[5.86138,51.47749],[5.86439,51.47837],[5.88061,51.47845],[5.88252,51.47962],[5.89044,51.4864],[5.89384,51.4847],[5.8974,51.48418],[5.89935,51.4844],[5.90109,51.48507],[5.9029,51.48662],[5.90776,51.48395],[5.90486,51.4823],[5.8929,51.47965],[5.89156,51.47421],[5.91349,51.48089],[5.91375,51.47412],[5.91045,51.47261],[5.91189,51.47142],[5.90903,51.4697],[5.90985,51.46732],[5.9442,51.47762],[5.94701,51.47913],[5.95762,51.46929],[5.96655,51.47],[5.97283,51.45356],[5.9792,51.45386],[5.99115,51.45374],[5.98532,51.46976],[5.99397,51.47235],[6.01386,51.47606],[6.01518,51.47434],[6.02023,51.47519],[6.01838,51.47828],[6.02483,51.47977],[6.02571,51.47957],[6.02759,51.47644],[6.03071,51.47288],[6.03414,51.47513],[6.03761,51.47611],[6.03674,51.48272],[6.04064,51.48647],[6.04008,51.48719],[6.03763,51.48831],[6.039,51.48951],[6.04348,51.49169],[6.04603,51.49381],[6.04613,51.49523],[6.0479,51.49579],[6.05258,51.49511],[6.05828,51.49534],[6.06289,51.49763],[6.06865,51.49915],[6.07152,51.49959],[6.07728,51.49847],[6.07848,51.4987],[6.08106,51.50027],[6.08396,51.50068],[6.08388,51.50407],[6.07893,51.50479],[6.07294,51.50453],[6.07014,51.50826],[6.06839,51.5159],[6.06899,51.518],[6.07037,51.51879],[6.07685,51.51774],[6.08069,51.5178],[6.0805,51.51901],[6.08228,51.5199],[6.08307,51.52091],[6.08438,51.5213],[6.08648,51.52338],[6.08783,51.52387],[6.08984,51.52364],[6.09353,51.52633],[6.09208,51.52694],[6.0937,51.53018],[6.09681,51.53088],[6.09788,51.53072],[6.09896,51.53239],[6.09622,51.53286],[6.08975,51.53517],[6.08815,51.53515],[6.0844,51.53604],[6.08401,51.53656],[6.09019,51.53743],[6.08909,51.5405],[6.09429,51.5398],[6.09617,51.53993],[6.09782,51.54055],[6.09896,51.54173],[6.09982,51.54564],[6.09793,51.55286],[6.09885,51.55447]]}},{"type":"Feature","properties":{"name":"TET_NL-05_20260710","country":"NL","lengthKm":140.5},"geometry":{"type":"LineString","coordinates":[[6.02089,50.75439],[6.02016,50.75606],[6.01789,50.75877],[6.0169,50.76156],[6.01579,50.76134],[6.01424,50.75971],[6.01407,50.76104],[6.01484,50.76199],[6.0148,50.7634],[6.01549,50.76387],[6.01725,50.764],[6.01755,50.76512],[6.01673,50.76538],[6.0139,50.76495],[6.01287,50.76516],[6.01162,50.76589],[6.01081,50.76778],[6.00703,50.76864],[6.0021,50.76924],[5.99545,50.76851],[5.9951,50.76898],[5.99107,50.77078],[5.98304,50.77374],[5.98202,50.77391],[5.97987,50.77329],[5.9785,50.77331],[5.97716,50.77421],[5.97723,50.7766],[5.97543,50.77842],[5.97242,50.77981],[5.97005,50.78176],[5.96537,50.78318],[5.96343,50.78694],[5.96369,50.78757],[5.9626,50.79129],[5.95812,50.79485],[5.95329,50.7974],[5.94396,50.79889],[5.93812,50.79881],[5.93306,50.80148],[5.92845,50.80289],[5.92234,50.80727],[5.92901,50.80656],[5.93405,50.80526],[5.93649,50.80413],[5.94078,50.80348],[5.94211,50.80279],[5.9467,50.80174],[5.94886,50.80072],[5.95107,50.80177],[5.95381,50.80542],[5.95751,50.80851],[5.96083,50.80756],[5.96235,50.80768],[5.96288,50.8091],[5.96477,50.81068],[5.97188,50.81413],[5.97216,50.8161],[5.96752,50.81701],[5.9632,50.81709],[5.96269,50.81967],[5.96455,50.82031],[5.96023,50.82152],[5.95613,50.8202],[5.95414,50.81902],[5.95153,50.82113],[5.94974,50.82415],[5.95157,50.82443],[5.95263,50.82416],[5.95723,50.8261],[5.96079,50.82698],[5.96469,50.82923],[5.97296,50.83166],[5.97262,50.83255],[5.97133,50.83352],[5.97169,50.83444],[5.97423,50.83534],[5.97,50.83633],[5.96447,50.83578],[5.96019,50.83601],[5.96059,50.83681],[5.95827,50.8386],[5.95586,50.83976],[5.95617,50.84212],[5.95485,50.84599],[5.95125,50.84466],[5.947,50.84468],[5.9511,50.84207],[5.95272,50.83939],[5.95069,50.84073],[5.94916,50.84092],[5.9483,50.84083],[5.94839,50.8403],[5.94636,50.83859],[5.94379,50.83976],[5.94103,50.84035],[5.93766,50.84053],[5.93318,50.83958],[5.92964,50.84016],[5.93008,50.84094],[5.9291,50.84316],[5.938,50.84559],[5.9364,50.84973],[5.93736,50.85218],[5.93068,50.85193],[5.92646,50.85355],[5.92201,50.85398],[5.9216,50.85643],[5.91616,50.86038],[5.91547,50.86149],[5.91363,50.8628],[5.90662,50.8647],[5.90521,50.86567],[5.90271,50.86604],[5.89781,50.86811],[5.89674,50.86942],[5.90069,50.87359],[5.90029,50.87395],[5.8979,50.87207],[5.89502,50.87089],[5.89414,50.87478],[5.89456,50.87574],[5.89267,50.87648],[5.88629,50.87668],[5.88556,50.87766],[5.88403,50.87753],[5.87841,50.87887],[5.87598,50.87906],[5.872,50.88173],[5.8703,50.88227],[5.86823,50.8824],[5.86614,50.88375],[5.86364,50.88594],[5.86302,50.88861],[5.8616,50.89017],[5.85983,50.89082],[5.85542,50.8913],[5.85551,50.8925],[5.85279,50.8948],[5.85129,50.89698],[5.85124,50.8975],[5.85232,50.89817],[5.85291,50.90062],[5.85236,50.90077],[5.85217,50.90148],[5.8494,50.90286],[5.84716,50.90488],[5.84252,50.90468],[5.83867,50.90504],[5.83869,50.90594],[5.84216,50.90691],[5.8426,50.9076],[5.83743,50.90906],[5.84102,50.91223],[5.84659,50.9137],[5.84771,50.91275],[5.85542,50.91558],[5.86035,50.91362],[5.86151,50.91394],[5.8648,50.91576],[5.86323,50.91758],[5.85827,50.91799],[5.85699,50.91969],[5.85582,50.92012],[5.85248,50.92353],[5.8494,50.92248],[5.84837,50.92295],[5.84444,50.91933],[5.84237,50.9167],[5.83641,50.91733],[5.83029,50.91497],[5.82831,50.91358],[5.82798,50.91183],[5.82678,50.90999],[5.82597,50.91122],[5.82352,50.91239],[5.82001,50.90917],[5.81813,50.90844],[5.81573,50.91007],[5.81315,50.91048],[5.81159,50.91283],[5.81082,50.9125],[5.81088,50.90964],[5.80808,50.90979],[5.80551,50.9106],[5.80157,50.91262],[5.80248,50.9138],[5.79795,50.91607],[5.8029,50.9231],[5.80119,50.92442],[5.8019,50.92513],[5.79905,50.92736],[5.79874,50.93167],[5.79775,50.93287],[5.79703,50.93673],[5.79575,50.93846],[5.79365,50.93991],[5.79103,50.93763],[5.78801,50.93627],[5.78459,50.93387],[5.78236,50.93284],[5.786,50.93758],[5.78348,50.93729],[5.78279,50.93465],[5.78058,50.93228],[5.77576,50.93138],[5.77239,50.92798],[5.7711,50.92779],[5.7675,50.92618],[5.76447,50.92196],[5.76259,50.9221],[5.76155,50.92323],[5.7592,50.92318],[5.7564,50.9243],[5.75373,50.92389],[5.75231,50.92438],[5.75232,50.92275],[5.75059,50.9231],[5.74967,50.92225],[5.74058,50.92377],[5.73875,50.92201],[5.73979,50.92347],[5.73963,50.92409],[5.7363,50.92443],[5.73656,50.92625],[5.73872,50.92785],[5.7392,50.93018],[5.74057,50.93148],[5.74247,50.93194],[5.74562,50.93136],[5.75134,50.94425],[5.75423,50.94726],[5.75764,50.94906],[5.75979,50.95072],[5.76099,50.95272],[5.7606,50.95512],[5.75707,50.95819],[5.75499,50.95883],[5.75029,50.96218],[5.74725,50.96324],[5.74674,50.96309],[5.74547,50.96412],[5.74793,50.96563],[5.74748,50.96697],[5.74872,50.96941],[5.75011,50.97091],[5.74923,50.96839],[5.75123,50.97092],[5.76092,50.96813],[5.76363,50.96773],[5.76839,50.96773],[5.76796,50.9708],[5.76583,50.9704],[5.76704,50.97451],[5.76713,50.97778],[5.76906,50.98167],[5.77005,50.98454],[5.7699,50.98636],[5.77188,50.99068],[5.77606,50.98949],[5.77781,50.9906],[5.78155,50.99054],[5.7828,50.9931],[5.785,50.99314],[5.78487,51.00177],[5.77202,51.00489],[5.77276,51.00832],[5.77217,51.00922],[5.77363,51.01129],[5.77514,51.01228],[5.77788,51.01641],[5.7786,51.02041],[5.77759,51.02342],[5.77802,51.02522],[5.77939,51.02634],[5.78186,51.02684],[5.78035,51.02903],[5.77908,51.03285],[5.78488,51.03307],[5.78458,51.03666],[5.78572,51.03679],[5.78641,51.03742],[5.78736,51.04079],[5.78679,51.04097],[5.78699,51.04296],[5.78799,51.04403],[5.7914,51.04549],[5.80014,51.04682],[5.80245,51.0476],[5.80684,51.05666],[5.80427,51.06279],[5.80849,51.06529],[5.81076,51.063],[5.81383,51.06724],[5.82439,51.07931],[5.82197,51.08033],[5.8158,51.08101],[5.81277,51.08176],[5.8142,51.08255],[5.81825,51.0833],[5.82158,51.08599],[5.82507,51.08736],[5.83069,51.09068],[5.84052,51.10102],[5.84097,51.10221],[5.84628,51.10504],[5.8482,51.10708],[5.85118,51.10604],[5.8514,51.10567],[5.85078,51.10511],[5.84967,51.10537],[5.85035,51.10654],[5.85243,51.10628],[5.85462,51.10696],[5.85896,51.10926],[5.85998,51.11059],[5.86257,51.1121],[5.86284,51.11288],[5.86171,51.11408],[5.86244,51.11502],[5.86814,51.11557],[5.87091,51.11709],[5.86931,51.11899],[5.86772,51.12238],[5.87213,51.1229],[5.87925,51.12285],[5.88077,51.12245],[5.88357,51.12452],[5.88628,51.12559],[5.88905,51.12612],[5.89117,51.12755],[5.88764,51.13513],[5.88509,51.13811],[5.88873,51.14108],[5.89303,51.14284],[5.89204,51.14411],[5.89165,51.14893],[5.89446,51.14885],[5.89871,51.14761],[5.89757,51.15266],[5.89618,51.1557],[5.88452,51.16463],[5.87853,51.16741],[5.87885,51.16791],[5.8836,51.16642],[5.88403,51.16577],[5.88299,51.16446],[5.88011,51.16473],[5.87449,51.16304],[5.87268,51.16354],[5.87095,51.16341],[5.87047,51.16377],[5.86902,51.16268],[5.86764,51.1636],[5.86106,51.16494],[5.8559,51.17016],[5.85575,51.17082],[5.85281,51.17332],[5.84564,51.17188],[5.84341,51.17188],[5.83891,51.17116],[5.83851,51.17189],[5.83899,51.17239],[5.84295,51.17487],[5.84534,51.17576],[5.84703,51.17711],[5.84595,51.17764],[5.84337,51.17791],[5.84485,51.17894],[5.84374,51.17982],[5.84345,51.18188],[5.842,51.18531],[5.83978,51.18676],[5.83706,51.18755],[5.83407,51.18737],[5.83255,51.1905],[5.83085,51.19114],[5.83076,51.19181],[5.82968,51.19233],[5.82804,51.19253],[5.82381,51.19814],[5.82099,51.20097],[5.82041,51.20246],[5.81818,51.20215],[5.81396,51.2023],[5.81302,51.19977],[5.81105,51.19931],[5.81127,51.19868],[5.80969,51.1983],[5.81032,51.1969],[5.80536,51.1958],[5.80158,51.19546],[5.7988,51.19436],[5.80113,51.19321],[5.79808,51.19217],[5.79696,51.19117],[5.7932,51.18997],[5.79204,51.19003],[5.79207,51.18943],[5.78917,51.18836],[5.78721,51.18714],[5.78649,51.1873],[5.78339,51.18523],[5.77829,51.18372],[5.77057,51.18898],[5.76289,51.18861],[5.75669,51.1898],[5.7575,51.19228],[5.75349,51.19418],[5.75933,51.19965],[5.75773,51.20055],[5.75485,51.20324],[5.75182,51.20345],[5.75085,51.20193],[5.74616,51.20296],[5.74407,51.20378],[5.7516,51.20758],[5.75326,51.20803],[5.75436,51.21055],[5.75426,51.21299],[5.75205,51.21391],[5.7503,51.21369],[5.74762,51.2145],[5.74176,51.21392],[5.73641,51.21281],[5.73077,51.21271],[5.72658,51.21147],[5.72186,51.21222],[5.71719,51.21107],[5.71558,51.21569],[5.7092,51.21688],[5.71277,51.22332],[5.70807,51.22255],[5.70535,51.22259],[5.70532,51.22389],[5.70048,51.22246],[5.69762,51.22255],[5.69855,51.22381],[5.70125,51.22586],[5.69778,51.22733],[5.69158,51.22571],[5.68901,51.22463],[5.69073,51.22862],[5.68902,51.22855],[5.68677,51.22791],[5.68351,51.22967],[5.68537,51.23042],[5.68833,51.23263],[5.68451,51.23306],[5.68136,51.23497],[5.67641,51.23483],[5.67532,51.23596],[5.67672,51.23635],[5.67711,51.23774],[5.67914,51.23909],[5.67879,51.24172],[5.6774,51.24183],[5.67644,51.2428],[5.67409,51.24243],[5.67152,51.24287],[5.6684,51.24617],[5.6594,51.24308],[5.65221,51.24948],[5.65188,51.25066],[5.65308,51.253],[5.64785,51.25419],[5.64724,51.25397],[5.64291,51.2548],[5.64523,51.25725],[5.64526,51.25858],[5.6312,51.26022],[5.62833,51.26128],[5.61032,51.26163],[5.61432,51.26901],[5.61411,51.27146]]}},{"type":"Feature","properties":{"name":"TET_NL-08_20260615","country":"NL","lengthKm":264.5},"geometry":{"type":"LineString","coordinates":[[6.75166,53.46496],[6.74776,53.46016],[6.74244,53.46054],[6.73942,53.4564],[6.7386,53.45636],[6.74094,53.45565],[6.73101,53.44262],[6.73933,53.44197],[6.74107,53.44119],[6.72591,53.42531],[6.7282,53.42534],[6.72021,53.41695],[6.71646,53.41779],[6.71288,53.41497],[6.71355,53.4146],[6.70834,53.41015],[6.70741,53.40995],[6.7208,53.40333],[6.72432,53.4006],[6.72363,53.39945],[6.72477,53.39879],[6.72322,53.39636],[6.72287,53.39436],[6.72759,53.39503],[6.73147,53.39479],[6.73877,53.40143],[6.74216,53.40352],[6.74463,53.40399],[6.75484,53.40437],[6.7587,53.40511],[6.76277,53.40658],[6.76949,53.404],[6.77268,53.40229],[6.77552,53.3995],[6.76362,53.39548],[6.76268,53.39584],[6.75614,53.39402],[6.76166,53.38818],[6.76246,53.38655],[6.76781,53.38315],[6.7681,53.38252],[6.76329,53.37998],[6.76787,53.37675],[6.77711,53.3612],[6.77962,53.3614],[6.78663,53.35454],[6.78813,53.35498],[6.79523,53.34743],[6.79682,53.34771],[6.79716,53.34744],[6.79973,53.34348],[6.79549,53.34357],[6.79102,53.34308],[6.78964,53.34377],[6.78511,53.34276],[6.78213,53.34036],[6.77975,53.33998],[6.77865,53.34064],[6.77511,53.33891],[6.77574,53.33799],[6.76937,53.33668],[6.76658,53.33892],[6.76425,53.33862],[6.75151,53.33464],[6.75042,53.33469],[6.74185,53.34129],[6.73883,53.34035],[6.73519,53.34012],[6.73286,53.33891],[6.73631,53.33623],[6.7361,53.3332],[6.73743,53.33309],[6.73831,53.33103],[6.75251,53.32632],[6.76092,53.32302],[6.77007,53.31182],[6.76864,53.31203],[6.76516,53.31083],[6.75855,53.3114],[6.75603,53.31005],[6.75068,53.30949],[6.74979,53.30965],[6.74842,53.31094],[6.74679,53.31123],[6.74248,53.31096],[6.74081,53.31198],[6.73786,53.31288],[6.73614,53.31185],[6.73441,53.31197],[6.73355,53.31168],[6.73216,53.31011],[6.73228,53.30875],[6.73067,53.30823],[6.72947,53.30528],[6.72643,53.30475],[6.72543,53.3031],[6.72571,53.30198],[6.71769,53.2957],[6.71742,53.29416],[6.71298,53.29191],[6.71145,53.29013],[6.70545,53.28651],[6.69997,53.28964],[6.69447,53.2934],[6.69347,53.29452],[6.65359,53.27136],[6.65328,53.26928],[6.65138,53.26804],[6.65143,53.26668],[6.64458,53.2626],[6.64811,53.24808],[6.64891,53.24691],[6.6543,53.24366],[6.64346,53.23614],[6.63352,53.23381],[6.63752,53.22876],[6.63881,53.22634],[6.64246,53.22722],[6.64374,53.22678],[6.64877,53.21754],[6.65352,53.21337],[6.65506,53.21267],[6.66167,53.21132],[6.66043,53.20858],[6.64834,53.20729],[6.65522,53.20357],[6.66011,53.20015],[6.66475,53.20069],[6.66499,53.19931],[6.664,53.19839],[6.66626,53.19732],[6.655,53.19285],[6.65385,53.19173],[6.64657,53.19003],[6.64392,53.18897],[6.64938,53.18748],[6.65093,53.1864],[6.64461,53.1821],[6.63494,53.17052],[6.62936,53.16593],[6.6294,53.16539],[6.62745,53.16472],[6.62715,53.16421],[6.6323,53.16345],[6.63663,53.16216],[6.64004,53.15843],[6.63962,53.15717],[6.64013,53.15349],[6.63848,53.15292],[6.63664,53.15086],[6.63517,53.15043],[6.63357,53.14704],[6.63205,53.14701],[6.63173,53.14871],[6.62892,53.1515],[6.62393,53.15009],[6.62197,53.15224],[6.61181,53.15036],[6.61194,53.14715],[6.61611,53.14118],[6.61855,53.13965],[6.61856,53.13895],[6.62223,53.13796],[6.6239,53.13702],[6.62217,53.13607],[6.62185,53.13452],[6.62031,53.13448],[6.62129,53.13379],[6.6236,53.13376],[6.62554,53.13176],[6.62122,53.13017],[6.61404,53.12841],[6.60503,53.12454],[6.60292,53.12322],[6.60096,53.12336],[6.59567,53.11938],[6.58659,53.11866],[6.58653,53.11826],[6.58018,53.11747],[6.58051,53.11483],[6.58236,53.11256],[6.58205,53.11164],[6.5844,53.1115],[6.58623,53.10845],[6.5896,53.09922],[6.59673,53.09651],[6.5986,53.09637],[6.59244,53.0846],[6.59257,53.0742],[6.59357,53.07137],[6.59651,53.0669],[6.60068,53.06253],[6.6051,53.05683],[6.60765,53.05075],[6.60798,53.04855],[6.58888,53.04678],[6.59111,53.04943],[6.58974,53.05335],[6.58608,53.05964],[6.58018,53.05896],[6.57608,53.05927],[6.57527,53.05445],[6.57031,53.05507],[6.56949,53.06014],[6.56611,53.06121],[6.57252,53.07065],[6.56447,53.06931],[6.5589,53.06892],[6.55726,53.06914],[6.55667,53.07005],[6.55855,53.07252],[6.55906,53.07473],[6.56103,53.07685],[6.5613,53.07995],[6.56044,53.08189],[6.55596,53.08532],[6.55104,53.08335],[6.54929,53.08387],[6.54504,53.08179],[6.52736,53.07646],[6.52571,53.07892],[6.52577,53.08007],[6.52355,53.08305],[6.51526,53.08067],[6.52625,53.06711],[6.52249,53.06607],[6.52348,53.06525],[6.51786,53.06365],[6.51994,53.06262],[6.52169,53.0584],[6.51813,53.05764],[6.50887,53.05812],[6.50468,53.05778],[6.49855,53.05591],[6.49726,53.05959],[6.49646,53.05978],[6.49605,53.06057],[6.49687,53.06202],[6.49607,53.06389],[6.49079,53.06244],[6.48953,53.06267],[6.48424,53.06157],[6.47909,53.05946],[6.4759,53.05884],[6.47348,53.05747],[6.47023,53.05705],[6.4689,53.05622],[6.46927,53.05524],[6.46825,53.05434],[6.46506,53.05516],[6.46393,53.05845],[6.46254,53.05904],[6.45978,53.05561],[6.46023,53.05015],[6.45957,53.04846],[6.45828,53.04605],[6.45646,53.04574],[6.45357,53.0478],[6.44351,53.04884],[6.44301,53.05049],[6.43884,53.05353],[6.43517,53.05324],[6.43352,53.05366],[6.43067,53.05746],[6.42561,53.05521],[6.42287,53.0566],[6.42243,53.05721],[6.42828,53.059],[6.41598,53.06654],[6.41303,53.06522],[6.40926,53.06422],[6.40134,53.06693],[6.38492,53.04944],[6.41462,53.03919],[6.41001,53.03429],[6.39171,53.04074],[6.39085,53.04007],[6.3708,53.04697],[6.36445,53.04026],[6.3725,53.03749],[6.37312,53.03668],[6.3698,53.03493],[6.3636,53.033],[6.37551,53.02175],[6.33958,53.00818],[6.34427,53.00178],[6.34425,53.00114],[6.34361,53.00069],[6.33217,52.99829],[6.34351,52.97572],[6.34749,52.96273],[6.3469,52.96113],[6.34115,52.95726],[6.34045,52.9559],[6.33823,52.95431],[6.33619,52.95397],[6.33653,52.95359],[6.33799,52.95362],[6.33735,52.95216],[6.33497,52.95187],[6.32964,52.9523],[6.32646,52.95204],[6.3278,52.95494],[6.31724,52.95549],[6.31091,52.95425],[6.30802,52.95409],[6.29937,52.95152],[6.29931,52.95079],[6.29482,52.94673],[6.28982,52.9372],[6.28299,52.92823],[6.28313,52.92599],[6.28589,52.92018],[6.28283,52.91195],[6.28143,52.91041],[6.26941,52.9157],[6.26506,52.91648],[6.25841,52.91925],[6.2515,52.92093],[6.25124,52.92022],[6.24132,52.91435],[6.24139,52.89402],[6.23915,52.89239],[6.24468,52.88736],[6.25054,52.88673],[6.25472,52.88681],[6.26047,52.88495],[6.26465,52.88241],[6.25404,52.8703],[6.24991,52.86885],[6.24843,52.86971],[6.24383,52.86882],[6.23905,52.86627],[6.23425,52.86241],[6.2325,52.86077],[6.23241,52.85923],[6.22409,52.8587],[6.22154,52.85763],[6.21893,52.85731],[6.21373,52.85767],[6.21216,52.85722],[6.2067,52.85781],[6.20343,52.85874],[6.19963,52.862],[6.19819,52.86438],[6.19926,52.86626],[6.19824,52.86751],[6.19873,52.87634],[6.20996,52.88108],[6.19606,52.88836],[6.1904,52.88633],[6.19239,52.88489],[6.17274,52.8775],[6.17891,52.87233],[6.16322,52.86762],[6.17076,52.85973],[6.17023,52.85887],[6.18432,52.85196],[6.17488,52.84489],[6.17903,52.84158],[6.18405,52.84286],[6.18903,52.8372],[6.19326,52.83374],[6.1975,52.83592],[6.2008,52.83708],[6.21606,52.83918],[6.21986,52.84028],[6.23303,52.83829],[6.23772,52.83881],[6.24341,52.84025],[6.25048,52.84008],[6.2557,52.83896],[6.25957,52.83871],[6.26853,52.83668],[6.27313,52.83734],[6.27403,52.83491],[6.27636,52.83298],[6.27656,52.83146],[6.27902,52.83189],[6.29272,52.82925],[6.30214,52.82836],[6.30727,52.82887],[6.30874,52.82606],[6.31319,52.82406],[6.33227,52.83807],[6.33131,52.83952],[6.32638,52.83931],[6.32317,52.83976],[6.32308,52.84214],[6.32092,52.84671],[6.32187,52.84975],[6.3237,52.85023],[6.32555,52.85319],[6.32663,52.85536],[6.32654,52.85782],[6.33301,52.85909],[6.34156,52.86173],[6.34893,52.86224],[6.35366,52.86322],[6.35712,52.86623],[6.35875,52.86861],[6.3623,52.87071],[6.36787,52.87281],[6.36799,52.87363],[6.36992,52.87267],[6.37034,52.87286],[6.37658,52.86495],[6.38036,52.86296],[6.38489,52.86126],[6.38539,52.86271],[6.38893,52.86538],[6.39102,52.86614],[6.39586,52.86574],[6.39652,52.85685],[6.39039,52.85451],[6.38405,52.85327],[6.38238,52.8526],[6.38142,52.8517],[6.36623,52.85156],[6.36806,52.84989],[6.36676,52.84824],[6.36935,52.84624],[6.36766,52.8456],[6.36968,52.84335],[6.36607,52.84204],[6.36119,52.84108],[6.36179,52.84023],[6.36343,52.83949],[6.36348,52.83902],[6.3622,52.83971],[6.35486,52.83565],[6.35371,52.83612],[6.35022,52.83457],[6.35148,52.83335],[6.35268,52.83299],[6.35482,52.83321],[6.35789,52.8345],[6.35849,52.83456],[6.36002,52.83364],[6.36538,52.83428],[6.36642,52.83323],[6.37235,52.83177],[6.38317,52.83287],[6.38321,52.82561],[6.39005,52.82573],[6.39136,52.82415],[6.39132,52.82343],[6.36835,52.82154],[6.3679,52.82118],[6.36162,52.81997],[6.35499,52.82021],[6.34673,52.81563],[6.34244,52.81849],[6.33815,52.81726],[6.33375,52.81702],[6.33172,52.81564],[6.32791,52.81566],[6.3265,52.81617],[6.32387,52.81805],[6.32205,52.82041],[6.31122,52.81675],[6.30936,52.81482],[6.30738,52.81161],[6.30578,52.80419],[6.30895,52.80099],[6.31371,52.80302],[6.31378,52.80129],[6.3151,52.80082],[6.31684,52.80102],[6.32051,52.79547],[6.30994,52.79553],[6.30627,52.79378],[6.30365,52.79364],[6.30065,52.79495],[6.29484,52.79628],[6.29045,52.79552],[6.28729,52.78934],[6.28511,52.78771],[6.2869,52.78684],[6.28259,52.78403],[6.28139,52.78495],[6.28069,52.78453],[6.28019,52.78363],[6.27862,52.78304],[6.26335,52.77205],[6.24822,52.7661],[6.2439,52.7677],[6.23963,52.76755],[6.24015,52.7669],[6.2365,52.76596],[6.2348,52.76436],[6.23179,52.76278],[6.22947,52.76212],[6.22058,52.75093],[6.22142,52.75036],[6.22032,52.74785],[6.23231,52.74121],[6.22682,52.73536],[6.22177,52.73687],[6.22009,52.73254],[6.21718,52.73156],[6.21495,52.72999],[6.20606,52.72155],[6.20536,52.72144],[6.20647,52.70747],[6.20727,52.70706],[6.20929,52.70744],[6.20792,52.70673],[6.20491,52.70635],[6.19942,52.70808],[6.1989,52.70754],[6.1873,52.70857],[6.18501,52.70736],[6.18269,52.70532],[6.17982,52.70495],[6.16992,52.70158],[6.17256,52.69812],[6.17248,52.6961],[6.1756,52.6918],[6.17061,52.68994],[6.16961,52.68996],[6.1623,52.68644],[6.15696,52.68513],[6.15457,52.68238],[6.15353,52.6818],[6.16243,52.67959],[6.16143,52.67867],[6.16861,52.67719],[6.17146,52.67322],[6.16838,52.67212],[6.1525,52.66463],[6.15689,52.65947],[6.16458,52.66307],[6.18152,52.66855],[6.18372,52.66567],[6.19612,52.66694],[6.19218,52.67232],[6.19101,52.67746],[6.19185,52.67788],[6.19509,52.67698],[6.19631,52.67708],[6.19689,52.67536],[6.19842,52.67557],[6.19705,52.68072],[6.20094,52.68391],[6.20431,52.68339],[6.20787,52.6836],[6.21029,52.68417],[6.21409,52.6836],[6.21415,52.68221],[6.21776,52.67853],[6.21866,52.67815],[6.21937,52.67816],[6.22018,52.68127],[6.22095,52.6817],[6.22252,52.68106],[6.22691,52.68062],[6.22639,52.67798],[6.22876,52.67716],[6.22684,52.66777],[6.25062,52.66535],[6.25074,52.66215],[6.25292,52.65913],[6.26003,52.66054],[6.26435,52.66061],[6.26257,52.65819],[6.26352,52.65523],[6.26255,52.65383],[6.26235,52.65201],[6.2663,52.64701],[6.26615,52.64433],[6.26916,52.64006],[6.26997,52.63915],[6.27197,52.63838],[6.27482,52.63283],[6.27887,52.63031],[6.28108,52.62963],[6.28493,52.6293],[6.28881,52.62844],[6.29832,52.62411],[6.30366,52.62102],[6.3088,52.62],[6.31371,52.6177],[6.32194,52.61584],[6.32916,52.61306],[6.33586,52.61197],[6.33928,52.6105],[6.35103,52.61812],[6.35277,52.61767],[6.35689,52.61522],[6.35946,52.61096],[6.36062,52.61042],[6.36004,52.61004],[6.36305,52.60504],[6.36103,52.60417],[6.36278,52.59966],[6.37294,52.60084],[6.37377,52.5988],[6.39143,52.60078]]}},{"type":"Feature","properties":{"name":"TET_NL-09_20260710","country":"NL","lengthKm":70.9},"geometry":{"type":"LineString","coordinates":[[6.88697,52.83502],[6.88497,52.83829],[6.88186,52.83973],[6.87877,52.84233],[6.87589,52.84362],[6.86521,52.86959],[6.86523,52.86998],[6.8704,52.87068],[6.87112,52.86873],[6.87964,52.86985],[6.87679,52.87494],[6.86034,52.873],[6.85619,52.87711],[6.85557,52.87967],[6.85593,52.88322],[6.86054,52.88305],[6.86254,52.88244],[6.8668,52.88312],[6.8661,52.88592],[6.8625,52.8904],[6.86164,52.89015],[6.85704,52.89389],[6.86409,52.8968],[6.86148,52.89936],[6.85948,52.9049],[6.85462,52.91008],[6.85141,52.90875],[6.8495,52.91342],[6.85363,52.91482],[6.84981,52.91908],[6.84747,52.91881],[6.84487,52.92505],[6.84292,52.92331],[6.83894,52.92103],[6.83435,52.9198],[6.82982,52.92045],[6.82812,52.92277],[6.8245,52.92509],[6.82202,52.92439],[6.82,52.92667],[6.82297,52.92956],[6.82762,52.92936],[6.82798,52.93128],[6.82694,52.93136],[6.81271,52.92762],[6.81162,52.92892],[6.8154,52.93128],[6.81795,52.93568],[6.82239,52.94123],[6.82339,52.94363],[6.82453,52.9443],[6.82484,52.94553],[6.82575,52.9462],[6.82415,52.95073],[6.81964,52.95136],[6.81757,52.95241],[6.81741,52.95541],[6.81598,52.95623],[6.81793,52.95706],[6.82296,52.96057],[6.79976,52.95719],[6.79877,52.95649],[6.79788,52.95668],[6.79589,52.95534],[6.79591,52.95478],[6.79537,52.95512],[6.78989,52.95444],[6.79011,52.95322],[6.77625,52.95096],[6.7625,52.94991],[6.76043,52.95035],[6.75699,52.94988],[6.7518,52.95034],[6.75307,52.95151],[6.75484,52.95466],[6.75502,52.9555],[6.75359,52.95817],[6.75856,52.95884],[6.75616,52.96531],[6.75692,52.96646],[6.75939,52.96709],[6.76019,52.96801],[6.75813,52.97209],[6.75835,52.97335],[6.7578,52.97434],[6.76141,52.97492],[6.77327,52.97416],[6.7745,52.97443],[6.77491,52.97624],[6.77356,52.9789],[6.77092,52.98105],[6.77059,52.98189],[6.75962,52.9927],[6.75835,52.99318],[6.75237,52.99204],[6.75371,52.99015],[6.74552,52.9883],[6.74072,52.99482],[6.72662,52.9923],[6.72586,52.99167],[6.72872,52.99943],[6.72928,53.0083],[6.72874,53.01105],[6.73096,53.01466],[6.73399,53.01619],[6.73437,53.01768],[6.73558,53.01866],[6.7372,53.01899],[6.74216,53.01905],[6.74859,53.01989],[6.74745,53.02142],[6.74844,53.02287],[6.74267,53.02836],[6.74476,53.03063],[6.7455,53.03056],[6.74717,53.03157],[6.74604,53.03222],[6.74972,53.0361],[6.75314,53.03769],[6.74916,53.03974],[6.73933,53.03383],[6.73665,53.03883],[6.73386,53.0412],[6.73911,53.04289],[6.73885,53.04506],[6.7352,53.04862],[6.7365,53.05066],[6.73495,53.05335],[6.73176,53.05468],[6.72856,53.05668],[6.72687,53.05716],[6.72635,53.05699],[6.71923,53.06008],[6.71843,53.05946],[6.71415,53.05807],[6.71432,53.05785],[6.70741,53.05661],[6.70366,53.0614],[6.69713,53.06669],[6.69747,53.07179],[6.69816,53.0722],[6.69753,53.07274],[6.69785,53.07617],[6.69654,53.07893],[6.69636,53.0809],[6.69466,53.08035],[6.69428,53.08209],[6.68849,53.09044],[6.68016,53.08976],[6.67771,53.09069],[6.67867,53.08718],[6.68355,53.08168],[6.68139,53.07844],[6.67851,53.07689],[6.67424,53.07898],[6.67049,53.0802],[6.67014,53.08383],[6.67056,53.08436],[6.65465,53.09802],[6.65566,53.10008],[6.65764,53.10074],[6.65574,53.1065],[6.66266,53.10788],[6.66579,53.10966],[6.66234,53.11203],[6.66213,53.11295],[6.66091,53.11397],[6.6599,53.11415],[6.65925,53.11563],[6.66759,53.11778],[6.66577,53.11983],[6.6586,53.12504],[6.65642,53.12522],[6.65285,53.12763],[6.65841,53.12863],[6.66051,53.12851],[6.65968,53.13083],[6.65886,53.13225],[6.65435,53.13615],[6.65031,53.14341],[6.64899,53.14482],[6.65233,53.14533],[6.65094,53.14716],[6.65105,53.14776],[6.64846,53.14952],[6.64533,53.15471],[6.64301,53.15431],[6.64255,53.15477],[6.64009,53.15415]]}},{"type":"Feature","properties":{"name":"TET_NL-10_20260710","country":"NL","lengthKm":241.5},"geometry":{"type":"LineString","coordinates":[[4.12817,51.94218],[4.12732,51.94037],[4.13473,51.93875],[4.13691,51.9389],[4.14199,51.93767],[4.14818,51.93772],[4.1619,51.93273],[4.16901,51.93066],[4.17328,51.92777],[4.17417,51.92587],[4.18098,51.92016],[4.19542,51.91286],[4.19737,51.91127],[4.20577,51.90707],[4.21733,51.90256],[4.21667,51.90184],[4.2142,51.9032],[4.21303,51.9034],[4.20987,51.9008],[4.2013,51.89553],[4.19964,51.89405],[4.19694,51.89032],[4.21966,51.88018],[4.22168,51.87854],[4.22175,51.87644],[4.21532,51.87505],[4.21201,51.87151],[4.21046,51.87078],[4.21105,51.86969],[4.21264,51.86954],[4.21863,51.86755],[4.22364,51.86655],[4.22511,51.86747],[4.23059,51.86261],[4.24152,51.85997],[4.2416,51.85856],[4.24037,51.85602],[4.24115,51.8536],[4.24269,51.8526],[4.24402,51.85097],[4.24938,51.84759],[4.24965,51.84589],[4.25033,51.84591],[4.25195,51.8447],[4.25651,51.84057],[4.25727,51.83856],[4.25688,51.83826],[4.25826,51.83546],[4.25837,51.82934],[4.25698,51.82812],[4.25941,51.8246],[4.26069,51.82353],[4.26156,51.82344],[4.26531,51.82433],[4.27157,51.82692],[4.27582,51.8268],[4.27911,51.82713],[4.2826,51.82637],[4.28776,51.82228],[4.28908,51.82186],[4.29625,51.8219],[4.30228,51.82063],[4.30976,51.82122],[4.3148,51.82115],[4.32259,51.82344],[4.33235,51.8229],[4.33623,51.82386],[4.33934,51.81785],[4.33805,51.8173],[4.33878,51.8154],[4.33911,51.8152],[4.34019,51.81578],[4.34488,51.81633],[4.35024,51.81303],[4.35073,51.81206],[4.35063,51.81131],[4.34537,51.8044],[4.34308,51.80277],[4.34369,51.80241],[4.34326,51.79937],[4.3657,51.797],[4.36151,51.78161],[4.365,51.78141],[4.3653,51.77948],[4.37878,51.76605],[4.38088,51.765],[4.38298,51.76461],[4.37932,51.75778],[4.37831,51.74903],[4.38083,51.74924],[4.38307,51.74302],[4.38477,51.74183],[4.40314,51.73643],[4.41172,51.73265],[4.39721,51.70974],[4.39615,51.70712],[4.3958,51.70165],[4.39775,51.69764],[4.40056,51.69426],[4.41727,51.68248],[4.41429,51.68078],[4.41372,51.67998],[4.41426,51.67943],[4.41623,51.67889],[4.41991,51.6793],[4.42181,51.67797],[4.41939,51.67306],[4.40918,51.66518],[4.40516,51.66314],[4.40392,51.66289],[4.39482,51.66318],[4.38788,51.65286],[4.39885,51.65217],[4.39956,51.65151],[4.39949,51.64926],[4.39517,51.64841],[4.38942,51.64372],[4.38717,51.6438],[4.37086,51.63876],[4.36762,51.64036],[4.36641,51.64052],[4.35557,51.63964],[4.3462,51.63778],[4.34207,51.63521],[4.33947,51.63029],[4.32269,51.62489],[4.31352,51.61849],[4.31072,51.6128],[4.30626,51.61087],[4.32146,51.60648],[4.3235,51.60797],[4.32725,51.60603],[4.34738,51.60674],[4.33942,51.59774],[4.3333,51.59171],[4.33227,51.58877],[4.33015,51.5885],[4.32965,51.58732],[4.33052,51.58671],[4.32956,51.5861],[4.33012,51.58516],[4.32863,51.58491],[4.32875,51.58385],[4.32749,51.58395],[4.32342,51.58257],[4.32486,51.58037],[4.32651,51.57944],[4.33043,51.57572],[4.32398,51.57325],[4.31722,51.57235],[4.31795,51.56941],[4.32132,51.56405],[4.32707,51.5587],[4.32946,51.55507],[4.33265,51.55301],[4.33996,51.54576],[4.34295,51.53991],[4.34062,51.53483],[4.34596,51.5314],[4.34646,51.53043],[4.35021,51.52864],[4.35503,51.52813],[4.35665,51.5232],[4.35572,51.52047],[4.35633,51.51918],[4.35772,51.51943],[4.36188,51.51885],[4.36081,51.51675],[4.36139,51.51353],[4.36364,51.51328],[4.36492,51.51152],[4.35137,51.5102],[4.3526,51.51442],[4.3513,51.51774],[4.33299,51.51074],[4.32763,51.50772],[4.32227,51.50436],[4.32127,51.5004],[4.32874,51.50114],[4.32835,51.50274],[4.32792,51.50291],[4.32759,51.50234],[4.32884,51.49886],[4.3268,51.49873],[4.32208,51.49749],[4.32278,51.49676],[4.32258,51.49387],[4.32542,51.49021],[4.326,51.48793],[4.34538,51.48499],[4.35606,51.48471],[4.35959,51.48517],[4.36248,51.47158],[4.35655,51.47589],[4.352,51.47741],[4.35049,51.47894],[4.34507,51.48019],[4.34341,51.47965],[4.33769,51.4749],[4.33487,51.47322],[4.33326,51.47122],[4.33102,51.47017],[4.32424,51.47467],[4.3179,51.47739],[4.31382,51.48004],[4.31527,51.47856],[4.31474,51.47731],[4.31106,51.47689],[4.31033,51.47524],[4.31072,51.47515],[4.31078,51.47233],[4.30911,51.4723],[4.30853,51.47301],[4.30869,51.47383],[4.30773,51.47394],[4.30378,51.47321],[4.3038,51.47177],[4.30334,51.47144],[4.30645,51.46831],[4.3086,51.46846],[4.31437,51.46781],[4.31952,51.46914],[4.32459,51.46929],[4.32835,51.4645],[4.32417,51.46231],[4.32413,51.46141],[4.32253,51.46034],[4.32,51.46061],[4.31171,51.45998],[4.31284,51.45345],[4.3097,51.45391],[4.30632,51.45505],[4.30227,51.45444],[4.30166,51.45131],[4.30227,51.45087],[4.30242,51.43796],[4.30092,51.43743],[4.29573,51.4374],[4.29594,51.43082],[4.29747,51.42965],[4.28187,51.42607],[4.27457,51.42504],[4.26004,51.42658],[4.25275,51.42598],[4.25406,51.42908],[4.24138,51.42768],[4.24206,51.41299],[4.24835,51.41221],[4.24865,51.40927],[4.25434,51.40903],[4.25378,51.40364],[4.22647,51.40118],[4.21994,51.40197],[4.21559,51.40388],[4.21142,51.40076],[4.2083,51.4005],[4.20686,51.40094],[4.20246,51.40661],[4.19872,51.40785],[4.19066,51.40723],[4.18841,51.40674],[4.18132,51.40349],[4.17846,51.40311],[4.17399,51.40419],[4.17249,51.40388],[4.17231,51.40435],[4.16764,51.40553],[4.16502,51.41115],[4.16394,51.41143],[4.16081,51.40735],[4.1563,51.4036],[4.15349,51.40243],[4.14321,51.40212],[4.13382,51.40285],[4.12251,51.40436],[4.1215,51.40569],[4.12098,51.41317],[4.11998,51.41315],[4.1201,51.41419],[4.10378,51.41637],[4.10509,51.42046],[4.10473,51.42202],[4.09804,51.42418],[4.09568,51.42595],[4.09465,51.4276],[4.09511,51.42803],[4.08841,51.42891],[4.08517,51.42871],[4.08372,51.42955],[4.08359,51.43108],[4.08529,51.43661],[4.08309,51.43939],[4.08118,51.44044],[4.07932,51.44656],[4.07917,51.44787],[4.07979,51.44834],[4.07867,51.44895],[4.07575,51.45481],[4.07337,51.45756],[4.07066,51.4592],[4.06501,51.46102],[4.05895,51.46125],[4.05372,51.46204],[4.05005,51.46507],[4.04628,51.4715],[4.04824,51.47313],[4.04913,51.47484],[4.04746,51.4787],[4.04798,51.48132],[4.04978,51.48451],[4.0488,51.48615],[4.04882,51.48714],[4.04768,51.48742],[4.04592,51.48651],[4.04262,51.48673],[4.03274,51.48573],[4.03247,51.48701],[4.03306,51.48891],[4.03178,51.48936],[4.02904,51.49382],[4.01775,51.48921],[4.016,51.4902],[4.0139,51.49006],[4.01391,51.48764],[4.01202,51.48636],[4.01088,51.48478],[4.01058,51.48066],[4.00986,51.47898],[4.01177,51.47688],[4.00874,51.47394],[4.00738,51.47347],[4.00829,51.47156],[4.00835,51.46867],[4.00925,51.46817],[4.01293,51.46806],[4.01761,51.46738],[4.018,51.46765],[4.01485,51.46875],[4.01001,51.46934],[3.99745,51.46891],[3.98128,51.46686],[3.97263,51.46683],[3.96866,51.46726],[3.96875,51.467],[3.97239,51.46647],[3.97223,51.46539],[3.96783,51.46621],[3.96393,51.46751],[3.9637,51.46668],[3.96097,51.46498],[3.95244,51.46411],[3.94468,51.46259],[3.94367,51.4638],[3.94122,51.46415],[3.9387,51.46534],[3.93612,51.46361],[3.92961,51.46229],[3.92632,51.45959],[3.92284,51.46077],[3.9205,51.45853],[3.91606,51.45789],[3.91627,51.45594],[3.91267,51.4549],[3.91178,51.45474],[3.90946,51.45542],[3.9066,51.45572],[3.90256,51.45574],[3.90141,51.45646],[3.90011,51.45596],[3.90038,51.45374],[3.90158,51.45291],[3.90369,51.44861],[3.90226,51.44815],[3.90128,51.44687],[3.89547,51.44608],[3.89211,51.44488],[3.89403,51.44381],[3.8852,51.43676],[3.88285,51.43398],[3.87665,51.43069],[3.87489,51.43136],[3.86906,51.42834],[3.86471,51.4273],[3.86507,51.43428],[3.86438,51.43539],[3.86307,51.43597],[3.86678,51.44034],[3.86801,51.44089],[3.86663,51.44356],[3.86525,51.4438],[3.8646,51.44482],[3.86385,51.44465],[3.86231,51.44638],[3.85829,51.44493],[3.85589,51.44353],[3.85321,51.44294],[3.84777,51.44327],[3.8442,51.4444],[3.84139,51.44403],[3.8414,51.44275],[3.84001,51.4417],[3.8393,51.43996],[3.83478,51.43944],[3.83345,51.43799],[3.83277,51.43836],[3.82829,51.44814],[3.83111,51.44869],[3.83255,51.44816],[3.83528,51.45388],[3.83476,51.45532],[3.83992,51.45981],[3.83985,51.4603],[3.83675,51.46233],[3.83676,51.46272],[3.83378,51.46365],[3.83178,51.4636],[3.83021,51.46754],[3.82948,51.46823],[3.83179,51.46893],[3.8268,51.47395],[3.82429,51.47309],[3.82047,51.47279],[3.81874,51.47117],[3.8197,51.47067],[3.82182,51.47127],[3.82532,51.46723],[3.82679,51.4622],[3.82909,51.46],[3.82929,51.45775],[3.82721,51.45513],[3.82517,51.45379],[3.82561,51.45317],[3.82357,51.45273],[3.82253,51.45207],[3.80585,51.45195],[3.80596,51.4496],[3.80162,51.44904],[3.79808,51.45119],[3.79379,51.45254],[3.76915,51.45121],[3.76737,51.46007],[3.76773,51.46063],[3.76918,51.46089],[3.76947,51.46129],[3.76654,51.46372],[3.76195,51.46617],[3.76049,51.46782],[3.74613,51.46437],[3.7468,51.46159],[3.73793,51.46139],[3.73638,51.46315],[3.73593,51.46468],[3.72922,51.46311],[3.72916,51.46208],[3.73045,51.46012],[3.732,51.45893],[3.73766,51.4562],[3.74703,51.44537],[3.75539,51.44681],[3.755,51.44764],[3.75378,51.4478],[3.75279,51.44707],[3.75393,51.4458],[3.76603,51.41831],[3.77884,51.41076],[3.79509,51.39816],[3.79785,51.39343],[3.79671,51.34497],[3.80053,51.32905],[3.80276,51.32802],[3.80296,51.33066],[3.80426,51.33109],[3.81019,51.33167],[3.81214,51.33054],[3.81297,51.3289],[3.82007,51.32085],[3.82665,51.31203],[3.81967,51.30474],[3.82331,51.30211],[3.82898,51.30546],[3.82993,51.30557],[3.83199,51.3004],[3.83336,51.29471],[3.82951,51.29415],[3.82894,51.2928],[3.84005,51.29461],[3.86204,51.30699],[3.863,51.3062],[3.86155,51.30627],[3.85803,51.30421],[3.86259,51.29873],[3.86579,51.2967],[3.87319,51.29431],[3.87729,51.29122],[3.87834,51.28602],[3.87648,51.28161],[3.8775,51.27802],[3.8809,51.27744],[3.88247,51.28141],[3.89874,51.28155],[3.90523,51.27729],[3.90705,51.27804],[3.90623,51.27899],[3.90714,51.28018],[3.90643,51.28194],[3.91046,51.28396],[3.91511,51.28428],[3.91511,51.28623],[3.92187,51.28825],[3.92126,51.29158],[3.92367,51.29404],[3.94892,51.27613],[3.9469,51.27487],[3.94981,51.27277],[3.9563,51.27259],[3.95688,51.26961],[3.95958,51.26837],[3.96271,51.26794],[3.9628,51.26749],[3.97568,51.26923],[3.97834,51.27023],[3.98302,51.26238],[3.98387,51.26248],[3.9847,51.26317],[3.99049,51.26444],[3.99348,51.25828],[3.99902,51.25644],[4.00061,51.25514],[4.00318,51.25033],[3.99627,51.24777],[3.99255,51.24512],[3.9859,51.24227],[3.98426,51.24042],[3.9812,51.23876],[3.97969,51.24011],[3.97385,51.24348],[3.97118,51.24588],[3.9649,51.24776],[3.96296,51.24795],[3.9593,51.24771],[3.95733,51.24545],[3.95538,51.24204],[3.95254,51.2421],[3.94979,51.2412],[3.94515,51.24109],[3.94236,51.24039],[3.94286,51.23966],[3.9395,51.24039],[3.93184,51.24012],[3.92591,51.24106],[3.91935,51.2399],[3.91882,51.23687],[3.92511,51.23327],[3.92747,51.23052],[3.92702,51.22942],[3.92755,51.22689],[3.93041,51.22511],[3.93162,51.22377],[3.92445,51.22203],[3.91898,51.22172],[3.91665,51.222],[3.91389,51.22355],[3.90828,51.22435],[3.90078,51.22071],[3.89616,51.21965],[3.89344,51.2186],[3.89025,51.2139]]}},{"type":"Feature","properties":{"name":"TET_NL-11_20260710","country":"NL","lengthKm":20.8},"geometry":{"type":"LineString","coordinates":[[4.1267,51.97699],[4.12797,51.97843],[4.14178,51.97198],[4.14423,51.97162],[4.14871,51.96927],[4.14804,51.96865],[4.14847,51.96782],[4.1592,51.96353],[4.17235,51.95621],[4.17366,51.95645],[4.18204,51.96248],[4.19793,51.96802],[4.22475,51.94555],[4.22821,51.94763],[4.23169,51.94233],[4.23546,51.93407],[4.24581,51.9273],[4.24589,51.92653],[4.24843,51.92445],[4.2484,51.92337],[4.24629,51.92186],[4.24768,51.92095],[4.24657,51.91995],[4.25004,51.91849],[4.24956,51.91764],[4.25108,51.9166],[4.24802,51.91342],[4.2445,51.91166],[4.24117,51.91174],[4.23675,51.91318],[4.23565,51.91277],[4.24123,51.91049],[4.24559,51.90962],[4.24547,51.90881],[4.24242,51.90817],[4.24072,51.90858],[4.23342,51.90196],[4.23093,51.90305],[4.22855,51.90308],[4.22945,51.90067],[4.23034,51.90019],[4.23232,51.90005],[4.23206,51.90074],[4.22959,51.90147],[4.22086,51.90037],[4.21883,51.90042],[4.21881,51.89985],[4.22124,51.90004],[4.22492,51.89967],[4.22433,51.9014],[4.21995,51.90166],[4.21733,51.90256]]}}]}