{"type":"FeatureCollection","features":[{"type":"Feature","properties":{"name":"TET_SLO-20260712","country":"SI","lengthKm":386.4},"geometry":{"type":"LineString","coordinates":[[13.41712,46.3055],[13.41751,46.30514],[13.41866,46.30545],[13.42041,46.30464],[13.4225,46.30536],[13.42699,46.3024],[13.43001,46.30213],[13.43056,46.30244],[13.435,46.30177],[13.43757,46.29768],[13.43818,46.29795],[13.43894,46.2975],[13.43977,46.29921],[13.44191,46.30092],[13.4447,46.30168],[13.45057,46.30235],[13.45408,46.30168],[13.45468,46.30267],[13.45814,46.30406],[13.45984,46.30379],[13.46208,46.30401],[13.4611,46.30505],[13.46247,46.30653],[13.46433,46.30702],[13.46565,46.30792],[13.46757,46.30779],[13.46905,46.3086],[13.47097,46.30725],[13.46877,46.30949],[13.46927,46.30976],[13.47574,46.30505],[13.47842,46.30424],[13.4787,46.30352],[13.47985,46.30361],[13.48007,46.30509],[13.48106,46.30586],[13.48138,46.30451],[13.48374,46.30258],[13.48539,46.29948],[13.48764,46.29759],[13.49115,46.29683],[13.49257,46.29557],[13.49482,46.29458],[13.49509,46.29314],[13.49767,46.29198],[13.49986,46.28951],[13.50189,46.28856],[13.50458,46.2891],[13.51028,46.28645],[13.5122,46.28515],[13.51642,46.28349],[13.52054,46.28263],[13.52234,46.28299],[13.523,46.28394],[13.52262,46.28578],[13.52448,46.28713],[13.5286,46.28636],[13.53035,46.28663],[13.53183,46.28641],[13.53254,46.28537],[13.53649,46.28344],[13.53797,46.28196],[13.54252,46.28088],[13.5468,46.28106],[13.54883,46.28016],[13.55069,46.28061],[13.55272,46.27985],[13.55788,46.27675],[13.56753,46.27522],[13.57104,46.27343],[13.57021,46.27181],[13.57136,46.26898],[13.57224,46.2684],[13.57301,46.26682],[13.57542,46.26539],[13.57833,46.26287],[13.5774,46.26148],[13.57882,46.2591],[13.58376,46.25856],[13.58387,46.25726],[13.58255,46.25577],[13.5843,46.25119],[13.58524,46.24993],[13.58557,46.24724],[13.58463,46.24607],[13.58359,46.24585],[13.58145,46.24639],[13.58096,46.24719],[13.57964,46.24791],[13.57849,46.24506],[13.58334,46.24142],[13.58391,46.24017],[13.58375,46.23843],[13.5845,46.23759],[13.59105,46.23274],[13.59253,46.23212],[13.59115,46.22958],[13.59205,46.22813],[13.59136,46.22648],[13.5927,46.22576],[13.59289,46.22445],[13.59142,46.22426],[13.59001,46.22491],[13.5901,46.22078],[13.5909,46.21964],[13.59043,46.21803],[13.59067,46.21774],[13.59167,46.21937],[13.5922,46.21949],[13.59436,46.21783],[13.5958,46.21741],[13.59587,46.2162],[13.59689,46.21582],[13.59698,46.21543],[13.59459,46.21522],[13.59572,46.21449],[13.59426,46.21411],[13.59384,46.2124],[13.59536,46.21304],[13.59587,46.21282],[13.599,46.20947],[13.59874,46.2081],[13.5992,46.20739],[13.59949,46.20284],[13.60039,46.20212],[13.6026,46.20197],[13.60282,46.20073],[13.60375,46.20188],[13.60331,46.20264],[13.60433,46.2034],[13.60479,46.20323],[13.60525,46.19975],[13.60636,46.20212],[13.60795,46.20267],[13.61021,46.20429],[13.61078,46.20291],[13.61265,46.20162],[13.61061,46.19999],[13.61062,46.19889],[13.61432,46.19561],[13.61557,46.19281],[13.62376,46.19241],[13.62744,46.19184],[13.6286,46.19289],[13.62815,46.19357],[13.62982,46.19383],[13.63647,46.19163],[13.6377,46.19188],[13.64028,46.19153],[13.64236,46.19046],[13.64388,46.19072],[13.64461,46.19002],[13.64672,46.18927],[13.64798,46.1893],[13.6488,46.18859],[13.65125,46.18825],[13.65206,46.18765],[13.65503,46.18671],[13.65637,46.18746],[13.65949,46.18687],[13.66144,46.18561],[13.66285,46.18333],[13.66427,46.18288],[13.66498,46.18037],[13.66607,46.17984],[13.66772,46.18076],[13.6669,46.18222],[13.66416,46.18493],[13.66446,46.18549],[13.66373,46.18626],[13.66334,46.18853],[13.66446,46.19072],[13.66836,46.19171],[13.66845,46.19222],[13.67072,46.19059],[13.67218,46.19055],[13.67373,46.18969],[13.67454,46.18982],[13.67626,46.18909],[13.67823,46.18888],[13.67982,46.18707],[13.68184,46.18733],[13.68458,46.18591],[13.68755,46.18514],[13.69514,46.18424],[13.69523,46.18381],[13.68171,46.18373],[13.6818,46.18343],[13.68536,46.18282],[13.68283,46.18235],[13.68102,46.18158],[13.67926,46.18179],[13.68184,46.18055],[13.686,46.18068],[13.68755,46.18012],[13.69819,46.17832],[13.70222,46.17853],[13.70403,46.17922],[13.70561,46.17913],[13.70673,46.17755],[13.70862,46.17617],[13.70767,46.17497],[13.70802,46.17308],[13.70978,46.17308],[13.709,46.17304],[13.70789,46.17227],[13.70926,46.16879],[13.71016,46.16416],[13.70991,46.16317],[13.71304,46.16064],[13.71458,46.15793],[13.7166,46.15613],[13.71686,46.15334],[13.71604,46.15193],[13.7178,46.15416],[13.71814,46.15613],[13.71978,46.15888],[13.71935,46.16042],[13.72261,46.16201],[13.72325,46.16197],[13.72231,46.16235],[13.72454,46.16227],[13.726,46.16326],[13.72874,46.16343],[13.72982,46.16313],[13.73471,46.1645],[13.73647,46.16454],[13.7399,46.16214],[13.74059,46.16051],[13.74162,46.15952],[13.74222,46.15643],[13.7399,46.15334],[13.74571,46.1512],[13.74951,46.1512],[13.75496,46.14922],[13.75885,46.14893],[13.76023,46.14814],[13.76123,46.14713],[13.76026,46.14639],[13.75821,46.14774],[13.75572,46.14761],[13.75921,46.14612],[13.7615,46.14451],[13.76793,46.14172],[13.76929,46.14011],[13.77125,46.13923],[13.7731,46.13708],[13.77511,46.13583],[13.7764,46.13368],[13.77829,46.13274],[13.77896,46.13179],[13.78074,46.13141],[13.78041,46.12987],[13.78205,46.12786],[13.78446,46.12672],[13.78681,46.12657],[13.78994,46.12472],[13.78985,46.12404],[13.79052,46.12316],[13.79264,46.12271],[13.79351,46.12206],[13.79446,46.12095],[13.79596,46.11734],[13.79743,46.11691],[13.80067,46.11381],[13.80125,46.1128],[13.801,46.11182],[13.80371,46.10866],[13.80414,46.1075],[13.80354,46.10704],[13.80318,46.10521],[13.802,46.10328],[13.80162,46.09785],[13.8007,46.09697],[13.80101,46.09541],[13.79931,46.09365],[13.79789,46.09297],[13.79732,46.09202],[13.79747,46.09031],[13.79635,46.0894],[13.79635,46.08746],[13.79728,46.08673],[13.79716,46.08397],[13.79583,46.0774],[13.79585,46.0747],[13.79483,46.07293],[13.79461,46.0701],[13.79625,46.06552],[13.79627,46.05952],[13.79816,46.05473],[13.7978,46.05356],[13.79542,46.05206],[13.79535,46.05134],[13.79202,46.04769],[13.7921,46.04715],[13.7936,46.04649],[13.79343,46.0426],[13.79168,46.0385],[13.78928,46.03459],[13.78855,46.02821],[13.78691,46.02587],[13.78724,46.02448],[13.78626,46.02325],[13.78591,46.01955],[13.7867,46.01717],[13.78779,46.01686],[13.78868,46.016],[13.78867,46.01483],[13.79124,46.01372],[13.79211,46.01214],[13.79122,46.0116],[13.78979,46.01287],[13.7886,46.01304],[13.78754,46.01258],[13.78583,46.01092],[13.78329,46.01104],[13.78376,46.00969],[13.78272,46.00889],[13.78269,46.00762],[13.78207,46.0068],[13.78262,46.00465],[13.78209,46.00333],[13.78108,46.00272],[13.77896,46.00289],[13.77837,46.00209],[13.77832,46.00063],[13.77947,45.99818],[13.77861,45.99702],[13.77724,45.99655],[13.77328,45.9932],[13.77206,45.99123],[13.76987,45.99022],[13.76881,45.98899],[13.7669,45.98838],[13.76576,45.98849],[13.76359,45.98942],[13.76231,45.98931],[13.76024,45.98716],[13.75973,45.98532],[13.75676,45.98375],[13.75531,45.9822],[13.75285,45.98106],[13.74969,45.97838],[13.74769,45.97898],[13.74617,45.97886],[13.74406,45.97678],[13.74441,45.97495],[13.74247,45.97397],[13.74218,45.9733],[13.74617,45.97271],[13.74509,45.97236],[13.74492,45.97178],[13.74507,45.97234],[13.74628,45.97267],[13.7493,45.97187],[13.75042,45.97074],[13.75321,45.9696],[13.75527,45.96724],[13.75512,45.96549],[13.75661,45.96471],[13.7578,45.96329],[13.76029,45.96206],[13.76294,45.9588],[13.76455,45.95859],[13.76739,45.95667],[13.7687,45.95475],[13.76867,45.95229],[13.76957,45.95026],[13.77178,45.94947],[13.77543,45.9466],[13.77711,45.94594],[13.78141,45.94525],[13.78442,45.94355],[13.78513,45.94402],[13.78632,45.94359],[13.7878,45.9412],[13.78902,45.94221],[13.78939,45.94212],[13.78929,45.94048],[13.7903,45.93963],[13.79429,45.93891],[13.79705,45.93764],[13.79932,45.9398],[13.80101,45.93944],[13.80353,45.94026],[13.80366,45.94139],[13.8041,45.94162],[13.80684,45.93885],[13.80873,45.93938],[13.80892,45.93765],[13.80976,45.93721],[13.81236,45.93728],[13.81408,45.93623],[13.81765,45.93622],[13.81995,45.93777],[13.82119,45.93675],[13.82394,45.93628],[13.82653,45.93504],[13.82818,45.93616],[13.83037,45.93441],[13.83026,45.9324],[13.83177,45.93036],[13.83459,45.93069],[13.83541,45.93129],[13.83724,45.93054],[13.84026,45.93251],[13.84176,45.93253],[13.84261,45.93302],[13.8441,45.93259],[13.84654,45.93059],[13.84863,45.93025],[13.84925,45.92941],[13.8506,45.92899],[13.85185,45.92921],[13.85571,45.92856],[13.85696,45.92903],[13.85745,45.92988],[13.85867,45.93004],[13.8591,45.93121],[13.85871,45.93399],[13.85953,45.9355],[13.85775,45.93805],[13.85461,45.93966],[13.854,45.94189],[13.85312,45.94241],[13.85359,45.94374],[13.85432,45.94418],[13.85595,45.94432],[13.85631,45.94481],[13.85475,45.94678],[13.85483,45.95],[13.85558,45.95288],[13.85701,45.95371],[13.85687,45.95434],[13.85507,45.95581],[13.85409,45.956],[13.85157,45.95927],[13.85307,45.95926],[13.85335,45.95997],[13.85431,45.96015],[13.85626,45.95718],[13.85984,45.95497],[13.87005,45.94654],[13.87057,45.9467],[13.87249,45.94605],[13.87319,45.94489],[13.87638,45.94395],[13.87726,45.9447],[13.87934,45.94462],[13.88104,45.94338],[13.88226,45.94328],[13.88267,45.94352],[13.8847,45.94319],[13.88781,45.9443],[13.88959,45.94381],[13.89103,45.94212],[13.89362,45.94185],[13.89747,45.94039],[13.90183,45.93659],[13.90317,45.93629],[13.90272,45.93584],[13.90354,45.93586],[13.90376,45.93465],[13.90535,45.93249],[13.90472,45.93134],[13.90546,45.93045],[13.90531,45.92961],[13.90657,45.92861],[13.90968,45.92804],[13.91279,45.92675],[13.91382,45.92554],[13.91549,45.92524],[13.91752,45.92338],[13.92093,45.92185],[13.92363,45.9192],[13.924,45.91826],[13.92873,45.9143],[13.92892,45.91373],[13.93014,45.91392],[13.93058,45.91247],[13.92862,45.91096],[13.92933,45.90972],[13.93021,45.91037],[13.93129,45.90867],[13.93654,45.90732],[13.93573,45.90816],[13.93667,45.9072],[13.93227,45.90818],[13.93129,45.90868],[13.93013,45.91038],[13.92935,45.90971],[13.92902,45.90998],[13.92864,45.9111],[13.93052,45.9125],[13.93019,45.91393],[13.93155,45.91461],[13.93272,45.91465],[13.93564,45.91281],[13.93907,45.91196],[13.94218,45.91259],[13.9427,45.91317],[13.944,45.91268],[13.94393,45.90989],[13.94452,45.90823],[13.94627,45.90648],[13.94692,45.9049],[13.9499,45.90374],[13.95599,45.90001],[13.95956,45.89844],[13.96286,45.89758],[13.96481,45.8974],[13.96591,45.89862],[13.9698,45.897],[13.972,45.89691],[13.979,45.89327],[13.97926,45.89258],[13.98503,45.88921],[13.98938,45.88728],[13.99126,45.88593],[13.9943,45.88535],[13.9978,45.88387],[13.99904,45.8822],[14.00118,45.88144],[14.00046,45.88104],[13.99806,45.88081],[13.99288,45.88158],[13.98899,45.88171],[13.98685,45.88337],[13.98257,45.88288],[13.97991,45.88171],[13.97777,45.88229],[13.97667,45.88225],[13.97544,45.88162],[13.97388,45.88193],[13.97077,45.88045],[13.96837,45.88023],[13.96546,45.8791],[13.96928,45.87956],[13.97038,45.87924],[13.96915,45.87879],[13.97278,45.87906],[13.97045,45.87816],[13.97298,45.87839],[13.96948,45.87578],[13.97038,45.87614],[13.9698,45.87542],[13.97051,45.87524],[13.97174,45.87596],[13.97356,45.87632],[13.97589,45.87542],[13.9768,45.87547],[13.97888,45.87695],[13.98452,45.87771],[13.98879,45.87488],[13.98588,45.871],[13.98361,45.87301],[13.98488,45.86899],[13.98433,45.8654],[13.98633,45.86415],[13.98524,45.86062],[13.98923,45.85679],[13.98896,45.85503],[13.98987,45.8532],[13.99232,45.85383],[13.99531,45.85371],[13.99894,45.8544],[13.99559,45.85245],[13.99586,45.84981],[13.99541,45.8488],[13.99813,45.84736],[14.00221,45.84635],[14.0063,45.84239],[14.00766,45.84219],[14.00856,45.84075],[14.00856,45.83968],[14.00947,45.83892],[14.01102,45.8349],[14.01256,45.83421],[14.01292,45.82735],[14.01437,45.82345],[14.01601,45.82176],[14.019,45.81987],[14.01973,45.81986],[14.02164,45.81692],[14.02127,45.81198],[14.01997,45.81081],[14.02201,45.80789],[14.0204,45.80524],[14.023,45.80142],[14.02503,45.80012],[14.02698,45.79762],[14.02942,45.79586],[14.02952,45.7939],[14.02819,45.79076],[14.02802,45.79144],[14.02612,45.79051],[14.02565,45.79124],[14.02338,45.79175],[14.02234,45.7916],[14.02074,45.79261],[14.02245,45.7899],[14.02443,45.78841],[14.02612,45.78541],[14.02771,45.78512],[14.02938,45.78592],[14.03154,45.78448],[14.03239,45.78519],[14.03397,45.78332],[14.03521,45.78426],[14.03497,45.78354],[14.03596,45.7825],[14.03723,45.77941],[14.03675,45.77899],[14.03641,45.77943],[14.03594,45.77924],[14.03663,45.77935],[14.0369,45.77904],[14.03726,45.77936],[14.03571,45.78287],[14.03503,45.78348],[14.03526,45.78415],[14.03583,45.78467],[14.03686,45.78423],[14.03871,45.78437],[14.04422,45.77941],[14.04529,45.77892],[14.04507,45.77779],[14.04814,45.77647],[14.04927,45.77496],[14.04914,45.77393],[14.05007,45.77294],[14.05144,45.77245],[14.05192,45.77266],[14.05033,45.77276],[14.04911,45.77406],[14.04925,45.77496],[14.04809,45.7766],[14.0453,45.77761],[14.04518,45.77895],[14.04395,45.77949],[14.03862,45.78434],[14.03578,45.78461],[14.03401,45.7834],[14.03229,45.78519],[14.0316,45.78446],[14.02942,45.78591],[14.02759,45.7851],[14.02589,45.78558],[14.02448,45.78828],[14.02261,45.78979],[14.02116,45.79208],[14.02531,45.79136],[14.02613,45.79042],[14.02758,45.79159],[14.02815,45.79074],[14.02947,45.79518],[14.02928,45.79617],[14.02798,45.79693],[14.02504,45.80001],[14.02295,45.8013],[14.02048,45.80527],[14.02194,45.80822],[14.01982,45.8107],[14.02025,45.81167],[14.02121,45.81212],[14.02163,45.81677],[14.01976,45.81985],[14.01856,45.81998],[14.01884,45.81922],[14.0186,45.81998],[14.01759,45.82033],[14.01537,45.82224],[14.01281,45.8273],[14.01256,45.83222],[14.01286,45.83275],[14.01389,45.83288],[14.01472,45.83386],[14.01597,45.83778],[14.01553,45.83975],[14.01261,45.84254],[14.01016,45.84738],[14.01085,45.8533],[14.01207,45.85466],[14.01251,45.85627],[14.01475,45.85809],[14.01657,45.85861],[14.01876,45.85833],[14.01972,45.85898],[14.02138,45.85834],[14.02501,45.85909],[14.0273,45.85693],[14.02925,45.8565],[14.02948,45.85562],[14.03069,45.85543],[14.03128,45.8542],[14.03222,45.85427],[14.03296,45.855],[14.03524,45.85477],[14.03582,45.8538],[14.03775,45.85397],[14.03837,45.85297],[14.03979,45.85301],[14.04,45.85206],[14.04154,45.85181],[14.04233,45.85114],[14.04471,45.85133],[14.04433,45.85067],[14.04556,45.84965],[14.04818,45.84905],[14.04974,45.84789],[14.05055,45.84548],[14.05131,45.84509],[14.05239,45.84344],[14.05525,45.84271],[14.0572,45.84346],[14.06044,45.84237],[14.06397,45.84188],[14.06557,45.84101],[14.06727,45.83959],[14.06749,45.83843],[14.06694,45.8379],[14.06715,45.83705],[14.06638,45.83553],[14.06592,45.83488],[14.06572,45.83531],[14.06538,45.83505],[14.06543,45.83351],[14.06448,45.83314],[14.06489,45.82922],[14.06911,45.82776],[14.07223,45.82745],[14.07488,45.82593],[14.07651,45.82268],[14.07711,45.81921],[14.08048,45.81438],[14.08109,45.81385],[14.08255,45.81367],[14.08286,45.8132],[14.08198,45.81256],[14.08247,45.81195],[14.08243,45.81047],[14.08405,45.80883],[14.08621,45.80753],[14.08683,45.80641],[14.08951,45.80562],[14.09314,45.80345],[14.09393,45.8014],[14.09544,45.79955],[14.09628,45.80021],[14.09507,45.8014],[14.09539,45.80356],[14.09456,45.80483],[14.09517,45.80545],[14.09739,45.80616],[14.10577,45.80477],[14.10666,45.80498],[14.10671,45.80581],[14.108,45.80589],[14.10779,45.80641],[14.10855,45.80687],[14.10992,45.80657],[14.10954,45.80724],[14.10996,45.80782],[14.10896,45.80799],[14.10829,45.80857],[14.10782,45.8111],[14.10597,45.81432],[14.10677,45.81488],[14.11224,45.81638],[14.11342,45.81724],[14.11434,45.81865],[14.11602,45.8196],[14.11679,45.8208],[14.122,45.82189],[14.1237,45.82284],[14.12488,45.82299],[14.1276,45.82271],[14.13089,45.82348],[14.13455,45.82271],[14.13762,45.82146],[14.13666,45.82022],[14.13668,45.81855],[14.13501,45.81726],[14.13483,45.81597],[14.13157,45.81481],[14.13039,45.81374],[14.12838,45.81421],[14.13039,45.81374],[14.13157,45.81481],[14.13483,45.81597],[14.13501,45.81726],[14.13668,45.81855],[14.13666,45.82022],[14.13762,45.82146],[14.13455,45.82271],[14.13089,45.82348],[14.1276,45.82271],[14.12524,45.82301],[14.12257,45.82242],[14.12304,45.82461],[14.12278,45.82524],[14.12184,45.82567],[14.12185,45.82664],[14.12087,45.82744],[14.12307,45.83016],[14.1234,45.83122],[14.12231,45.83184],[14.12224,45.83136],[14.12156,45.83126],[14.1201,45.83232],[14.11945,45.83356],[14.12229,45.83337],[14.1244,45.83599],[14.12644,45.83579],[14.12715,45.83678],[14.12608,45.84166],[14.128,45.8425],[14.12841,45.84323],[14.12807,45.84502],[14.12725,45.84604],[14.12764,45.84937],[14.12857,45.85003],[14.12829,45.85098],[14.13166,45.84965],[14.1324,45.85039],[14.1337,45.85],[14.13519,45.85138],[14.13507,45.85236],[14.13619,45.8523],[14.13792,45.85282],[14.138,45.85368],[14.14075,45.85449],[14.14168,45.85516],[14.14304,45.85505],[14.1434,45.85353],[14.14393,45.85362],[14.1446,45.8545],[14.14462,45.8562],[14.14373,45.85718],[14.14499,45.85852],[14.14469,45.85987],[14.14835,45.86362],[14.14834,45.86452],[14.14981,45.86618],[14.1498,45.86707],[14.15205,45.86849],[14.15193,45.86884],[14.14986,45.86958],[14.1514,45.87052],[14.15112,45.87122],[14.15273,45.87359],[14.15152,45.87514],[14.15151,45.87759],[14.15383,45.87817],[14.15508,45.87797],[14.1564,45.87879],[14.1573,45.88107],[14.16034,45.88204],[14.16094,45.88432],[14.16161,45.88512],[14.16157,45.88421],[14.16483,45.88384],[14.16632,45.88305],[14.17077,45.8838],[14.17047,45.88214],[14.17153,45.88115],[14.17265,45.87883],[14.17327,45.87851],[14.18212,45.87907],[14.18653,45.8785],[14.18529,45.87947],[14.17928,45.88198],[14.18005,45.8825],[14.17851,45.88388],[14.17821,45.8847],[14.17377,45.88719],[14.17384,45.88836],[14.17292,45.88948],[14.17386,45.89026],[14.17395,45.89104],[14.17471,45.89156],[14.17702,45.89208],[14.18011,45.89408],[14.18223,45.89464],[14.189,45.8948],[14.19273,45.89532],[14.19581,45.89634],[14.20016,45.89873],[14.20096,45.89972],[14.20363,45.89844],[14.20489,45.89636],[14.20695,45.89661],[14.20871,45.8966],[14.20981,45.89621],[14.21245,45.89636],[14.21629,45.89842],[14.21675,45.89794],[14.21959,45.89759],[14.2207,45.89645],[14.22466,45.89541],[14.2244,45.89636],[14.22546,45.89712],[14.22455,45.89854],[14.22473,45.89947],[14.22876,45.90023],[14.22915,45.901],[14.23092,45.90141],[14.23449,45.9003],[14.23585,45.90081],[14.23913,45.89985],[14.24149,45.89772],[14.24736,45.89563],[14.25026,45.89649],[14.25636,45.89626],[14.25724,45.89685],[14.25713,45.8977],[14.25811,45.89828],[14.25732,45.90016],[14.25826,45.90025],[14.25905,45.89959],[14.26408,45.90049],[14.26469,45.90126],[14.266,45.90147],[14.26674,45.90201],[14.26672,45.90396],[14.26716,45.90431],[14.27197,45.90047],[14.27343,45.9001],[14.27371,45.89938],[14.2733,45.89824],[14.27536,45.89642],[14.27856,45.8947],[14.28624,45.8926],[14.28851,45.89328],[14.28834,45.89406],[14.28901,45.8944],[14.29115,45.89468],[14.29212,45.89315],[14.29023,45.89185],[14.29023,45.89144],[14.29135,45.89088],[14.29079,45.8894],[14.28944,45.88826],[14.28836,45.88848],[14.28708,45.88818],[14.28924,45.88637],[14.29371,45.88584],[14.29607,45.88371],[14.29725,45.8835],[14.29647,45.88185],[14.29761,45.87983],[14.2992,45.87994],[14.30068,45.87908],[14.30201,45.87882],[14.30622,45.88354],[14.30819,45.88469],[14.30983,45.88201],[14.31023,45.8794],[14.31135,45.87764],[14.3118,45.87578],[14.31143,45.87366],[14.31348,45.87023],[14.31361,45.86872],[14.31555,45.86707],[14.316,45.86547],[14.31734,45.86397],[14.31869,45.86363],[14.31911,45.86104],[14.32004,45.86003],[14.32118,45.85972],[14.3218,45.85724],[14.32659,45.85532],[14.32719,45.85441],[14.33186,45.85135],[14.33186,45.85091],[14.32925,45.84953],[14.32792,45.84756],[14.32877,45.8464],[14.33,45.84595],[14.33037,45.84539],[14.33049,45.84336],[14.32898,45.84232],[14.32932,45.84076],[14.33151,45.83954],[14.33179,45.83841],[14.33266,45.83778],[14.33139,45.83639],[14.33127,45.83478],[14.33472,45.83238],[14.33649,45.83166],[14.33922,45.82783],[14.34326,45.82659],[14.34282,45.82477],[14.34418,45.82314],[14.34333,45.82261],[14.34107,45.82313],[14.33715,45.82317],[14.33538,45.82192],[14.33153,45.82178],[14.33033,45.81982],[14.32629,45.8212],[14.32484,45.82102],[14.32551,45.82156],[14.32059,45.82858],[14.32083,45.82947],[14.32019,45.83086],[14.31747,45.83241],[14.31607,45.83464],[14.31413,45.8359],[14.31288,45.83867],[14.31041,45.83987],[14.31033,45.84068],[14.30903,45.84124],[14.30855,45.84211],[14.30687,45.84209],[14.30448,45.84132],[14.30103,45.84152],[14.30417,45.83687],[14.30537,45.83618],[14.30485,45.83543],[14.30096,45.83459],[14.29775,45.83628],[14.29706,45.83708],[14.29722,45.83755],[14.29583,45.83843],[14.29613,45.83984],[14.29555,45.84172],[14.29238,45.84436],[14.29331,45.84584],[14.29341,45.84828],[14.29236,45.85441],[14.2944,45.85473],[14.29335,45.85597],[14.29412,45.85879],[14.29318,45.8595],[14.29183,45.8595],[14.29139,45.86012],[14.28946,45.86098],[14.28715,45.86084],[14.28465,45.86187],[14.2818,45.86584],[14.28186,45.86683],[14.28122,45.86779],[14.27976,45.86865],[14.27796,45.87114],[14.27577,45.87223],[14.27489,45.87318],[14.27317,45.8732],[14.27289,45.87266],[14.27343,45.87183],[14.27253,45.8662],[14.27346,45.86377],[14.27001,45.86364],[14.26594,45.86183],[14.26527,45.86217],[14.26453,45.86036],[14.265,45.85896],[14.26413,45.8583],[14.26402,45.85497],[14.26062,45.85252],[14.25475,45.84349],[14.25675,45.83644],[14.25788,45.83513],[14.25779,45.8328],[14.25894,45.83138],[14.26415,45.82851],[14.26491,45.82728],[14.26371,45.82548],[14.26234,45.82485],[14.26181,45.8234],[14.26002,45.82334],[14.25925,45.82258],[14.26003,45.82218],[14.26288,45.82182],[14.26165,45.81965],[14.26287,45.81737],[14.26229,45.81684],[14.26309,45.81666],[14.26409,45.81699],[14.26488,45.81669],[14.26389,45.81693],[14.26333,45.81667],[14.26358,45.81425],[14.26201,45.81302],[14.26222,45.8109],[14.26185,45.81026],[14.26221,45.8098],[14.26146,45.80787],[14.25889,45.80759],[14.2575,45.80847],[14.25583,45.80749],[14.25407,45.80779],[14.25221,45.80636],[14.25059,45.8064],[14.25235,45.80347],[14.25225,45.80279],[14.25112,45.80242],[14.25104,45.80147],[14.25209,45.80042],[14.25417,45.79979],[14.25233,45.79946],[14.25191,45.7979],[14.25928,45.79954],[14.26988,45.80374],[14.27435,45.80387],[14.27565,45.80473],[14.27857,45.80552],[14.2803,45.80495],[14.28128,45.8031],[14.28116,45.80217],[14.28555,45.80034],[14.28576,45.79929],[14.28688,45.79784],[14.28663,45.79707],[14.28791,45.7962],[14.28757,45.79347],[14.28906,45.7947],[14.29138,45.79385],[14.29235,45.79318],[14.29199,45.79179],[14.29287,45.79085],[14.29432,45.79028],[14.29481,45.78951],[14.29717,45.78862],[14.30345,45.78817],[14.30423,45.78894],[14.30375,45.78992],[14.30455,45.79096],[14.30659,45.79006],[14.30827,45.79226],[14.30946,45.79309],[14.31032,45.79314],[14.31146,45.79276],[14.31162,45.79199],[14.31336,45.79059],[14.31488,45.7899],[14.31656,45.78965],[14.31733,45.78865],[14.31855,45.78835],[14.31936,45.78695],[14.32153,45.78728],[14.32223,45.78708],[14.32224,45.78493],[14.32494,45.78167],[14.32517,45.78024],[14.3261,45.77965],[14.32766,45.77948],[14.33047,45.78064],[14.33241,45.78412],[14.33413,45.78559],[14.33699,45.78575],[14.33884,45.78543],[14.33976,45.78593],[14.34394,45.78638],[14.34673,45.78763],[14.34729,45.78732],[14.34703,45.78664],[14.34501,45.78557],[14.34501,45.78493],[14.35353,45.7793],[14.35829,45.7774],[14.36031,45.78367],[14.36094,45.78969],[14.3618,45.79088],[14.36433,45.79306],[14.3661,45.79296],[14.36672,45.79232],[14.36728,45.79251],[14.36821,45.79362],[14.36818,45.79571],[14.36905,45.7971],[14.36909,45.79811],[14.37136,45.80054],[14.37247,45.80067],[14.37331,45.80175],[14.37628,45.80365],[14.38139,45.80478],[14.38319,45.80419],[14.38918,45.80372],[14.39028,45.80243],[14.39224,45.80163],[14.39438,45.80147],[14.39617,45.80177],[14.39755,45.80135],[14.39848,45.80171],[14.39737,45.80107],[14.39658,45.80135],[14.3957,45.80107],[14.39885,45.80087],[14.40558,45.79915],[14.40647,45.79856],[14.40671,45.79757],[14.40853,45.79652],[14.40879,45.7968],[14.41092,45.79486],[14.41387,45.79433],[14.41732,45.79205],[14.41773,45.79094],[14.41834,45.79064],[14.41748,45.79058],[14.41594,45.79185],[14.41376,45.79271],[14.41164,45.79307],[14.40989,45.79276],[14.4055,45.79443],[14.40484,45.7941],[14.40701,45.79331],[14.40842,45.7917],[14.4102,45.79107],[14.40679,45.79165],[14.40584,45.78995],[14.40682,45.79162],[14.41021,45.79105],[14.40852,45.79166],[14.40727,45.79321],[14.40578,45.79412],[14.40479,45.79429],[14.40556,45.79459],[14.40829,45.7939],[14.41,45.79302],[14.41138,45.79321],[14.41468,45.79251],[14.4163,45.79191],[14.41783,45.79045],[14.41982,45.7904],[14.4212,45.78934],[14.42243,45.78904],[14.42867,45.78915],[14.43219,45.79113],[14.43563,45.79176],[14.43684,45.79255],[14.43948,45.79134],[14.44386,45.79024],[14.44638,45.79036],[14.44789,45.7867],[14.44912,45.78621],[14.4482,45.7837],[14.44898,45.7826],[14.44756,45.78145],[14.44715,45.78054],[14.45603,45.7814],[14.45748,45.78264],[14.45994,45.78224],[14.46147,45.78333],[14.46119,45.78564],[14.46282,45.78627],[14.46693,45.78939],[14.4683,45.78891],[14.47651,45.78798],[14.47877,45.79036],[14.48224,45.79253],[14.4863,45.79419],[14.48935,45.79427],[14.49529,45.7926],[14.5011,45.79203],[14.50567,45.79196],[14.50739,45.79218],[14.50859,45.79294],[14.50982,45.79193],[14.5117,45.79199],[14.5161,45.78837],[14.51516,45.78693],[14.51572,45.78652],[14.51513,45.78671],[14.51441,45.78507],[14.51168,45.78359],[14.51339,45.78138],[14.51161,45.78003],[14.51128,45.7779],[14.51043,45.77717],[14.51033,45.77574],[14.51095,45.77475],[14.51031,45.77262],[14.50544,45.77303],[14.51011,45.77264],[14.51478,45.77047],[14.52448,45.7679],[14.5244,45.76678],[14.52304,45.76462],[14.52379,45.76274],[14.52793,45.76099],[14.53182,45.75867],[14.53515,45.75587],[14.53515,45.75487],[14.53641,45.75444],[14.53674,45.75393],[14.53871,45.75358],[14.5421,45.75448],[14.54376,45.75457],[14.54409,45.75225],[14.54338,45.75129],[14.54749,45.75],[14.54686,45.74652],[14.54768,45.74523],[14.54748,45.7441],[14.55267,45.74478],[14.55619,45.74281],[14.55837,45.74396],[14.55897,45.74389],[14.56393,45.7398],[14.56381,45.73838],[14.56707,45.73561],[14.56852,45.73291],[14.57071,45.73186],[14.57336,45.73132],[14.58019,45.72823],[14.57574,45.72786],[14.57489,45.7286],[14.57402,45.72841],[14.5725,45.72899],[14.57062,45.72879],[14.57209,45.72811],[14.5728,45.7273],[14.5734,45.72619],[14.57305,45.72426],[14.57484,45.72182],[14.57424,45.72023],[14.57303,45.71958],[14.57281,45.71799],[14.57818,45.71233],[14.57989,45.71141],[14.58392,45.71104],[14.58515,45.71038],[14.58621,45.70851],[14.58562,45.70543],[14.58699,45.70376],[14.59042,45.70208],[14.59144,45.70062],[14.59175,45.7023],[14.5949,45.70214],[14.59714,45.70395],[14.59893,45.70467],[14.59973,45.70466],[14.60127,45.70381],[14.60406,45.70444],[14.60814,45.70437],[14.60902,45.70395],[14.60917,45.70286],[14.61129,45.70054],[14.6147,45.69917],[14.61617,45.69767],[14.61791,45.69691],[14.62103,45.6969],[14.62134,45.69588],[14.62081,45.69492],[14.62097,45.69403],[14.62204,45.69334],[14.62191,45.69279],[14.62358,45.693],[14.62561,45.6916],[14.62621,45.69204],[14.62907,45.6915],[14.63094,45.69187],[14.63123,45.68849],[14.63207,45.68752],[14.63275,45.68767],[14.63337,45.68579],[14.63293,45.68508],[14.63324,45.68418],[14.63422,45.68358],[14.63548,45.68163],[14.63643,45.67907],[14.63571,45.67765],[14.63717,45.67682],[14.63925,45.6737],[14.63909,45.67171],[14.63973,45.67057],[14.63856,45.6706],[14.6373,45.66983],[14.63636,45.66996],[14.63734,45.66633],[14.63673,45.66537],[14.63715,45.66482],[14.6364,45.66425],[14.63807,45.66373],[14.63941,45.66171],[14.63955,45.66501],[14.64064,45.6651],[14.64205,45.6637],[14.64416,45.66293],[14.65037,45.65691],[14.65215,45.65628],[14.65238,45.65553],[14.65426,45.65387],[14.65595,45.65037],[14.65532,45.65002],[14.6551,45.64633],[14.65598,45.64527],[14.65606,45.64257],[14.6566,45.64193],[14.65772,45.64155],[14.65743,45.6407],[14.65848,45.6404],[14.65932,45.64063],[14.66037,45.63985],[14.66055,45.6391],[14.66232,45.63914],[14.66797,45.63768],[14.67308,45.63459],[14.67438,45.635],[14.6757,45.6348],[14.67802,45.63216],[14.68051,45.63277],[14.68076,45.63189],[14.68204,45.63196],[14.68261,45.63164],[14.68265,45.63092],[14.68439,45.63069],[14.68557,45.62981],[14.68741,45.62771],[14.6876,45.62639],[14.68904,45.62538],[14.69246,45.6264],[14.69413,45.62544],[14.69557,45.6259],[14.69823,45.62523],[14.70061,45.62323],[14.70574,45.62382],[14.70746,45.62304],[14.7076,45.62163],[14.70933,45.62119],[14.71079,45.61935],[14.71445,45.61827],[14.71581,45.61719],[14.71659,45.61787],[14.7154,45.61889],[14.71603,45.61856],[14.7175,45.61875],[14.71945,45.61805],[14.72003,45.61661],[14.722,45.61611],[14.72156,45.61278],[14.72269,45.61037],[14.72197,45.61004],[14.72182,45.60945],[14.72256,45.60878],[14.72413,45.60853],[14.72612,45.60708],[14.72682,45.60512],[14.72772,45.60435],[14.72814,45.60199],[14.72782,45.60078],[14.72964,45.59704],[14.73011,45.59716],[14.72986,45.59788],[14.73171,45.59769],[14.73343,45.59667],[14.73336,45.59552],[14.73856,45.59385],[14.74353,45.59027],[14.74522,45.58968],[14.74495,45.59096],[14.74312,45.59169],[14.74119,45.59448],[14.73869,45.5963],[14.73936,45.59721],[14.73841,45.59899],[14.73877,45.59966],[14.73996,45.59852],[14.74073,45.59972],[14.7441,45.59809],[14.74481,45.59665],[14.74638,45.5971],[14.74657,45.59609],[14.7473,45.59667],[14.74895,45.59451],[14.75365,45.59155],[14.75598,45.59055],[14.75264,45.5938],[14.75229,45.5956],[14.75269,45.59795],[14.75431,45.59671],[14.75575,45.5941],[14.76101,45.59067],[14.76576,45.59105],[14.76736,45.59152],[14.768,45.59257],[14.76794,45.59419],[14.76873,45.59421],[14.77054,45.59311],[14.7721,45.59296],[14.77325,45.59362],[14.77639,45.59442],[14.78033,45.59232],[14.78263,45.5869],[14.78455,45.5858],[14.78827,45.58267],[14.78971,45.58276],[14.79123,45.58139],[14.7935,45.58125],[14.79698,45.57884],[14.79754,45.57699],[14.79681,45.57589],[14.79982,45.57517],[14.80091,45.57547],[14.8052,45.57356],[14.80735,45.57332],[14.81349,45.57166],[14.81744,45.57137],[14.82781,45.56904],[14.8312,45.56948],[14.83643,45.56957],[14.84063,45.57135],[14.84441,45.57219],[14.85449,45.57183],[14.86045,45.57241],[14.86324,45.57085],[14.86663,45.57072],[14.86793,45.57123],[14.87151,45.57151],[14.87627,45.57077],[14.87866,45.57097],[14.88448,45.57336],[14.88569,45.57524],[14.88931,45.57774],[14.88961,45.57868],[14.88921,45.57965],[14.89285,45.57743],[14.89446,45.57691],[14.89794,45.57281],[14.90275,45.57049],[14.90455,45.57016],[14.90555,45.56904],[14.90572,45.56804],[14.90441,45.56609],[14.9054,45.56395],[14.90647,45.56352],[14.90916,45.56356],[14.91073,45.56166],[14.91368,45.55973],[14.91658,45.55908],[14.91763,45.55358],[14.91974,45.55211],[14.91734,45.55179],[14.91574,45.5521],[14.91544,45.55179],[14.91649,45.55085],[14.91867,45.54695],[14.91855,45.54593],[14.92191,45.54236],[14.92222,45.54122],[14.92169,45.53969],[14.92226,45.53852],[14.92396,45.53725],[14.92584,45.53685],[14.92794,45.53691],[14.92953,45.53773],[14.93076,45.53743],[14.93289,45.53775],[14.93341,45.53834],[14.93505,45.53882],[14.94033,45.53837],[14.94258,45.53752],[14.94514,45.53792],[14.94611,45.53769],[14.94639,45.53815],[14.94728,45.53832],[14.94875,45.53816],[14.95012,45.53874],[14.95092,45.54016],[14.951,45.5416],[14.95007,45.54328],[14.95085,45.5445],[14.95155,45.54477],[14.95525,45.54277],[14.95974,45.53738],[14.96366,45.53595],[14.96497,45.53404],[14.96742,45.53223],[14.97015,45.53173],[14.97176,45.53074],[14.97386,45.53034],[14.97486,45.52962],[14.97824,45.52865],[14.98106,45.52559],[14.98032,45.5226],[14.98544,45.51231],[14.9854,45.51074],[14.98454,45.50992],[14.98391,45.50737],[14.98509,45.50532],[14.9873,45.50298],[14.99217,45.50269],[14.99669,45.50152],[15.00394,45.50168],[15.00542,45.50139],[15.00901,45.50207],[15.01254,45.50204],[15.01549,45.50279],[15.01788,45.50267],[15.01612,45.50147],[15.01517,45.49865],[15.01571,45.49806],[15.01749,45.49864],[15.01837,45.49832],[15.01821,45.49628],[15.02149,45.49386],[15.0218,45.49289],[15.02346,45.49159],[15.02531,45.48685],[15.02713,45.4861],[15.03485,45.48675],[15.04271,45.48859],[15.04543,45.49048],[15.04734,45.49359],[15.0514,45.4952],[15.05254,45.49632],[15.05661,45.49411],[15.05917,45.48988],[15.05919,45.49021],[15.05655,45.49414],[15.0525,45.49631],[15.05167,45.49531],[15.04766,45.49383],[15.04622,45.49152],[15.04389,45.48921],[15.04009,45.48757],[15.028,45.48625],[15.0255,45.48669],[15.02307,45.49142],[15.02093,45.4926],[15.0167,45.49372],[15.01511,45.49647],[15.01198,45.49808],[15.01024,45.49823],[15.004,45.49767],[14.99859,45.49666],[14.99351,45.49722],[14.98696,45.49713],[14.9802,45.49977],[14.97763,45.50136],[14.97273,45.50514],[14.96986,45.50915],[14.96808,45.51037],[14.96364,45.51138],[14.96222,45.51267],[14.96134,45.51273],[14.95651,45.51546],[14.95413,45.51756],[14.94898,45.52046],[14.94482,45.52346],[14.93769,45.52627],[14.9322,45.52945],[14.93063,45.52953],[14.92679,45.5285],[14.92205,45.52822],[14.92049,45.52762],[14.9186,45.52224],[14.91746,45.52142],[14.9131,45.51994],[14.91158,45.51878],[14.91194,45.51795],[14.91111,45.51681],[14.9125,45.51346],[14.91244,45.51091],[14.91508,45.50565],[14.91467,45.50466],[14.91083,45.50168],[14.9113,45.49784],[14.91435,45.49569],[14.91446,45.49466],[14.91366,45.49299],[14.91061,45.49076],[14.90933,45.48827],[14.91004,45.48576],[14.90961,45.48273],[14.90765,45.48254],[14.90433,45.48022],[14.90328,45.48033],[14.90102,45.47812],[14.89722,45.47666],[14.8854,45.47666],[14.88244,45.477],[14.87993,45.47529],[14.8771,45.47429],[14.87195,45.47361],[14.86352,45.47119],[14.85759,45.46807],[14.85538,45.46538],[14.85282,45.4643]]}}]}