{"type":"FeatureCollection","features":[{"type":"Feature","properties":{"name":"riga-papisilla-2025-08-28-4","country":"EE","lengthKm":63.5},"geometry":{"type":"LineString","coordinates":[[24.52551,57.31944],[24.52702,57.32506],[24.5207,57.32549],[24.52147,57.32772],[24.52266,57.32885],[24.52273,57.33083],[24.52199,57.33506],[24.52071,57.3355],[24.51981,57.33733],[24.51857,57.33835],[24.52512,57.3407],[24.52358,57.34273],[24.52112,57.34463],[24.51742,57.34655],[24.50832,57.35417],[24.5035,57.35704],[24.50251,57.35844],[24.50185,57.36366],[24.50221,57.3618],[24.50741,57.36147],[24.50863,57.36201],[24.50933,57.36168],[24.55463,57.38438],[24.55063,57.38567],[24.54995,57.38622],[24.54292,57.39842],[24.54398,57.40248],[24.54571,57.40428],[24.52634,57.4164],[24.52941,57.41898],[24.53415,57.42153],[24.53687,57.4239],[24.54207,57.42544],[24.54834,57.42857],[24.55411,57.43033],[24.56067,57.43117],[24.56555,57.43274],[24.57009,57.43272],[24.5715,57.43319],[24.57398,57.43758],[24.57567,57.43935],[24.582,57.44156],[24.58185,57.44556],[24.57934,57.4503],[24.58095,57.45216],[24.57882,57.45264],[24.57522,57.4519],[24.5733,57.45197],[24.56318,57.45448],[24.55891,57.45679],[24.55167,57.45682],[24.53945,57.45792],[24.53346,57.4574],[24.52904,57.4587],[24.52311,57.45976],[24.5218,57.46063],[24.5129,57.46383],[24.50299,57.46273],[24.49968,57.4636],[24.49056,57.46418],[24.48051,57.4661],[24.47557,57.46635],[24.47729,57.46805],[24.47761,57.47225],[24.4831,57.47664],[24.48385,57.47803],[24.48182,57.4814],[24.48145,57.48328],[24.48767,57.48522],[24.49284,57.4881],[24.50212,57.49055],[24.50478,57.49415],[24.50736,57.49523],[24.50905,57.49658],[24.51285,57.50413],[24.51303,57.50737],[24.51537,57.51177],[24.52111,57.514],[24.52239,57.51591],[24.52217,57.51954],[24.52669,57.52187],[24.52954,57.52399],[24.53483,57.53064],[24.5378,57.53784],[24.53717,57.54205],[24.53511,57.54322],[24.52455,57.54704],[24.52329,57.54834],[24.5215,57.55188],[24.52141,57.55297],[24.5242,57.55772],[24.52797,57.56164],[24.52962,57.56533],[24.52862,57.5667],[24.52065,57.57199],[24.51444,57.5791],[24.51355,57.5817],[24.51362,57.58711],[24.51524,57.59104],[24.51513,57.59441],[24.51325,57.59755],[24.51026,57.60063],[24.50105,57.60586],[24.49751,57.60943],[24.49636,57.61194],[24.49445,57.6116],[24.48819,57.60741],[24.47958,57.60904],[24.47156,57.60771],[24.46624,57.60776],[24.46191,57.60894],[24.45401,57.60881],[24.45038,57.60545],[24.44634,57.59687],[24.44261,57.59379],[24.43958,57.59199],[24.4386,57.58709],[24.43896,57.58213],[24.43479,57.57136],[24.43492,57.57022],[24.43379,57.56991],[24.43409,57.56946],[24.42935,57.56768],[24.42481,57.5678],[24.4188,57.56646],[24.41321,57.56629],[24.40849,57.56698],[24.40036,57.56954],[24.3984,57.56968],[24.39986,57.56963],[24.39533,57.57114],[24.39047,57.57391],[24.38469,57.57619],[24.38195,57.5781],[24.38062,57.57853],[24.37774,57.57897],[24.37548,57.57872],[24.37272,57.57918],[24.37146,57.57897],[24.37102,57.57835],[24.36751,57.57835],[24.36598,57.57906],[24.36558,57.58073],[24.36908,57.58283],[24.3705,57.58593],[24.36983,57.58738],[24.37205,57.58987],[24.37386,57.59666],[24.37297,57.60004],[24.37355,57.60096],[24.37557,57.60195],[24.37827,57.6045],[24.37941,57.6064],[24.38116,57.60695],[24.3833,57.61004],[24.38588,57.61026],[24.3884,57.61117],[24.38967,57.61387],[24.39071,57.61436],[24.39478,57.61427]]}},{"type":"Feature","properties":{"name":"riga-papisilla-2025-08-28-5","country":"EE","lengthKm":66.8},"geometry":{"type":"LineString","coordinates":[[24.37474,57.64582],[24.37514,57.65038],[24.37374,57.65011],[24.37333,57.65492],[24.3702,57.66072],[24.36779,57.67589],[24.36563,57.6802],[24.36389,57.68212],[24.36181,57.68693],[24.36071,57.68685],[24.36074,57.69137],[24.35891,57.69552],[24.35625,57.69908],[24.35489,57.70228],[24.35478,57.7047],[24.35152,57.71124],[24.34741,57.71795],[24.34731,57.72056],[24.34955,57.72772],[24.35002,57.73434],[24.3533,57.74707],[24.35658,57.75245],[24.3581,57.75215],[24.3627,57.75682],[24.36561,57.75674],[24.36728,57.76144],[24.37519,57.77096],[24.37749,57.77223],[24.3766,57.7727],[24.38724,57.78097],[24.38801,57.78154],[24.39378,57.78285],[24.39701,57.77955],[24.38181,57.79615],[24.38364,57.79657],[24.3861,57.79803],[24.40439,57.80304],[24.40712,57.80087],[24.40917,57.79759],[24.41139,57.79701],[24.42898,57.79454],[24.43103,57.79458],[24.44279,57.7925],[24.44434,57.79261],[24.44478,57.79443],[24.44798,57.7951],[24.44884,57.7975],[24.44639,57.80523],[24.44733,57.80581],[24.44743,57.80902],[24.44817,57.81058],[24.44761,57.81554],[24.45057,57.82162],[24.44894,57.82571],[24.45196,57.82988],[24.45106,57.83232],[24.45209,57.83574],[24.45032,57.84059],[24.4557,57.84924],[24.35851,57.86345],[24.36066,57.87026],[24.3609,57.8739],[24.36419,57.88069],[24.36598,57.88294],[24.36905,57.88994],[24.37469,57.89922],[24.38331,57.91128],[24.39002,57.92392],[24.39197,57.93185],[24.39199,57.93958],[24.39119,57.94562],[24.39168,57.94946],[24.39494,57.95292],[24.39819,57.95504],[24.40403,57.96082],[24.40788,57.96713],[24.40879,57.96968],[24.41827,57.98388],[24.42231,57.98686],[24.43297,57.99833],[24.44599,58.00709],[24.4493,58.01163],[24.45119,58.01691],[24.45369,58.0195],[24.45477,58.02291],[24.45818,58.02724],[24.46165,58.03518],[24.4647,58.03869],[24.47484,58.04705],[24.47747,58.05114],[24.48027,58.05833],[24.48207,58.06081],[24.48644,58.06417],[24.49223,58.07254],[24.49615,58.07685],[24.51366,58.07496],[24.52033,58.07691],[24.52499,58.07772],[24.52285,58.0817],[24.52429,58.08569],[24.53161,58.08516],[24.53438,58.08997],[24.54781,58.09846]]}}]}