{"type":"FeatureCollection","features":[{"type":"Feature","properties":{"name":"riga-adazi-2020-05-16","country":"LV","lengthKm":31.2},"geometry":{"type":"LineString","coordinates":[[24.13702,57.02599],[24.13778,57.02795],[24.13744,57.02898],[24.13537,57.03063],[24.13311,57.03152],[24.13415,57.03234],[24.13542,57.03237],[24.13664,57.03189],[24.13704,57.03098],[24.13066,57.03305],[24.12692,57.03512],[24.1213,57.03466],[24.1182,57.03527],[24.1155,57.03637],[24.11292,57.03925],[24.11066,57.04025],[24.11049,57.04131],[24.11554,57.04506],[24.11497,57.0477],[24.11566,57.04855],[24.11565,57.05036],[24.11665,57.0516],[24.11291,57.05475],[24.10835,57.0576],[24.10826,57.05853],[24.1164,57.06374],[24.12283,57.06558],[24.12566,57.06567],[24.11851,57.07445],[24.12084,57.07532],[24.12154,57.07652],[24.12416,57.07783],[24.12567,57.07802],[24.12801,57.07747],[24.1301,57.07756],[24.13308,57.07884],[24.13514,57.08047],[24.14122,57.08267],[24.1419,57.08207],[24.14388,57.08264],[24.14478,57.08396],[24.14699,57.08516],[24.15177,57.08584],[24.15229,57.08536],[24.15424,57.08518],[24.15679,57.08282],[24.15983,57.08192],[24.15853,57.07325],[24.15975,57.07339],[24.16057,57.07247],[24.16795,57.07057],[24.17347,57.07028],[24.1768,57.06958],[24.18102,57.06924],[24.18365,57.06788],[24.18429,57.06616],[24.18891,57.06561],[24.19096,57.06435],[24.19216,57.06286],[24.19538,57.06115],[24.19749,57.06055],[24.19931,57.06048],[24.20022,57.05987],[24.21056,57.06248],[24.21639,57.0627],[24.21936,57.06448],[24.22353,57.06527],[24.22304,57.06627],[24.22398,57.06779],[24.22467,57.06843],[24.22587,57.06852],[24.2235,57.068],[24.22141,57.06998],[24.22038,57.07021],[24.22027,57.07087],[24.22235,57.07166],[24.22515,57.07189],[24.2279,57.07188],[24.22903,57.0713],[24.2329,57.07176],[24.2335,57.07248],[24.23098,57.07575],[24.23568,57.07678],[24.24365,57.07719],[24.24844,57.07681],[24.25132,57.08073],[24.25599,57.08028],[24.27433,57.07622],[24.27717,57.07527],[24.27851,57.07418],[24.27079,57.06966],[24.27048,57.06793],[24.27788,57.06352],[24.28282,57.06187],[24.28776,57.06139],[24.29153,57.05873],[24.29705,57.05681],[24.30203,57.05599],[24.30467,57.057],[24.3063,57.05877],[24.31028,57.05953],[24.31548,57.05958],[24.3175,57.05996],[24.31738,57.06178],[24.31834,57.06251],[24.31774,57.06315],[24.31796,57.06418],[24.31624,57.06446],[24.31526,57.06749],[24.31655,57.06817],[24.31631,57.06886],[24.31721,57.06957],[24.31784,57.0696],[24.31831,57.06857],[24.32215,57.0685],[24.33229,57.06924],[24.33653,57.07063],[24.33142,57.07387],[24.32732,57.07778],[24.32903,57.07898]]}},{"type":"Feature","properties":{"name":"riga-papisilla-2025-08-28-1","country":"LV","lengthKm":3.4},"geometry":{"type":"LineString","coordinates":[[24.18621,56.99237],[24.1876,56.99177],[24.1879,56.99208],[24.1944,56.99176],[24.19683,56.99116],[24.19966,56.99016],[24.20262,56.98732],[24.20626,56.98674],[24.22328,56.98962],[24.22487,56.99061],[24.2262,56.9926],[24.22908,56.99411],[24.23071,56.99565]]}},{"type":"Feature","properties":{"name":"riga-papisilla-2025-08-28-2","country":"LV","lengthKm":14.1},"geometry":{"type":"LineString","coordinates":[[24.23589,56.99825],[24.24057,56.99868],[24.24794,57.00055],[24.25007,57.00146],[24.2519,57.00454],[24.25635,57.0037],[24.25989,57.00364],[24.26127,57.00685],[24.26142,57.00867],[24.25953,57.01185],[24.25913,57.01516],[24.25971,57.01669],[24.25824,57.01873],[24.25114,57.01905],[24.24459,57.02243],[24.24745,57.02637],[24.24689,57.03229],[24.24787,57.03559],[24.24601,57.03856],[24.24534,57.04104],[24.24638,57.04391],[24.25107,57.0487],[24.25222,57.05085],[24.25672,57.0559],[24.25738,57.0576],[24.26256,57.06195],[24.26534,57.06674],[24.27004,57.06883],[24.27221,57.07057],[24.29788,57.08525],[24.30536,57.09326],[24.31062,57.09453]]}},{"type":"Feature","properties":{"name":"riga-papisilla-2025-08-28-3","country":"LV","lengthKm":46.5},"geometry":{"type":"LineString","coordinates":[[24.34799,57.08723],[24.35059,57.08394],[24.35914,57.08413],[24.36604,57.08298],[24.36709,57.08179],[24.37062,57.07959],[24.37305,57.07953],[24.37582,57.07995],[24.38048,57.08214],[24.3859,57.0816],[24.3926,57.0843],[24.39965,57.08551],[24.406,57.08506],[24.41332,57.08347],[24.41807,57.08363],[24.42071,57.08465],[24.42315,57.08501],[24.42537,57.08459],[24.43125,57.08471],[24.43975,57.08926],[24.44868,57.09002],[24.45227,57.08927],[24.45598,57.08924],[24.45995,57.0905],[24.46533,57.09121],[24.475,57.09705],[24.48592,57.10065],[24.49266,57.10368],[24.49988,57.10768],[24.50026,57.10896],[24.51185,57.11425],[24.51742,57.11837],[24.51935,57.1193],[24.52416,57.12029],[24.52659,57.12135],[24.52777,57.12289],[24.52945,57.124],[24.53819,57.12737],[24.54725,57.13182],[24.56773,57.14329],[24.57381,57.14366],[24.57628,57.14465],[24.58228,57.14874],[24.58765,57.14966],[24.59382,57.1526],[24.59714,57.15331],[24.59888,57.15546],[24.60221,57.15772],[24.603,57.15909],[24.60555,57.15951],[24.6095,57.16122],[24.60997,57.16308],[24.61605,57.16403],[24.62087,57.16534],[24.61876,57.16915],[24.6118,57.17303],[24.60708,57.17824],[24.60621,57.18096],[24.60259,57.18428],[24.60197,57.18771],[24.59732,57.19006],[24.59715,57.19166],[24.60041,57.19548],[24.60028,57.1967],[24.59737,57.19944],[24.59449,57.19986],[24.59356,57.20036],[24.58842,57.20564],[24.58707,57.20899],[24.58671,57.21162],[24.59478,57.21372],[24.59763,57.21518],[24.59772,57.2161],[24.60099,57.21809],[24.59606,57.21917],[24.59579,57.21994],[24.59692,57.22205],[24.59905,57.22333],[24.60052,57.22593],[24.60194,57.22646],[24.60298,57.22746],[24.60327,57.22958],[24.60202,57.23116],[24.60021,57.23233],[24.58969,57.23635],[24.58655,57.23707],[24.58492,57.23596],[24.57363,57.23491],[24.5717,57.23421],[24.56758,57.23571],[24.57626,57.24279],[24.57751,57.24662],[24.5799,57.24855],[24.58144,57.25146],[24.58445,57.25466],[24.58481,57.25826],[24.58863,57.26152],[24.58321,57.26332],[24.5752,57.26502],[24.57268,57.26495],[24.56522,57.26374],[24.55262,57.26355],[24.55022,57.26309],[24.54838,57.26209],[24.54727,57.26279],[24.53585,57.26638],[24.52785,57.27234],[24.52702,57.27449],[24.50567,57.27301],[24.50412,57.27616],[24.49958,57.28178],[24.49892,57.28467],[24.50434,57.28514],[24.50728,57.28587],[24.5127,57.28943],[24.52124,57.29158],[24.51697,57.30285],[24.51911,57.30574],[24.51821,57.30723]]}},{"type":"Feature","properties":{"name":"sigulda-riga-2025-03-23-1","country":"LV","lengthKm":50.7},"geometry":{"type":"LineString","coordinates":[[24.8508,57.17849],[24.85145,57.17905],[24.85102,57.18014],[24.8517,57.18068],[24.85587,57.18179],[24.86183,57.182],[24.8637,57.18271],[24.86582,57.18248],[24.87083,57.18504],[24.87837,57.18601],[24.88447,57.18871],[24.88538,57.19022],[24.89094,57.19186],[24.89094,57.19325],[24.88925,57.19483],[24.89078,57.19569],[24.88779,57.19923],[24.88388,57.20028],[24.88344,57.20076],[24.87712,57.20201],[24.87607,57.20284],[24.86939,57.20537],[24.86453,57.2078],[24.85992,57.20816],[24.85807,57.20869],[24.85646,57.20981],[24.8576,57.21132],[24.85229,57.21198],[24.8482,57.21192],[24.84527,57.2132],[24.83181,57.21373],[24.83006,57.21427],[24.82162,57.21491],[24.81746,57.21599],[24.81414,57.21493],[24.81172,57.21556],[24.80297,57.21275],[24.7935,57.213],[24.78581,57.21143],[24.78261,57.2118],[24.78122,57.21025],[24.77716,57.21045],[24.76881,57.21311],[24.76252,57.21358],[24.76333,57.22123],[24.76223,57.22294],[24.76246,57.22624],[24.76223,57.22294],[24.76333,57.22123],[24.76252,57.21358],[24.75626,57.21675],[24.75149,57.21783],[24.74979,57.21937],[24.74813,57.21973],[24.74686,57.2196],[24.7427,57.21761],[24.73353,57.21788],[24.72063,57.21726],[24.71737,57.21621],[24.70942,57.21817],[24.70407,57.21561],[24.70078,57.21481],[24.69851,57.21454],[24.69763,57.21679],[24.69597,57.21632],[24.69084,57.21137],[24.69047,57.20707],[24.68952,57.20645],[24.6898,57.205],[24.68837,57.20348],[24.68641,57.20283],[24.68337,57.20266],[24.68189,57.19954],[24.67999,57.19824],[24.66965,57.19553],[24.66669,57.19674],[24.66358,57.19737],[24.65562,57.19768],[24.64926,57.19678],[24.62842,57.19938],[24.62603,57.19913],[24.62014,57.19748],[24.61598,57.19701],[24.61178,57.19732],[24.60569,57.2002],[24.60374,57.2003],[24.59737,57.19944],[24.59397,57.20005],[24.58842,57.20564],[24.58672,57.21162],[24.59478,57.21372],[24.59763,57.21518],[24.59772,57.2161],[24.60171,57.2185],[24.61441,57.21987],[24.61747,57.22224],[24.62364,57.22468],[24.61747,57.22224],[24.61441,57.21987],[24.60229,57.21863],[24.60099,57.21809],[24.59625,57.21911],[24.59576,57.21961],[24.59692,57.22205],[24.59882,57.22308],[24.60044,57.22584],[24.60208,57.22656],[24.60346,57.22859],[24.60221,57.23096],[24.60021,57.23233],[24.58969,57.23635],[24.58655,57.23707],[24.58492,57.23596],[24.57363,57.23491],[24.5717,57.23421],[24.56758,57.23571],[24.57626,57.24279],[24.57751,57.24662],[24.58026,57.24899],[24.58233,57.2525],[24.5763,57.25144],[24.56976,57.2496],[24.55719,57.25318],[24.55295,57.25247],[24.55081,57.25157],[24.54993,57.24947],[24.54853,57.24861],[24.54147,57.24938],[24.53969,57.2479],[24.53483,57.24686],[24.53351,57.24923],[24.53282,57.25376],[24.52744,57.25196],[24.52116,57.25061],[24.51647,57.24896],[24.50472,57.25079],[24.49893,57.2495],[24.48641,57.24273],[24.48427,57.24201],[24.47341,57.24149],[24.46132,57.23717],[24.45417,57.23718],[24.44967,57.23808]]}},{"type":"Feature","properties":{"name":"sigulda-riga-2025-03-23-2","country":"LV","lengthKm":12.3},"geometry":{"type":"LineString","coordinates":[[24.41549,57.24892],[24.41021,57.24293],[24.40814,57.23605],[24.41039,57.22926],[24.40965,57.22668],[24.41053,57.2255],[24.40992,57.22443],[24.41023,57.22199],[24.40958,57.22201],[24.40861,57.22102],[24.41023,57.22199],[24.4046,57.22375],[24.40074,57.2224],[24.39968,57.22165],[24.39979,57.22073],[24.39767,57.21848],[24.39316,57.21637],[24.39479,57.21268],[24.38778,57.20845],[24.38869,57.209],[24.38868,57.20824],[24.39003,57.20786],[24.38988,57.20732],[24.38806,57.20683],[24.38534,57.2067],[24.38299,57.20522],[24.38448,57.20212],[24.38744,57.20188],[24.39134,57.20253],[24.3904,57.20217],[24.38549,57.2018],[24.38855,57.19926],[24.3847,57.19886],[24.38588,57.19783],[24.38656,57.19604],[24.38229,57.19212],[24.38033,57.19105],[24.38098,57.18933],[24.37715,57.18805],[24.37421,57.18561],[24.3714,57.18493],[24.36396,57.18753],[24.36379,57.19063],[24.35428,57.19156],[24.35246,57.19139]]}},{"type":"Feature","properties":{"name":"sigulda-riga-2025-03-23-3","country":"LV","lengthKm":1.3},"geometry":{"type":"LineString","coordinates":[[24.32594,57.17549],[24.32249,57.17206],[24.32022,57.16861],[24.31671,57.1656]]}},{"type":"Feature","properties":{"name":"sigulda-riga-2025-03-23-4","country":"LV","lengthKm":6.7},"geometry":{"type":"LineString","coordinates":[[24.32338,57.16452],[24.32046,57.16298],[24.31283,57.15703],[24.30727,57.15149],[24.30692,57.15037],[24.30427,57.15174],[24.30692,57.15037],[24.3064,57.14979],[24.30479,57.14841],[24.30216,57.14721],[24.29926,57.14373],[24.29854,57.14349],[24.2984,57.14263],[24.29545,57.14203],[24.29728,57.141],[24.29889,57.13802],[24.30698,57.13455],[24.30838,57.13342],[24.30925,57.13055],[24.31379,57.12585],[24.32007,57.12239],[24.3264,57.12228]]}},{"type":"Feature","properties":{"name":"sigulda-riga-2025-03-23-5","country":"LV","lengthKm":19},"geometry":{"type":"LineString","coordinates":[[24.32409,57.11747],[24.32386,57.11772],[24.31887,57.11796],[24.31408,57.11708],[24.30905,57.11521],[24.30653,57.11361],[24.30686,57.11312],[24.30574,57.11321],[24.30686,57.11312],[24.30275,57.11789],[24.29268,57.11572],[24.28732,57.11505],[24.28046,57.11241],[24.27871,57.11038],[24.26935,57.10828],[24.26243,57.10782],[24.26019,57.10409],[24.27371,57.08768],[24.28833,57.07973],[24.27122,57.06998],[24.27025,57.06878],[24.27054,57.06788],[24.27004,57.06883],[24.26534,57.06674],[24.26256,57.06195],[24.25738,57.0576],[24.25672,57.0559],[24.25222,57.05085],[24.25107,57.0487],[24.2463,57.04376],[24.24534,57.04104],[24.24601,57.03856],[24.24787,57.03559],[24.24689,57.03229],[24.24745,57.02637],[24.24498,57.02291],[24.24602,57.02374],[24.24505,57.0228],[24.24585,57.02189],[24.25114,57.01905],[24.25824,57.01873],[24.25971,57.01669],[24.25913,57.01516],[24.25953,57.01185],[24.26145,57.00851],[24.25989,57.00364]]}}]}